{
"type": "FeatureCollection",
"name": "pumping_stations",
"crs": { "type": "name", "properties": { "name": "urn:ogc:def:crs:OGC:1.3:CRS84" } },
"features": [
{ "type": "Feature", "properties": { "ward": 108, "source_sheet": "108_ruby.pdf p1", "source": "KMC ward sewerage network map (ArcMap GeoPDF)", "extraction_method": "geopdf_vector", "georef_max_residual_m": 0.1, "name": "PS-4", "position_note": "symbol anchor; may be offset ~10 m from true location" }, "geometry": { "type": "Point", "coordinates": [ 88.399221250438302, 22.520470379592947 ] } },
{ "type": "Feature", "properties": { "ward": 109, "source_sheet": "109_Haltu.pdf p1", "source": "KMC ward sewerage network map (ArcMap GeoPDF)", "extraction_method": "geopdf_vector", "georef_max_residual_m": 0.3, "name": "Chalk Garia Pumping Station", "position_note": "symbol anchor; may be offset ~10 m from true location" }, "geometry": { "type": "Point", "coordinates": [ 88.402013340510976, 22.476880253494059 ] } },
{ "type": "Feature", "properties": { "ward": 109, "source_sheet": "109_Haltu.pdf p1", "source": "KMC ward sewerage network map (ArcMap GeoPDF)", "extraction_method": "geopdf_vector", "georef_max_residual_m": 0.3, "name": "Proposed Pumping Station", "position_note": "symbol anchor; may be offset ~10 m from true location" }, "geometry": { "type": "Point", "coordinates": [ 88.406304893049992, 22.494672596420287 ] } }
]
}
