{
"type": "FeatureCollection",
"name": "ward102_p1_water_bodies",
"crs": { "type": "name", "properties": { "name": "urn:ogc:def:crs:OGC:1.3:CRS84" } },
"features": [
{ "type": "Feature", "properties": { "ward": 102, "source_sheet": "102_jadavpur4.pdf p1", "source": "KMC ward sewerage network map (ArcMap GeoPDF)", "extraction_method": "geopdf_raster_polygonised", "georef_max_residual_m": 0.1 }, "geometry": { "type": "Polygon", "coordinates": [ [ [ 88.372296894090525, 22.494422858944013 ], [ 88.37242282309461, 22.4944218133509 ], [ 88.37243756774663, 22.494414807307962 ], [ 88.372447256464085, 22.494396370560956 ], [ 88.372455957828208, 22.494281571455907 ], [ 88.372443517828046, 22.494272496603806 ], [ 88.372176891929783, 22.494279299388847 ], [ 88.372164804499207, 22.494304639646398 ], [ 88.372153375159286, 22.494394221482846 ], [ 88.372160947271837, 22.494410220381553 ], [ 88.372170918071362, 22.49441931575457 ], [ 88.372188225949429, 22.494421466603232 ], [ 88.372296894090525, 22.494422858944013 ] ] ] } },
{ "type": "Feature", "properties": { "ward": 102, "source_sheet": "102_jadavpur4.pdf p1", "source": "KMC ward sewerage network map (ArcMap GeoPDF)", "extraction_method": "geopdf_raster_polygonised", "georef_max_residual_m": 0.1 }, "geometry": { "type": "Polygon", "coordinates": [ [ [ 88.373364878159279, 22.493817408825596 ], [ 88.373426560720475, 22.493812307214448 ], [ 88.37349045368704, 22.49378194731036 ], [ 88.3735270915098, 22.493742635730904 ], [ 88.373551101093, 22.493675894650067 ], [ 88.37354298778294, 22.49360712597851 ], [ 88.373512840068543, 22.493556896703804 ], [ 88.37346804197287, 22.493522850918403 ], [ 88.373401162430284, 22.493502755820405 ], [ 88.373334541646358, 22.493507898447181 ], [ 88.373270648764617, 22.493538258285842 ], [ 88.373234010916491, 22.493577569808863 ], [ 88.37321000119266, 22.493644310849987 ], [ 88.373218067301849, 22.493708490863558 ], [ 88.373248214949029, 22.493758720196183 ], [ 88.373297998485029, 22.493797313691807 ], [ 88.373364878159279, 22.493817408825596 ] ] ] } },
{ "type": "Feature", "properties": { "ward": 102, "source_sheet": "102_jadavpur4.pdf p1", "source": "KMC ward sewerage network map (ArcMap GeoPDF)", "extraction_method": "geopdf_raster_polygonised", "georef_max_residual_m": 0.1 }, "geometry": { "type": "Polygon", "coordinates": [ [ [ 88.37497329869629, 22.493418554311901 ], [ 88.374995521276972, 22.493418369441567 ], [ 88.375086362658237, 22.493367133916539 ], [ 88.375048594989522, 22.493296317524223 ], [ 88.37502319677111, 22.4932276927528 ], [ 88.374984652069202, 22.493081163129656 ], [ 88.37489343407313, 22.493095689154377 ], [ 88.374832034468341, 22.493128323387726 ], [ 88.3748104476702, 22.493190455410389 ], [ 88.374808449415852, 22.493236362746291 ], [ 88.374814094141826, 22.493305151865446 ], [ 88.374844242252209, 22.493355380877357 ], [ 88.374876694730148, 22.493389528964432 ], [ 88.374911498660879, 22.493412184805383 ], [ 88.37497329869629, 22.493418554311901 ] ] ] } },
{ "type": "Feature", "properties": { "ward": 102, "source_sheet": "102_jadavpur4.pdf p1", "source": "KMC ward sewerage network map (ArcMap GeoPDF)", "extraction_method": "geopdf_raster_polygonised", "georef_max_residual_m": 0.1 }, "geometry": { "type": "Polygon", "coordinates": [ [ [ 88.375473896677391, 22.492870584213811 ], [ 88.375559916981103, 22.492830861237611 ], [ 88.375640786874015, 22.492770530266366 ], [ 88.375515349914693, 22.492578833245467 ], [ 88.375414915221441, 22.492657683245536 ], [ 88.37535840715384, 22.492685687892187 ], [ 88.375473896677391, 22.492870584213811 ] ] ] } },
{ "type": "Feature", "properties": { "ward": 102, "source_sheet": "102_jadavpur4.pdf p1", "source": "KMC ward sewerage network map (ArcMap GeoPDF)", "extraction_method": "geopdf_raster_polygonised", "georef_max_residual_m": 0.1 }, "geometry": { "type": "Polygon", "coordinates": [ [ [ 88.374955991112799, 22.491732214476716 ], [ 88.374985620861494, 22.491731968003357 ], [ 88.374997754664108, 22.491711216243413 ], [ 88.375059130071847, 22.491676287634494 ], [ 88.375073662357593, 22.491648632308518 ], [ 88.375065760410138, 22.491600512789425 ], [ 88.375038081781653, 22.491550263253028 ], [ 88.375010779930761, 22.491536723153256 ], [ 88.374973742797167, 22.491537031247301 ], [ 88.374919633579225, 22.491558132165419 ], [ 88.374885301034169, 22.491581363103595 ], [ 88.374863361285307, 22.491609080027573 ], [ 88.374856189303017, 22.491632085043367 ], [ 88.3748713808898, 22.491668671261333 ], [ 88.374923303566007, 22.491675122978396 ], [ 88.374938236165988, 22.491686471446666 ], [ 88.374955991112799, 22.491732214476716 ] ] ] } },
{ "type": "Feature", "properties": { "ward": 102, "source_sheet": "102_jadavpur4.pdf p1", "source": "KMC ward sewerage network map (ArcMap GeoPDF)", "extraction_method": "geopdf_raster_polygonised", "georef_max_residual_m": 0.1 }, "geometry": { "type": "Polygon", "coordinates": [ [ [ 88.377588751854546, 22.490813129814985 ], [ 88.377633007416989, 22.490794404688991 ], [ 88.377649819501826, 22.49074837387597 ], [ 88.377640737255732, 22.490585537627116 ], [ 88.377600358504168, 22.490500976388287 ], [ 88.377557888093477, 22.490453145121943 ], [ 88.377478947001066, 22.490460686611076 ], [ 88.377459453487802, 22.490486088942745 ], [ 88.377460090324561, 22.490548036070695 ], [ 88.377475353207657, 22.490591505033628 ], [ 88.377486762863754, 22.490740554696387 ], [ 88.377509315220195, 22.490772490232235 ], [ 88.377588751854546, 22.490813129814985 ] ] ] } },
{ "type": "Feature", "properties": { "ward": 102, "source_sheet": "102_jadavpur4.pdf p1", "source": "KMC ward sewerage network map (ArcMap GeoPDF)", "extraction_method": "geopdf_raster_polygonised", "georef_max_residual_m": 0.1 }, "geometry": { "type": "Polygon", "coordinates": [ [ [ 88.376712435074481, 22.49036152399886 ], [ 88.376934325739384, 22.490327552262695 ], [ 88.377158944791432, 22.490318797377206 ], [ 88.377208067754751, 22.490293148213183 ], [ 88.377225045008487, 22.490263177806352 ], [ 88.377222057080147, 22.490212722934594 ], [ 88.377153999650432, 22.49007791241068 ], [ 88.377094387210605, 22.490043991035659 ], [ 88.376980855139266, 22.490049525915211 ], [ 88.376860151473764, 22.490078065803925 ], [ 88.376702623190198, 22.490127563127146 ], [ 88.376607034847424, 22.49019719528615 ], [ 88.376602591627488, 22.490245417531181 ], [ 88.37663570378308, 22.490343806781642 ], [ 88.376712435074481, 22.49036152399886 ] ] ] } },
{ "type": "Feature", "properties": { "ward": 102, "source_sheet": "102_jadavpur4.pdf p1", "source": "KMC ward sewerage network map (ArcMap GeoPDF)", "extraction_method": "geopdf_raster_polygonised", "georef_max_residual_m": 0.1 }, "geometry": { "type": "Polygon", "coordinates": [ [ [ 88.373796001749071, 22.490105854587597 ], [ 88.374116751766522, 22.490080243252343 ], [ 88.374120725231336, 22.489986134202827 ], [ 88.374110260501041, 22.48992885776488 ], [ 88.374048532634504, 22.489929370869763 ], [ 88.373927734232169, 22.489948731220149 ], [ 88.373912707794261, 22.489928205275646 ], [ 88.373890462233732, 22.489926095627176 ], [ 88.373799246137281, 22.489940620940111 ], [ 88.373782079957536, 22.489952236287635 ], [ 88.373796001749071, 22.490105854587597 ] ] ] } },
{ "type": "Feature", "properties": { "ward": 102, "source_sheet": "102_jadavpur4.pdf p1", "source": "KMC ward sewerage network map (ArcMap GeoPDF)", "extraction_method": "geopdf_raster_polygonised", "georef_max_residual_m": 0.1 }, "geometry": { "type": "Polygon", "coordinates": [ [ [ 88.375175814434172, 22.490053079867405 ], [ 88.375215155442291, 22.490036690822226 ], [ 88.375246311963153, 22.48994465016213 ], [ 88.375292801220553, 22.489902961729435 ], [ 88.375408402037195, 22.489858403713253 ], [ 88.375775145356457, 22.489742919508597 ], [ 88.375848794579426, 22.489701004873801 ], [ 88.375872778884045, 22.489631969165206 ], [ 88.375881147508821, 22.489485049206994 ], [ 88.375895797221105, 22.489468865518671 ], [ 88.37580415317305, 22.489201167570187 ], [ 88.375791619212734, 22.489182915599002 ], [ 88.375719591307458, 22.489142213403529 ], [ 88.375593455266397, 22.489122612271643 ], [ 88.375322372477086, 22.489175347668972 ], [ 88.375310074076239, 22.489180039062425 ], [ 88.375268782293929, 22.489246924154141 ], [ 88.375266666427351, 22.489281359804359 ], [ 88.375282823351014, 22.489412013962621 ], [ 88.375268644554311, 22.489474084408702 ], [ 88.37518883598517, 22.489637660453827 ], [ 88.375139971859269, 22.489688546757463 ], [ 88.375068767974199, 22.489728146198871 ], [ 88.375014659460177, 22.489749247117565 ], [ 88.374977881794948, 22.489774792936466 ], [ 88.374936377790391, 22.489821028888581 ], [ 88.374912251722819, 22.489876298436723 ], [ 88.374935603863435, 22.489986241956306 ], [ 88.374960506914036, 22.490006685646662 ], [ 88.375022470249334, 22.490029115596641 ], [ 88.375086620156537, 22.490023992895836 ], [ 88.375175814434172, 22.490053079867405 ] ] ] } },
{ "type": "Feature", "properties": { "ward": 102, "source_sheet": "102_jadavpur4.pdf p1", "source": "KMC ward sewerage network map (ArcMap GeoPDF)", "extraction_method": "geopdf_raster_polygonised", "georef_max_residual_m": 0.1 }, "geometry": { "type": "Polygon", "coordinates": [ [ [ 88.378032560064682, 22.488106468654674 ], [ 88.378170498103756, 22.488073195206848 ], [ 88.378217174613084, 22.488049860700542 ], [ 88.378248918662976, 22.488015178010315 ], [ 88.378243673753957, 22.487985392788644 ], [ 88.378178062052399, 22.487848267731895 ], [ 88.37796146773627, 22.487916614889038 ], [ 88.377944325761277, 22.487930524991281 ], [ 88.377934850515615, 22.487969611069282 ], [ 88.377975370195259, 22.488067938306322 ], [ 88.377995358742297, 22.488090717029763 ], [ 88.378032560064682, 22.488106468654674 ] ] ] } },
{ "type": "Feature", "properties": { "ward": 102, "source_sheet": "102_jadavpur4.pdf p1", "source": "KMC ward sewerage network map (ArcMap GeoPDF)", "extraction_method": "geopdf_raster_polygonised", "georef_max_residual_m": 0.1 }, "geometry": { "type": "Polygon", "coordinates": [ [ [ 88.374170985702946, 22.487663644599667 ], [ 88.374249972551226, 22.487660693483324 ], [ 88.374355695630371, 22.487616218385689 ], [ 88.374432001569119, 22.487592638631273 ], [ 88.374476162471225, 22.487564737027931 ], [ 88.37448286366444, 22.487495845188747 ], [ 88.374464732952134, 22.487413392578592 ], [ 88.37441521036159, 22.487400037076963 ], [ 88.374336247200731, 22.487405282608826 ], [ 88.37423790795259, 22.487447401771931 ], [ 88.374110410345139, 22.487535653994218 ], [ 88.374110669153168, 22.487560891758115 ], [ 88.374170985702946, 22.487663644599667 ] ] ] } },
{ "type": "Feature", "properties": { "ward": 102, "source_sheet": "102_jadavpur4.pdf p1", "source": "KMC ward sewerage network map (ArcMap GeoPDF)", "extraction_method": "geopdf_raster_polygonised", "georef_max_residual_m": 0.1 }, "geometry": { "type": "Polygon", "coordinates": [ [ [ 88.380747076685523, 22.487461998126339 ], [ 88.380761891069369, 22.48746187438082 ], [ 88.380811035964811, 22.487438518529093 ], [ 88.380862862658475, 22.487435791058026 ], [ 88.380884942391802, 22.487421839409787 ], [ 88.380887104141024, 22.487391992420513 ], [ 88.380847102723706, 22.48734414138622 ], [ 88.380853091579155, 22.487206419368018 ], [ 88.38083806447672, 22.487185894099028 ], [ 88.380791341457069, 22.487204640658881 ], [ 88.380695142683933, 22.487214622332605 ], [ 88.380675508385806, 22.487226258995786 ], [ 88.380665821231773, 22.487244696173892 ], [ 88.380678733795307, 22.487299657120555 ], [ 88.380721393299382, 22.487365842263198 ], [ 88.380721629667036, 22.487388785621079 ], [ 88.380711895235947, 22.487402634130284 ], [ 88.380712273422503, 22.487439343502849 ], [ 88.380729745963592, 22.487457553822889 ], [ 88.380747076685523, 22.487461998126339 ] ] ] } },
{ "type": "Feature", "properties": { "ward": 102, "source_sheet": "102_jadavpur4.pdf p1", "source": "KMC ward sewerage network map (ArcMap GeoPDF)", "extraction_method": "geopdf_raster_polygonised", "georef_max_residual_m": 0.1 }, "geometry": { "type": "Polygon", "coordinates": [ [ [ 88.375918091254803, 22.487070889522808 ], [ 88.376147219232436, 22.487020797078184 ], [ 88.376156836303807, 22.486995477120988 ], [ 88.376148439563707, 22.486899176485807 ], [ 88.376138162797204, 22.486860254911644 ], [ 88.376105546719899, 22.486810046607996 ], [ 88.376053508043796, 22.486792123477528 ], [ 88.375932971835553, 22.486836722934907 ], [ 88.375868917666565, 22.486851023262197 ], [ 88.375827320565051, 22.486888082038885 ], [ 88.375813118650584, 22.486947858186024 ], [ 88.375860337020086, 22.486977294193387 ], [ 88.375900218897002, 22.487013674856239 ], [ 88.375918091254803, 22.487070889522808 ] ] ] } },
{ "type": "Feature", "properties": { "ward": 102, "source_sheet": "102_jadavpur4.pdf p1", "source": "KMC ward sewerage network map (ArcMap GeoPDF)", "extraction_method": "geopdf_raster_polygonised", "georef_max_residual_m": 0.1 }, "geometry": { "type": "Polygon", "coordinates": [ [ [ 88.378803714659227, 22.486978010812216 ], [ 88.379247106020458, 22.486873352446207 ], [ 88.379187130299599, 22.486564090692521 ], [ 88.378960355426358, 22.48660269508564 ], [ 88.378706727678178, 22.486671352075163 ], [ 88.378803714659227, 22.486978010812216 ] ] ] } },
{ "type": "Feature", "properties": { "ward": 102, "source_sheet": "102_jadavpur4.pdf p1", "source": "KMC ward sewerage network map (ArcMap GeoPDF)", "extraction_method": "geopdf_raster_polygonised", "georef_max_residual_m": 0.1 }, "geometry": { "type": "Polygon", "coordinates": [ [ [ 88.378143893442484, 22.486446591674582 ], [ 88.378193250821397, 22.486443885661174 ], [ 88.378244935676648, 22.486427393017021 ], [ 88.378269319420355, 22.486397360766269 ], [ 88.378392181869316, 22.486338972998173 ], [ 88.378423925508017, 22.486304290288089 ], [ 88.378416305992431, 22.486283703005419 ], [ 88.378384019624619, 22.486265615931309 ], [ 88.37834451490076, 22.486265945316614 ], [ 88.378285375790426, 22.486277911068814 ], [ 88.378285210622849, 22.486261850699478 ], [ 88.378270372756177, 22.4862596798725 ], [ 88.37825767360674, 22.486225367720035 ], [ 88.378257272494551, 22.486186363965139 ], [ 88.378190608307008, 22.486186919742913 ], [ 88.378136501673268, 22.486208021626297 ], [ 88.378087451072332, 22.486240554021144 ], [ 88.37805568376794, 22.486272942329979 ], [ 88.378051123141006, 22.48630969291283 ], [ 88.378081624604434, 22.486394336458385 ], [ 88.378106645378509, 22.486426251373395 ], [ 88.378143893442484, 22.486446591674582 ] ] ] } },
{ "type": "Feature", "properties": { "ward": 102, "source_sheet": "102_jadavpur4.pdf p1", "source": "KMC ward sewerage network map (ArcMap GeoPDF)", "extraction_method": "geopdf_raster_polygonised", "georef_max_residual_m": 0.1 }, "geometry": { "type": "Polygon", "coordinates": [ [ [ 88.376042892275024, 22.486239228499372 ], [ 88.376166297509457, 22.486233612220861 ], [ 88.376213044472848, 22.486217161325609 ], [ 88.376239897684798, 22.486187108807499 ], [ 88.376249491128476, 22.486159494505468 ], [ 88.376251182638484, 22.486083760714894 ], [ 88.376235190307455, 22.48596916701149 ], [ 88.376155733317603, 22.485926232238647 ], [ 88.376012528905108, 22.485927424217419 ], [ 88.375936177061831, 22.485946415984234 ], [ 88.375896860833123, 22.485965099492272 ], [ 88.375895357573569, 22.486059188016721 ], [ 88.375918709667289, 22.486169131437535 ], [ 88.375931266905766, 22.486189677759015 ], [ 88.375966116240093, 22.486216922154849 ], [ 88.376042892275024, 22.486239228499372 ] ] ] } },
{ "type": "Feature", "properties": { "ward": 102, "source_sheet": "102_jadavpur4.pdf p1", "source": "KMC ward sewerage network map (ArcMap GeoPDF)", "extraction_method": "geopdf_raster_polygonised", "georef_max_residual_m": 0.1 }, "geometry": { "type": "Polygon", "coordinates": [ [ [ 88.378900545727035, 22.48630949354239 ], [ 88.379252934469434, 22.486240012306133 ], [ 88.379167536811863, 22.4858598320364 ], [ 88.378874099037517, 22.485898992401388 ], [ 88.378884470892075, 22.485947091122682 ], [ 88.37880555605534, 22.485956927472099 ], [ 88.378900545727035, 22.48630949354239 ] ] ] } },
{ "type": "Feature", "properties": { "ward": 102, "source_sheet": "102_jadavpur4.pdf p1", "source": "KMC ward sewerage network map (ArcMap GeoPDF)", "extraction_method": "geopdf_raster_polygonised", "georef_max_residual_m": 0.1 }, "geometry": { "type": "Polygon", "coordinates": [ [ [ 88.37530819590782, 22.486109964337729 ], [ 88.375530362904641, 22.486103526934997 ], [ 88.375507902374906, 22.485839842032817 ], [ 88.375433595675361, 22.485817514875698 ], [ 88.375362040597935, 22.48582269924033 ], [ 88.375295682596374, 22.485853080251736 ], [ 88.375249241712552, 22.485899357320893 ], [ 88.375225210540052, 22.485963804267886 ], [ 88.375228503647079, 22.486044085683073 ], [ 88.375251243040935, 22.486094376349026 ], [ 88.37530819590782, 22.486109964337729 ] ] ] } },
{ "type": "Feature", "properties": { "ward": 102, "source_sheet": "102_jadavpur4.pdf p1", "source": "KMC ward sewerage network map (ArcMap GeoPDF)", "extraction_method": "geopdf_raster_polygonised", "georef_max_residual_m": 0.1 }, "geometry": { "type": "Polygon", "coordinates": [ [ [ 88.377497106304588, 22.485981602524493 ], [ 88.377765925143152, 22.485949533429832 ], [ 88.377898923071868, 22.485916301464044 ], [ 88.377911150325488, 22.485904726873127 ], [ 88.377918109254637, 22.485861072695034 ], [ 88.377911496382239, 22.485698215786112 ], [ 88.377898655849123, 22.485650137561862 ], [ 88.377863735546001, 22.485616010576774 ], [ 88.377843865335265, 22.485604703506795 ], [ 88.377814236926383, 22.485604950440369 ], [ 88.377602088650605, 22.485625074686311 ], [ 88.377510993766649, 22.485651073644526 ], [ 88.377422249979389, 22.485665580283808 ], [ 88.377453505498679, 22.485823642842849 ], [ 88.377461950192753, 22.485924532059233 ], [ 88.377474719862832, 22.485965727304936 ], [ 88.377497106304588, 22.485981602524493 ] ] ] } },
{ "type": "Feature", "properties": { "ward": 102, "source_sheet": "102_jadavpur4.pdf p1", "source": "KMC ward sewerage network map (ArcMap GeoPDF)", "extraction_method": "geopdf_raster_polygonised", "georef_max_residual_m": 0.1 }, "geometry": { "type": "Polygon", "coordinates": [ [ [ 88.380103396202315, 22.485861199828427 ], [ 88.380256051152216, 22.48581862369829 ], [ 88.380546830132175, 22.485761126772491 ], [ 88.380566346080528, 22.485738018450768 ], [ 88.380598254454, 22.485719395698627 ], [ 88.380745900101786, 22.485669977350753 ], [ 88.380829398099578, 22.485625683775567 ], [ 88.380866031737597, 22.485586370700204 ], [ 88.3808629481438, 22.485526738584092 ], [ 88.380822900035426, 22.485474298833221 ], [ 88.38080556956281, 22.485469854524549 ], [ 88.380554154005324, 22.485513255957787 ], [ 88.38044314218979, 22.485523361141279 ], [ 88.380061292975981, 22.485609152570493 ], [ 88.38003460609508, 22.48565526603921 ], [ 88.380033011132483, 22.485740177117538 ], [ 88.380060902854339, 22.485811074830401 ], [ 88.380103396202315, 22.485861199828427 ] ] ] } },
{ "type": "Feature", "properties": { "ward": 102, "source_sheet": "102_jadavpur4.pdf p1", "source": "KMC ward sewerage network map (ArcMap GeoPDF)", "extraction_method": "geopdf_raster_polygonised", "georef_max_residual_m": 0.1 }, "geometry": { "type": "Polygon", "coordinates": [ [ [ 88.381857106215733, 22.485674459396552 ], [ 88.3819729614316, 22.485655134615403 ], [ 88.382157712870381, 22.485612288382963 ], [ 88.382192137331984, 22.485598233352697 ], [ 88.382223974459677, 22.485572727286332 ], [ 88.382235964709295, 22.485538209038019 ], [ 88.38224016931575, 22.485467043367446 ], [ 88.382198298999043, 22.485237940194089 ], [ 88.381732481381562, 22.485322143047632 ], [ 88.381722628932465, 22.485324519932053 ], [ 88.381695777113393, 22.485354573299198 ], [ 88.381671536210092, 22.485398372038471 ], [ 88.381670438897203, 22.485531464128574 ], [ 88.38184823261507, 22.485532272533046 ], [ 88.381857106215733, 22.485674459396552 ] ] ] } },
{ "type": "Feature", "properties": { "ward": 102, "source_sheet": "102_jadavpur4.pdf p1", "source": "KMC ward sewerage network map (ArcMap GeoPDF)", "extraction_method": "geopdf_raster_polygonised", "georef_max_residual_m": 0.1 }, "geometry": { "type": "Polygon", "coordinates": [ [ [ 88.383073374584711, 22.485331580411916 ], [ 88.383314510200464, 22.485249254073857 ], [ 88.383237929911317, 22.48500667450077 ], [ 88.383004059683486, 22.485075172732842 ], [ 88.383073374584711, 22.485331580411916 ] ] ] } },
{ "type": "Feature", "properties": { "ward": 102, "source_sheet": "102_jadavpur4.pdf p1", "source": "KMC ward sewerage network map (ArcMap GeoPDF)", "extraction_method": "geopdf_raster_polygonised", "georef_max_residual_m": 0.1 }, "geometry": { "type": "Polygon", "coordinates": [ [ [ 88.381528365984678, 22.485163231689079 ], [ 88.381678716195225, 22.485136735250563 ], [ 88.381650019740277, 22.48498783043787 ], [ 88.381499669681943, 22.485014326842279 ], [ 88.381528365984678, 22.485163231689079 ] ] ] } },
{ "type": "Feature", "properties": { "ward": 102, "source_sheet": "102_jadavpur4.pdf p1", "source": "KMC ward sewerage network map (ArcMap GeoPDF)", "extraction_method": "geopdf_raster_polygonised", "georef_max_residual_m": 0.1 }, "geometry": { "type": "Polygon", "coordinates": [ [ [ 88.380524726073318, 22.485293226461515 ], [ 88.380598749579647, 22.485288019207292 ], [ 88.380788486372651, 22.485249721978992 ], [ 88.380837630503436, 22.485226366152435 ], [ 88.380758561823839, 22.484981511469385 ], [ 88.380721526523857, 22.484981820796797 ], [ 88.380457932108555, 22.485041385503646 ], [ 88.380448150541653, 22.485050645320456 ], [ 88.380436348911672, 22.485103518151675 ], [ 88.380467442246072, 22.485245519614725 ], [ 88.38049001792902, 22.485279749101451 ], [ 88.380524726073318, 22.485293226461515 ] ] ] } },
{ "type": "Feature", "properties": { "ward": 102, "source_sheet": "102_jadavpur4.pdf p1", "source": "KMC ward sewerage network map (ArcMap GeoPDF)", "extraction_method": "geopdf_raster_polygonised", "georef_max_residual_m": 0.1 }, "geometry": { "type": "Polygon", "coordinates": [ [ [ 88.379435625688018, 22.485277077966067 ], [ 88.380107685407651, 22.485078727871819 ], [ 88.38011986514978, 22.485062564450971 ], [ 88.380119676155971, 22.485044209754676 ], [ 88.380056155256881, 22.484870355430889 ], [ 88.380038848502977, 22.48486820537158 ], [ 88.379809820223244, 22.484927480464577 ], [ 88.379364249809527, 22.485059692725152 ], [ 88.37935444455313, 22.485066658141498 ], [ 88.379349695399696, 22.485085054045033 ], [ 88.379415708185107, 22.485261182418121 ], [ 88.379435625688018, 22.485277077966067 ] ] ] } },
{ "type": "Feature", "properties": { "ward": 102, "source_sheet": "102_jadavpur4.pdf p1", "source": "KMC ward sewerage network map (ArcMap GeoPDF)", "extraction_method": "geopdf_raster_polygonised", "georef_max_residual_m": 0.1 }, "geometry": { "type": "Polygon", "coordinates": [ [ [ 88.38188789708596, 22.485068445301323 ], [ 88.381957005999908, 22.485065573045695 ], [ 88.382016073240507, 22.48504672298035 ], [ 88.382070344363214, 22.4850416801895 ], [ 88.382114597460344, 22.485022953942014 ], [ 88.382116900879979, 22.485006872953388 ], [ 88.382090625699007, 22.484853358925918 ], [ 88.38200435205647, 22.484867847398224 ], [ 88.381991936008518, 22.484861067597407 ], [ 88.381984457994619, 22.4848542465141 ], [ 88.381961361637124, 22.48476954187311 ], [ 88.381936151103432, 22.484719272896893 ], [ 88.38188392336022, 22.484682996960082 ], [ 88.381866616612982, 22.484680847097277 ], [ 88.38183708305931, 22.484690272102192 ], [ 88.381797578839908, 22.484690602311275 ], [ 88.381787915646754, 22.484711333881616 ], [ 88.381855468681636, 22.485036592916629 ], [ 88.381865581290725, 22.485059453713838 ], [ 88.38188789708596, 22.485068445301323 ] ] ] } },
{ "type": "Feature", "properties": { "ward": 102, "source_sheet": "102_jadavpur4.pdf p1", "source": "KMC ward sewerage network map (ArcMap GeoPDF)", "extraction_method": "geopdf_raster_polygonised", "georef_max_residual_m": 0.1 }, "geometry": { "type": "Polygon", "coordinates": [ [ [ 88.378766156155564, 22.485007318559315 ], [ 88.378822896466801, 22.485002256265442 ], [ 88.378874486295672, 22.484976586093982 ], [ 88.378901362287237, 22.484948827506933 ], [ 88.378900842999329, 22.484898352065184 ], [ 88.37888510833389, 22.484808996432456 ], [ 88.378829444568623, 22.484678672187378 ], [ 88.378779710210267, 22.484644668948949 ], [ 88.378750058416159, 22.484642621705802 ], [ 88.378681067565864, 22.484656964271679 ], [ 88.378673731316567, 22.484663909057204 ], [ 88.378649347945725, 22.484693941355797 ], [ 88.378637663644284, 22.484758285783176 ], [ 88.378701725561527, 22.484984910544295 ], [ 88.378766156155564, 22.485007318559315 ] ] ] } },
{ "type": "Feature", "properties": { "ward": 102, "source_sheet": "102_jadavpur4.pdf p1", "source": "KMC ward sewerage network map (ArcMap GeoPDF)", "extraction_method": "geopdf_raster_polygonised", "georef_max_residual_m": 0.1 }, "geometry": { "type": "Polygon", "coordinates": [ [ [ 88.381243823856948, 22.484867320053169 ], [ 88.381278390100917, 22.484867031237286 ], [ 88.381433654443811, 22.484838199444383 ], [ 88.381448326668931, 22.484824309634934 ], [ 88.381391596534883, 22.48459074128041 ], [ 88.381376356861466, 22.484549567021404 ], [ 88.381363893582289, 22.484538198497031 ], [ 88.381324413041654, 22.484540822924004 ], [ 88.381161836524882, 22.484578893825702 ], [ 88.381142202628183, 22.484590530528791 ], [ 88.381196463331918, 22.484824119620875 ], [ 88.381206552175783, 22.484844686130213 ], [ 88.381243823856948, 22.484867320053169 ] ] ] } },
{ "type": "Feature", "properties": { "ward": 102, "source_sheet": "102_jadavpur4.pdf p1", "source": "KMC ward sewerage network map (ArcMap GeoPDF)", "extraction_method": "geopdf_raster_polygonised", "georef_max_residual_m": 0.1 }, "geometry": { "type": "Polygon", "coordinates": [ [ [ 88.377345871572373, 22.484720867749878 ], [ 88.37738535229559, 22.484718244291436 ], [ 88.377486181197114, 22.484678397105888 ], [ 88.377631499512333, 22.484642768214783 ], [ 88.377803693900148, 22.484579380783593 ], [ 88.377774695098012, 22.484400648643298 ], [ 88.377700530378974, 22.484392088544865 ], [ 88.377619052958266, 22.484392767491137 ], [ 88.377490970831161, 22.48442366367949 ], [ 88.377363053688569, 22.484470620148013 ], [ 88.377237935536129, 22.484549676711175 ], [ 88.37723064636846, 22.484561210114396 ], [ 88.377256067402072, 22.484632128974084 ], [ 88.377288777633538, 22.48469151442238 ], [ 88.377306249382215, 22.484709725159487 ], [ 88.377345871572373, 22.484720867749878 ] ] ] } },
{ "type": "Feature", "properties": { "ward": 102, "source_sheet": "102_jadavpur4.pdf p1", "source": "KMC ward sewerage network map (ArcMap GeoPDF)", "extraction_method": "geopdf_raster_polygonised", "georef_max_residual_m": 0.1 }, "geometry": { "type": "Polygon", "coordinates": [ [ [ 88.382284187424389, 22.484707184953376 ], [ 88.382417348518572, 22.484690009711439 ], [ 88.382532942522474, 22.48464544688759 ], [ 88.382560125320154, 22.484647514081214 ], [ 88.382524975600958, 22.484351813325141 ], [ 88.382248517777342, 22.484361008737189 ], [ 88.382226438659416, 22.484374960546116 ], [ 88.3822243008659, 22.484407101882564 ], [ 88.382251049256382, 22.484606502595128 ], [ 88.382266691396808, 22.484686680453681 ], [ 88.382284187424389, 22.484707184953376 ] ] ] } },
{ "type": "Feature", "properties": { "ward": 102, "source_sheet": "102_jadavpur4.pdf p1", "source": "KMC ward sewerage network map (ArcMap GeoPDF)", "extraction_method": "geopdf_raster_polygonised", "georef_max_residual_m": 0.1 }, "geometry": { "type": "Polygon", "coordinates": [ [ [ 88.379651852435103, 22.484453830177056 ], [ 88.379905617371932, 22.484398937932482 ], [ 88.379920313334082, 22.484387342593529 ], [ 88.379916946760389, 22.484300178379677 ], [ 88.379886090442653, 22.484181120130575 ], [ 88.379590541670098, 22.484254717294473 ], [ 88.379588190734637, 22.484266209586934 ], [ 88.379636896670917, 22.484440187778446 ], [ 88.379651852435103, 22.484453830177056 ] ] ] } },
{ "type": "Feature", "properties": { "ward": 102, "source_sheet": "102_jadavpur4.pdf p1", "source": "KMC ward sewerage network map (ArcMap GeoPDF)", "extraction_method": "geopdf_raster_polygonised", "georef_max_residual_m": 0.1 }, "geometry": { "type": "Polygon", "coordinates": [ [ [ 88.382206979092231, 22.48416402621308 ], [ 88.382372355031066, 22.484158054339112 ], [ 88.382411811767838, 22.484153135326654 ], [ 88.382443719521973, 22.484134512236217 ], [ 88.382482821316984, 22.484095178181757 ], [ 88.382509436106488, 22.484042181349778 ], [ 88.382501082610773, 22.483950469893326 ], [ 88.382387011746545, 22.483903238617795 ], [ 88.382384235164437, 22.483873432906808 ], [ 88.382031523145983, 22.483910799934119 ], [ 88.382034465235819, 22.483956666003202 ], [ 88.382049539441397, 22.483981779848179 ], [ 88.382121542618705, 22.484020184945013 ], [ 88.382156179609424, 22.484026778957524 ], [ 88.382203421842959, 22.484058507434124 ], [ 88.382206979092231, 22.48416402621308 ] ] ] } },
{ "type": "Feature", "properties": { "ward": 102, "source_sheet": "102_jadavpur4.pdf p1", "source": "KMC ward sewerage network map (ArcMap GeoPDF)", "extraction_method": "geopdf_raster_polygonised", "georef_max_residual_m": 0.1 }, "geometry": { "type": "Polygon", "coordinates": [ [ [ 88.379698907554555, 22.483987646920735 ], [ 88.379812127441255, 22.483952283986124 ], [ 88.379776215219309, 22.483821795227165 ], [ 88.379756227047437, 22.483799016696778 ], [ 88.379734006046874, 22.483799202146635 ], [ 88.379655328655417, 22.483831982228882 ], [ 88.379640916105501, 22.483871109596745 ], [ 88.379659072883115, 22.483955855866775 ], [ 88.379698907554555, 22.483987646920735 ] ] ] } },
{ "type": "Feature", "properties": { "ward": 102, "source_sheet": "102_jadavpur4.pdf p1", "source": "KMC ward sewerage network map (ArcMap GeoPDF)", "extraction_method": "geopdf_raster_polygonised", "georef_max_residual_m": 0.1 }, "geometry": { "type": "Polygon", "coordinates": [ [ [ 88.380461994882126, 22.48399733853082 ], [ 88.380723165607961, 22.483942383203516 ], [ 88.380814140514303, 22.483904910826883 ], [ 88.380927454550715, 22.483878724472294 ], [ 88.380937236006204, 22.483869464630818 ], [ 88.380949439187191, 22.483855595491654 ], [ 88.380950986362436, 22.483766095740997 ], [ 88.380914316803754, 22.483562188510547 ], [ 88.380414575733823, 22.483708623151887 ], [ 88.380394965515137, 22.483722554099263 ], [ 88.380378438593539, 22.483796117195208 ], [ 88.380389165173156, 22.483878630870318 ], [ 88.380424605418725, 22.483963232721305 ], [ 88.380444664605463, 22.483992894172712 ], [ 88.380461994882126, 22.48399733853082 ] ] ] } }
]
}
