{
"type": "FeatureCollection",
"name": "ward101_p1_water_bodies",
"crs": { "type": "name", "properties": { "name": "urn:ogc:def:crs:OGC:1.3:CRS84" } },
"features": [
{ "type": "Feature", "properties": { "ward": 101, "source_sheet": "101_baghajatin.pdf p1", "source": "KMC ward sewerage network map (ArcMap GeoPDF)", "extraction_method": "geopdf_raster_polygonised", "georef_max_residual_m": 0.1 }, "geometry": { "type": "Polygon", "coordinates": [ [ [ 88.379829847295966, 22.482831106567783 ], [ 88.380148068762651, 22.48281466758219 ], [ 88.3801725905833, 22.482798404487561 ], [ 88.380271081377273, 22.482774637752264 ], [ 88.380441230172679, 22.482759443543099 ], [ 88.380576761412684, 22.482737658876438 ], [ 88.380558231609115, 22.482357037785164 ], [ 88.380545690453417, 22.482336498751799 ], [ 88.380464116318521, 22.482323421943285 ], [ 88.380266731842582, 22.482329669878357 ], [ 88.379825297444057, 22.482365495770374 ], [ 88.379731652935135, 22.482380046129482 ], [ 88.379717002603527, 22.4823962261646 ], [ 88.379697797513671, 22.482451439734398 ], [ 88.379719602301137, 22.482662289491934 ], [ 88.379750068430482, 22.482749199181782 ], [ 88.379785246226731, 22.482813130871794 ], [ 88.379802678246975, 22.482829041168692 ], [ 88.379829847295966, 22.482831106567783 ] ] ] } },
{ "type": "Feature", "properties": { "ward": 101, "source_sheet": "101_baghajatin.pdf p1", "source": "KMC ward sewerage network map (ArcMap GeoPDF)", "extraction_method": "geopdf_raster_polygonised", "georef_max_residual_m": 0.1 }, "geometry": { "type": "Polygon", "coordinates": [ [ [ 88.381345884859044, 22.482391698783317 ], [ 88.38161227978398, 22.482375693189965 ], [ 88.381621320882331, 22.482290745120533 ], [ 88.381633480665371, 22.482272292053537 ], [ 88.381632717623887, 22.48219430803497 ], [ 88.381630182434137, 22.482187447869336 ], [ 88.3816153528158, 22.482185278884248 ], [ 88.381614657113644, 22.482114175807215 ], [ 88.381424631775175, 22.482115775516672 ], [ 88.381420122388633, 22.482159396373518 ], [ 88.381410340693492, 22.48216865406043 ], [ 88.381304626463617, 22.482210832962711 ], [ 88.381316023648608, 22.482366717930422 ], [ 88.381345884859044, 22.482391698783317 ] ] ] } },
{ "type": "Feature", "properties": { "ward": 101, "source_sheet": "101_baghajatin.pdf p1", "source": "KMC ward sewerage network map (ArcMap GeoPDF)", "extraction_method": "geopdf_raster_polygonised", "georef_max_residual_m": 0.1 }, "geometry": { "type": "Polygon", "coordinates": [ [ [ 88.3829176008106, 22.482346347651966 ], [ 88.383361816315926, 22.482342603571052 ], [ 88.38342591335379, 22.482335181720735 ], [ 88.38341532280127, 22.482261868272222 ], [ 88.383400245969924, 22.482234469348448 ], [ 88.383386580859579, 22.482099248260145 ], [ 88.38332696640343, 22.481808433695093 ], [ 88.383294794421133, 22.481799529544332 ], [ 88.383183696048818, 22.48179587831887 ], [ 88.382956653454627, 22.481797791817446 ], [ 88.38283828628613, 22.481807964623911 ], [ 88.382813720045604, 22.481819640808506 ], [ 88.382804140621843, 22.481849541393764 ], [ 88.382853141319373, 22.48206474905562 ], [ 88.382895187863113, 22.48232589200672 ], [ 88.3829176008106, 22.482346347651966 ] ] ] } },
{ "type": "Feature", "properties": { "ward": 101, "source_sheet": "101_baghajatin.pdf p1", "source": "KMC ward sewerage network map (ArcMap GeoPDF)", "extraction_method": "geopdf_raster_polygonised", "georef_max_residual_m": 0.1 }, "geometry": { "type": "Polygon", "coordinates": [ [ [ 88.386803031330402, 22.481914430793413 ], [ 88.386893958882354, 22.481874667166263 ], [ 88.386948319207093, 22.481881089219868 ], [ 88.387002273988031, 22.481846225689885 ], [ 88.387026592005853, 22.481809318816921 ], [ 88.387026479352059, 22.481797850604448 ], [ 88.387009024157152, 22.481779647479584 ], [ 88.387023448235098, 22.481740530401208 ], [ 88.387143764460603, 22.481677579902357 ], [ 88.387040667579313, 22.481483475561337 ], [ 88.386701231253113, 22.481601035942148 ], [ 88.386803031330402, 22.481914430793413 ] ] ] } },
{ "type": "Feature", "properties": { "ward": 101, "source_sheet": "101_baghajatin.pdf p1", "source": "KMC ward sewerage network map (ArcMap GeoPDF)", "extraction_method": "geopdf_raster_polygonised", "georef_max_residual_m": 0.1 }, "geometry": { "type": "Polygon", "coordinates": [ [ [ 88.388089163044043, 22.481440202286709 ], [ 88.388162657147589, 22.481384528611656 ], [ 88.388012895658932, 22.481213758006472 ], [ 88.387949227846349, 22.48126476083722 ], [ 88.388089163044043, 22.481440202286709 ] ] ] } },
{ "type": "Feature", "properties": { "ward": 101, "source_sheet": "101_baghajatin.pdf p1", "source": "KMC ward sewerage network map (ArcMap GeoPDF)", "extraction_method": "geopdf_raster_polygonised", "georef_max_residual_m": 0.1 }, "geometry": { "type": "Polygon", "coordinates": [ [ [ 88.379897525128399, 22.481422121114832 ], [ 88.379971560655477, 22.481421498597761 ], [ 88.379991146561238, 22.481405277041475 ], [ 88.380005684688712, 22.481377628739246 ], [ 88.380001871968545, 22.481240030524123 ], [ 88.379993795998274, 22.481171283293776 ], [ 88.379983722886379, 22.481150723452938 ], [ 88.379884919392609, 22.481142378867549 ], [ 88.379852949453621, 22.481154116856835 ], [ 88.379835921057406, 22.481179492245605 ], [ 88.379831702534489, 22.481252930531618 ], [ 88.379860171179843, 22.481388027617282 ], [ 88.379870356355354, 22.481420055713041 ], [ 88.379897525128399, 22.481422121114832 ] ] ] } },
{ "type": "Feature", "properties": { "ward": 101, "source_sheet": "101_baghajatin.pdf p1", "source": "KMC ward sewerage network map (ArcMap GeoPDF)", "extraction_method": "geopdf_raster_polygonised", "georef_max_residual_m": 0.1 }, "geometry": { "type": "Polygon", "coordinates": [ [ [ 88.379155933901799, 22.481554515917029 ], [ 88.379378040755697, 22.481552649274878 ], [ 88.379377570262093, 22.481504482625155 ], [ 88.379340530063743, 22.481502500102636 ], [ 88.37933714365856, 22.481408481192251 ], [ 88.379351950766235, 22.481408356743088 ], [ 88.379351592304261, 22.481371658342272 ], [ 88.379358995856109, 22.481371596117295 ], [ 88.37935883902837, 22.48135554056692 ], [ 88.379329765984096, 22.481158514813885 ], [ 88.379319737775049, 22.481142542226841 ], [ 88.379135007673071, 22.481180796094176 ], [ 88.379155933901799, 22.481554515917029 ] ] ] } },
{ "type": "Feature", "properties": { "ward": 101, "source_sheet": "101_baghajatin.pdf p1", "source": "KMC ward sewerage network map (ArcMap GeoPDF)", "extraction_method": "geopdf_raster_polygonised", "georef_max_residual_m": 0.1 }, "geometry": { "type": "Polygon", "coordinates": [ [ [ 88.377134492029583, 22.481543964480974 ], [ 88.377382761119605, 22.481440952113992 ], [ 88.377402324976174, 22.481422437205175 ], [ 88.377389515905548, 22.481374374072924 ], [ 88.377221463162883, 22.481098229753194 ], [ 88.377193981315045, 22.481064052763866 ], [ 88.377169302840784, 22.48106425984502 ], [ 88.376987285966308, 22.48112772074354 ], [ 88.376945377264988, 22.481132660031328 ], [ 88.376898689404371, 22.48115369628357 ], [ 88.376926439566134, 22.481215397155008 ], [ 88.377039416278507, 22.481411719519802 ], [ 88.377134492029583, 22.481543964480974 ] ] ] } },
{ "type": "Feature", "properties": { "ward": 101, "source_sheet": "101_baghajatin.pdf p1", "source": "KMC ward sewerage network map (ArcMap GeoPDF)", "extraction_method": "geopdf_raster_polygonised", "georef_max_residual_m": 0.1 }, "geometry": { "type": "Polygon", "coordinates": [ [ [ 88.381472438973731, 22.480947810121183 ], [ 88.381509456586926, 22.48094749851164 ], [ 88.381555986528028, 22.480910405425217 ], [ 88.381570501850618, 22.480880463350349 ], [ 88.381594933403903, 22.480855025468848 ], [ 88.381594619241071, 22.480822914396317 ], [ 88.381601888114986, 22.480809090181587 ], [ 88.381609291629886, 22.480809027854779 ], [ 88.381609134547105, 22.480792972318532 ], [ 88.381596570955296, 22.480770139715741 ], [ 88.381544432214625, 22.48073846491787 ], [ 88.381526865648283, 22.480708792913386 ], [ 88.381516949424281, 22.480704288714019 ], [ 88.381502142404997, 22.480704413358247 ], [ 88.381482624094588, 22.48072751603026 ], [ 88.381450676839776, 22.480741547973714 ], [ 88.381440805490669, 22.480741631066095 ], [ 88.381420838420155, 22.480718860766675 ], [ 88.381401073288004, 22.480716733298753 ], [ 88.381369036281001, 22.480721590633198 ], [ 88.381361812259925, 22.480740002135093 ], [ 88.381367174225474, 22.480783539908732 ], [ 88.381387455412224, 22.480838421290013 ], [ 88.381430059363765, 22.48090458395313 ], [ 88.381472438973731, 22.480947810121183 ] ] ] } },
{ "type": "Feature", "properties": { "ward": 101, "source_sheet": "101_baghajatin.pdf p1", "source": "KMC ward sewerage network map (ArcMap GeoPDF)", "extraction_method": "geopdf_raster_polygonised", "georef_max_residual_m": 0.1 }, "geometry": { "type": "Polygon", "coordinates": [ [ [ 88.387916695033397, 22.481219159348601 ], [ 88.388320934209432, 22.480915247832403 ], [ 88.388504555677585, 22.480764595153754 ], [ 88.388590162856488, 22.480685880486668 ], [ 88.388597408455411, 22.480669762350303 ], [ 88.3885897794176, 22.480646888584612 ], [ 88.388527722846561, 22.480610712369803 ], [ 88.387947604588931, 22.481099618629443 ], [ 88.387908344644188, 22.481122889009836 ], [ 88.387891295225558, 22.481145971533799 ], [ 88.3878891430072, 22.481178103391631 ], [ 88.387916695033397, 22.481219159348601 ] ] ] } },
{ "type": "Feature", "properties": { "ward": 101, "source_sheet": "101_baghajatin.pdf p1", "source": "KMC ward sewerage network map (ArcMap GeoPDF)", "extraction_method": "geopdf_raster_polygonised", "georef_max_residual_m": 0.1 }, "geometry": { "type": "Polygon", "coordinates": [ [ [ 88.376252730410982, 22.480209464182547 ], [ 88.376346485718983, 22.480206384162663 ], [ 88.376403134109381, 22.480194439911322 ], [ 88.376439928055703, 22.48017119294358 ], [ 88.376439682155848, 22.480145962758225 ], [ 88.376407242677189, 22.480109533350273 ], [ 88.376357751931678, 22.480096185331206 ], [ 88.376120594289091, 22.48007294165442 ], [ 88.37607617333137, 22.480073314086251 ], [ 88.376036866817273, 22.480091994355487 ], [ 88.376012188503296, 22.480092201250926 ], [ 88.375990201491106, 22.480115323990212 ], [ 88.375983043812255, 22.48014061624745 ], [ 88.375988180600615, 22.480161217752332 ], [ 88.376252730410982, 22.480209464182547 ] ] ] } },
{ "type": "Feature", "properties": { "ward": 101, "source_sheet": "101_baghajatin.pdf p1", "source": "KMC ward sewerage network map (ArcMap GeoPDF)", "extraction_method": "geopdf_raster_polygonised", "georef_max_residual_m": 0.1 }, "geometry": { "type": "Polygon", "coordinates": [ [ [ 88.388621748404546, 22.480635148904447 ], [ 88.38865129467051, 22.480628017383982 ], [ 88.389313915143291, 22.479996192720321 ], [ 88.38936048770384, 22.479963684778841 ], [ 88.389365129960822, 22.479933825661991 ], [ 88.389352655485567, 22.479920168284849 ], [ 88.389288086122946, 22.479879425964974 ], [ 88.389270811426229, 22.479879572210542 ], [ 88.389214548129772, 22.479930512818605 ], [ 88.388544794649732, 22.480589923427033 ], [ 88.388599470287303, 22.480628455924524 ], [ 88.388621748404546, 22.480635148904447 ] ] ] } },
{ "type": "Feature", "properties": { "ward": 101, "source_sheet": "101_baghajatin.pdf p1", "source": "KMC ward sewerage network map (ArcMap GeoPDF)", "extraction_method": "geopdf_raster_polygonised", "georef_max_residual_m": 0.1 }, "geometry": { "type": "Polygon", "coordinates": [ [ [ 88.387846387562618, 22.480343509913205 ], [ 88.38825034390986, 22.480262102790913 ], [ 88.38828469046544, 22.480241167736381 ], [ 88.388294313701948, 22.480215854167991 ], [ 88.388293411710279, 22.480124108498945 ], [ 88.388269780733239, 22.479979796961285 ], [ 88.388241822997372, 22.479897455498158 ], [ 88.388189277349767, 22.479824497352091 ], [ 88.388164418831678, 22.47980635696948 ], [ 88.387954992814727, 22.479842535848352 ], [ 88.387866512167477, 22.479879985488697 ], [ 88.387800286897559, 22.479921834542214 ], [ 88.387846387562618, 22.480343509913205 ] ] ] } },
{ "type": "Feature", "properties": { "ward": 101, "source_sheet": "101_baghajatin.pdf p1", "source": "KMC ward sewerage network map (ArcMap GeoPDF)", "extraction_method": "geopdf_raster_polygonised", "georef_max_residual_m": 0.1 }, "geometry": { "type": "Polygon", "coordinates": [ [ [ 88.380333694890155, 22.479837998856802 ], [ 88.380343566179789, 22.479837915835411 ], [ 88.380345652887925, 22.479798903037839 ], [ 88.38033912554684, 22.479636095429047 ], [ 88.380378610647838, 22.47963576334142 ], [ 88.380378364040979, 22.479610533196247 ], [ 88.380350971437437, 22.479585531361707 ], [ 88.380318284525075, 22.479523872637337 ], [ 88.380278351114328, 22.479478331714763 ], [ 88.380234132170486, 22.479499348130169 ], [ 88.380130573532355, 22.479509394340962 ], [ 88.380108475252158, 22.479521049355526 ], [ 88.38007186144219, 22.479562646322268 ], [ 88.380030715408779, 22.479645570480635 ], [ 88.380026093552715, 22.479677723079963 ], [ 88.38003396768994, 22.479725827475839 ], [ 88.380143000101071, 22.479770787408665 ], [ 88.380288579142629, 22.479767269308073 ], [ 88.380304036185265, 22.479833660618191 ], [ 88.380333694890155, 22.479837998856802 ] ] ] } },
{ "type": "Feature", "properties": { "ward": 101, "source_sheet": "101_baghajatin.pdf p1", "source": "KMC ward sewerage network map (ArcMap GeoPDF)", "extraction_method": "geopdf_raster_polygonised", "georef_max_residual_m": 0.1 }, "geometry": { "type": "Polygon", "coordinates": [ [ [ 88.378997890100763, 22.479523502774533 ], [ 88.379202719004141, 22.479521781677086 ], [ 88.379283932989722, 22.47949816080656 ], [ 88.379291000431095, 22.479463693829892 ], [ 88.379292236210787, 22.479337522303833 ], [ 88.379274625503939, 22.479303262714406 ], [ 88.379227221848964, 22.479250902772993 ], [ 88.379197294505886, 22.479219040512668 ], [ 88.379172481988519, 22.479205485979012 ], [ 88.379123058546597, 22.479199019757516 ], [ 88.379004894694603, 22.479229832513482 ], [ 88.378983983314058, 22.479363050879641 ], [ 88.378997890100763, 22.479523502774533 ] ] ] } },
{ "type": "Feature", "properties": { "ward": 101, "source_sheet": "101_baghajatin.pdf p1", "source": "KMC ward sewerage network map (ArcMap GeoPDF)", "extraction_method": "geopdf_raster_polygonised", "georef_max_residual_m": 0.1 }, "geometry": { "type": "Polygon", "coordinates": [ [ [ 88.384016729482923, 22.479410147585174 ], [ 88.3840636178914, 22.479409752164432 ], [ 88.384105413317442, 22.479393342833276 ], [ 88.384094800244185, 22.479317735764177 ], [ 88.384071960541092, 22.479253700983797 ], [ 88.384070589313893, 22.479113788571183 ], [ 88.384065473870891, 22.479095481025652 ], [ 88.384048109318599, 22.479086452122178 ], [ 88.384011092239788, 22.479086764289701 ], [ 88.383900400619083, 22.479124399082039 ], [ 88.383866413227025, 22.479182031565383 ], [ 88.383820940821309, 22.479326926643832 ], [ 88.383821143097975, 22.4793475694606 ], [ 88.383954292451918, 22.479334977531323 ], [ 88.383984198381015, 22.479364545205659 ], [ 88.383994339358907, 22.479391985716006 ], [ 88.384016729482923, 22.479410147585174 ] ] ] } },
{ "type": "Feature", "properties": { "ward": 101, "source_sheet": "101_baghajatin.pdf p1", "source": "KMC ward sewerage network map (ArcMap GeoPDF)", "extraction_method": "geopdf_raster_polygonised", "georef_max_residual_m": 0.1 }, "geometry": { "type": "Polygon", "coordinates": [ [ [ 88.381552551600933, 22.479550188915557 ], [ 88.381567268743964, 22.479540889679122 ], [ 88.381564508856087, 22.479258770916694 ], [ 88.381540391375594, 22.479063997749353 ], [ 88.381527895278609, 22.479048046073878 ], [ 88.381505595267001, 22.479039058433418 ], [ 88.38130325751311, 22.47904305530006 ], [ 88.381237097793061, 22.479091782686844 ], [ 88.38124643022303, 22.479541296316683 ], [ 88.381552551600933, 22.479550188915557 ] ] ] } },
{ "type": "Feature", "properties": { "ward": 101, "source_sheet": "101_baghajatin.pdf p1", "source": "KMC ward sewerage network map (ArcMap GeoPDF)", "extraction_method": "geopdf_raster_polygonised", "georef_max_residual_m": 0.1 }, "geometry": { "type": "Polygon", "coordinates": [ [ [ 88.376791108718606, 22.479232360505232 ], [ 88.37686998936654, 22.479222523457196 ], [ 88.376919166777199, 22.479203760191229 ], [ 88.376953492563942, 22.479180533823325 ], [ 88.376955535501864, 22.47913693371336 ], [ 88.37689832857204, 22.479091536809779 ], [ 88.376799191233729, 22.479048785450466 ], [ 88.376703103062852, 22.479065648313199 ], [ 88.376646544585029, 22.479086767260565 ], [ 88.376639252929323, 22.47909829762153 ], [ 88.376639655349194, 22.479139583381219 ], [ 88.376654819943681, 22.479176157644506 ], [ 88.376679811092288, 22.479208061804425 ], [ 88.376791108718606, 22.479232360505232 ] ] ] } },
{ "type": "Feature", "properties": { "ward": 101, "source_sheet": "101_baghajatin.pdf p1", "source": "KMC ward sewerage network map (ArcMap GeoPDF)", "extraction_method": "geopdf_raster_polygonised", "georef_max_residual_m": 0.1 }, "geometry": { "type": "Polygon", "coordinates": [ [ [ 88.386095396105844, 22.478968245270174 ], [ 88.386230854983054, 22.478939575136824 ], [ 88.386235678011232, 22.478928065226903 ], [ 88.386265246582752, 22.478923227798596 ], [ 88.386275027722306, 22.478913969841162 ], [ 88.386226450956272, 22.478742342587825 ], [ 88.386211351494723, 22.478712650279963 ], [ 88.386051349928053, 22.478755290672513 ], [ 88.386026807020386, 22.47876926095476 ], [ 88.386070538001206, 22.47895010454123 ], [ 88.386095396105844, 22.478968245270174 ] ] ] } },
{ "type": "Feature", "properties": { "ward": 101, "source_sheet": "101_baghajatin.pdf p1", "source": "KMC ward sewerage network map (ArcMap GeoPDF)", "extraction_method": "geopdf_raster_polygonised", "georef_max_residual_m": 0.1 }, "geometry": { "type": "Polygon", "coordinates": [ [ [ 88.379057175116742, 22.478770625409791 ], [ 88.379121315644227, 22.478767792641566 ], [ 88.379175450561064, 22.478751280888819 ], [ 88.37919997181568, 22.478735017964482 ], [ 88.379199501449904, 22.478686851294327 ], [ 88.379158963910157, 22.478579381481765 ], [ 88.379158807127368, 22.47856332592449 ], [ 88.379138840746933, 22.478540555301905 ], [ 88.379114050756272, 22.478529294402875 ], [ 88.378951467040366, 22.478560480326056 ], [ 88.378921987787351, 22.47857449102673 ], [ 88.378922905929201, 22.478668530728108 ], [ 88.378945922348109, 22.478750915576221 ], [ 88.379009928499698, 22.478734320945811 ], [ 88.379042009954546, 22.478734051400224 ], [ 88.379054438559535, 22.478743122331508 ], [ 88.379057175116742, 22.478770625409791 ] ] ] } },
{ "type": "Feature", "properties": { "ward": 101, "source_sheet": "101_baghajatin.pdf p1", "source": "KMC ward sewerage network map (ArcMap GeoPDF)", "extraction_method": "geopdf_raster_polygonised", "georef_max_residual_m": 0.1 }, "geometry": { "type": "Polygon", "coordinates": [ [ [ 88.389431332159873, 22.479889682348301 ], [ 88.389463346033338, 22.479882529793844 ], [ 88.389502537650131, 22.479852378140087 ], [ 88.389509850811606, 22.479843140890537 ], [ 88.389507134735339, 22.479817931739181 ], [ 88.389275800357154, 22.479634089959223 ], [ 88.388694340519464, 22.479233003088634 ], [ 88.388056395190532, 22.478859917718413 ], [ 88.387381120865641, 22.4784550315633 ], [ 88.387314017353688, 22.478407428314156 ], [ 88.387294320097979, 22.478412182485968 ], [ 88.387231081304265, 22.478506764220118 ], [ 88.387231216486811, 22.478520526079496 ], [ 88.387243690630044, 22.478534183640001 ], [ 88.388057905672298, 22.479013591752974 ], [ 88.388420482023591, 22.479242201760403 ], [ 88.388730807023052, 22.479427670258207 ], [ 88.389314690484639, 22.479824148767023 ], [ 88.389431332159873, 22.479889682348301 ] ] ] } },
{ "type": "Feature", "properties": { "ward": 101, "source_sheet": "101_baghajatin.pdf p1", "source": "KMC ward sewerage network map (ArcMap GeoPDF)", "extraction_method": "geopdf_raster_polygonised", "georef_max_residual_m": 0.1 }, "geometry": { "type": "Polygon", "coordinates": [ [ [ 88.3853064125027, 22.478795987854458 ], [ 88.385387849860564, 22.478795300429052 ], [ 88.385518485668484, 22.478778140782435 ], [ 88.385676334728984, 22.478767632770946 ], [ 88.385782179953253, 22.478739213049487 ], [ 88.38570232494169, 22.478398105939384 ], [ 88.385687248135554, 22.478370707218428 ], [ 88.385647695969226, 22.478364159653555 ], [ 88.385433493176549, 22.478416432371013 ], [ 88.385317619447406, 22.478428879661553 ], [ 88.38519413984389, 22.478420746548132 ], [ 88.385174509988133, 22.478432381400371 ], [ 88.385167241588817, 22.478446205756061 ], [ 88.385171486606069, 22.478627382900843 ], [ 88.385184275522903, 22.478673151662807 ], [ 88.385232018573447, 22.478759914429418 ], [ 88.385237246642248, 22.478789690157001 ], [ 88.3853064125027, 22.478795987854458 ] ] ] } },
{ "type": "Feature", "properties": { "ward": 101, "source_sheet": "101_baghajatin.pdf p1", "source": "KMC ward sewerage network map (ArcMap GeoPDF)", "extraction_method": "geopdf_raster_polygonised", "georef_max_residual_m": 0.1 }, "geometry": { "type": "Polygon", "coordinates": [ [ [ 88.381416170822646, 22.478475527071748 ], [ 88.381477843314812, 22.478472714145454 ], [ 88.381499941308107, 22.478461058955791 ], [ 88.381486637588594, 22.478362535915021 ], [ 88.381503844846264, 22.47835550956637 ], [ 88.381503082026668, 22.4782775255057 ], [ 88.381488163087468, 22.478266181891353 ], [ 88.381324997091838, 22.478237735293494 ], [ 88.381330807564169, 22.478327146067183 ], [ 88.381356719354017, 22.478453089066488 ], [ 88.381369260242451, 22.478473628057912 ], [ 88.381416170822646, 22.478475527071748 ] ] ] } },
{ "type": "Feature", "properties": { "ward": 101, "source_sheet": "101_baghajatin.pdf p1", "source": "KMC ward sewerage network map (ArcMap GeoPDF)", "extraction_method": "geopdf_raster_polygonised", "georef_max_residual_m": 0.1 }, "geometry": { "type": "Polygon", "coordinates": [ [ [ 88.381550350936649, 22.477559156409296 ], [ 88.381565157621225, 22.477559031777425 ], [ 88.381587210593139, 22.477542789284211 ], [ 88.381653571414489, 22.477514704628188 ], [ 88.381712439116356, 22.477477507673601 ], [ 88.38171201278783, 22.477433928344773 ], [ 88.381670957703932, 22.477273705300821 ], [ 88.381638764436417, 22.477262507107525 ], [ 88.381535095430849, 22.477261085889221 ], [ 88.381483518922678, 22.477286752220348 ], [ 88.381461533278795, 22.477309875645947 ], [ 88.381444774821006, 22.477362774968128 ], [ 88.381427769581933, 22.477390444147932 ], [ 88.381423574333354, 22.477466176110251 ], [ 88.38145619388338, 22.477520953678063 ], [ 88.381518224915851, 22.477554839142265 ], [ 88.381550350936649, 22.477559156409296 ] ] ] } },
{ "type": "Feature", "properties": { "ward": 101, "source_sheet": "101_baghajatin.pdf p1", "source": "KMC ward sewerage network map (ArcMap GeoPDF)", "extraction_method": "geopdf_raster_polygonised", "georef_max_residual_m": 0.1 }, "geometry": { "type": "Polygon", "coordinates": [ [ [ 88.387540187030595, 22.477563679356177 ], [ 88.387582139198386, 22.477563324670616 ], [ 88.387641230570168, 22.477549062060856 ], [ 88.387692850996132, 22.47752798109855 ], [ 88.387700164169402, 22.477518743928631 ], [ 88.387700074021311, 22.4775095693564 ], [ 88.387687712617094, 22.477507380042535 ], [ 88.387659395222087, 22.477388340121387 ], [ 88.387701257187359, 22.477378810835098 ], [ 88.387703567200091, 22.477362734467572 ], [ 88.387607538383222, 22.477134163020619 ], [ 88.387585035529909, 22.477104533434073 ], [ 88.387422320663802, 22.477121965867553 ], [ 88.387387862052705, 22.477131432496481 ], [ 88.387351093385249, 22.477156975483037 ], [ 88.38737863255713, 22.47744805959428 ], [ 88.387406025910167, 22.477473060198388 ], [ 88.387418635164053, 22.477500479610985 ], [ 88.387451099280412, 22.477539200342829 ], [ 88.38749323171163, 22.477557194826812 ], [ 88.387540187030595, 22.477563679356177 ] ] ] } },
{ "type": "Feature", "properties": { "ward": 101, "source_sheet": "101_baghajatin.pdf p1", "source": "KMC ward sewerage network map (ArcMap GeoPDF)", "extraction_method": "geopdf_raster_polygonised", "georef_max_residual_m": 0.1 }, "geometry": { "type": "Polygon", "coordinates": [ [ [ 88.387151819092182, 22.478477614346446 ], [ 88.387171561421695, 22.478477447477967 ], [ 88.38718870078182, 22.478463539606363 ], [ 88.387244626341797, 22.478378195040289 ], [ 88.387239487989518, 22.478357593970319 ], [ 88.386755161009674, 22.47804513804147 ], [ 88.38580201776027, 22.477491199425355 ], [ 88.385223359220873, 22.477122189171684 ], [ 88.385196213759485, 22.477122418273947 ], [ 88.385174161301222, 22.477138661237209 ], [ 88.385132794071623, 22.477198650076804 ], [ 88.38513301901564, 22.477221586533197 ], [ 88.385150495865375, 22.477242083558064 ], [ 88.385212527585921, 22.477275967562534 ], [ 88.385314471147879, 22.477353097541588 ], [ 88.387151819092182, 22.478477614346446 ] ] ] } },
{ "type": "Feature", "properties": { "ward": 101, "source_sheet": "101_baghajatin.pdf p1", "source": "KMC ward sewerage network map (ArcMap GeoPDF)", "extraction_method": "geopdf_raster_polygonised", "georef_max_residual_m": 0.1 }, "geometry": { "type": "Polygon", "coordinates": [ [ [ 88.385041239134054, 22.477174190523527 ], [ 88.385065849357275, 22.477167101335034 ], [ 88.385119420489019, 22.477093246507362 ], [ 88.385119083078635, 22.477058841822014 ], [ 88.384783730485864, 22.476836875679645 ], [ 88.3847414186869, 22.476800531288085 ], [ 88.384173221168211, 22.476491068482112 ], [ 88.383824188448429, 22.476383907403285 ], [ 88.383789707256128, 22.476391079619745 ], [ 88.383784996453585, 22.476414057701628 ], [ 88.383802944909718, 22.476482721479776 ], [ 88.383818021129102, 22.476510120412236 ], [ 88.383840410746075, 22.476528282336709 ], [ 88.384127862188535, 22.476647431867505 ], [ 88.384472612257696, 22.476821149617638 ], [ 88.385041239134054, 22.477174190523527 ] ] ] } },
{ "type": "Feature", "properties": { "ward": 101, "source_sheet": "101_baghajatin.pdf p1", "source": "KMC ward sewerage network map (ArcMap GeoPDF)", "extraction_method": "geopdf_raster_polygonised", "georef_max_residual_m": 0.1 }, "geometry": { "type": "Polygon", "coordinates": [ [ [ 88.381575454419306, 22.476593239319371 ], [ 88.382058440300241, 22.476518064288843 ], [ 88.382342053306076, 22.476497325298695 ], [ 88.382588694694476, 22.476481484916462 ], [ 88.383092005494873, 22.476465775385396 ], [ 88.383649921355129, 22.476481717693471 ], [ 88.383709237462682, 22.476490392998624 ], [ 88.383728889657391, 22.476481051976961 ], [ 88.383736023288805, 22.47645346579759 ], [ 88.383715584642005, 22.476382529166628 ], [ 88.383693172595116, 22.476362073575213 ], [ 88.383663492099231, 22.476355442273675 ], [ 88.38340664314515, 22.476336962767252 ], [ 88.38285633322046, 22.476341600046982 ], [ 88.382444352315559, 22.476358833469803 ], [ 88.381596407909058, 22.476464608016748 ], [ 88.381564461620357, 22.476478639940165 ], [ 88.381549924265713, 22.476506288358003 ], [ 88.381550597305207, 22.476575097837078 ], [ 88.381575454419306, 22.476593239319371 ] ] ] } },
{ "type": "Feature", "properties": { "ward": 101, "source_sheet": "101_baghajatin.pdf p1", "source": "KMC ward sewerage network map (ArcMap GeoPDF)", "extraction_method": "geopdf_raster_polygonised", "georef_max_residual_m": 0.1 }, "geometry": { "type": "Polygon", "coordinates": [ [ [ 88.381441970849821, 22.476571424425472 ], [ 88.381464158286889, 22.476568943850612 ], [ 88.381473872306216, 22.476552805226053 ], [ 88.381473087138815, 22.476472527497585 ], [ 88.381467949716736, 22.476451926192304 ], [ 88.38145298611866, 22.476435995263376 ], [ 88.381418280438311, 22.476420230484713 ], [ 88.381292110613813, 22.476389178551749 ], [ 88.381096417450095, 22.476315128573699 ], [ 88.381026938953354, 22.476276717897719 ], [ 88.380952323157757, 22.476217705863114 ], [ 88.38071734959081, 22.475912308146864 ], [ 88.380443814207865, 22.475448959432011 ], [ 88.380436343729016, 22.475442140738931 ], [ 88.380421559677274, 22.475444558906574 ], [ 88.380411912846199, 22.475467578424237 ], [ 88.380412473214662, 22.475524919691747 ], [ 88.380428243538631, 22.475623422153738 ], [ 88.380501825700009, 22.475829248851117 ], [ 88.380569643123039, 22.475950251944923 ], [ 88.380619693167787, 22.476020939990036 ], [ 88.38066222789989, 22.476080222036078 ], [ 88.380762059177627, 22.476194074236545 ], [ 88.380874184570501, 22.476303235263806 ], [ 88.380995912079442, 22.47638478935508 ], [ 88.381221510015521, 22.476488407710143 ], [ 88.381441970849821, 22.476571424425472 ] ] ] } },
{ "type": "Feature", "properties": { "ward": 101, "source_sheet": "101_baghajatin.pdf p1", "source": "KMC ward sewerage network map (ArcMap GeoPDF)", "extraction_method": "geopdf_raster_polygonised", "georef_max_residual_m": 0.1 }, "geometry": { "type": "Polygon", "coordinates": [ [ [ 88.382548686978197, 22.47541977510075 ], [ 88.382583235363455, 22.475419484103703 ], [ 88.382831579090876, 22.475325638612922 ], [ 88.382835346942201, 22.475206327316087 ], [ 88.382824622735484, 22.475119251832083 ], [ 88.382794448562777, 22.475062160086974 ], [ 88.382769052713414, 22.474988971218242 ], [ 88.382744083490408, 22.474959361666954 ], [ 88.382706865420872, 22.47493903064229 ], [ 88.38264501493525, 22.474923494770401 ], [ 88.382425341798069, 22.474920757301273 ], [ 88.382398264074041, 22.474927866857794 ], [ 88.382383637246974, 22.47494634074372 ], [ 88.382349829696324, 22.475022322108146 ], [ 88.382308506674065, 22.475086897565749 ], [ 88.382309269822983, 22.475164881630715 ], [ 88.382292669020984, 22.475233836568172 ], [ 88.382300588485379, 22.47528652815015 ], [ 88.382288788477098, 22.475341679630763 ], [ 88.382303864270071, 22.475369078729834 ], [ 88.382341194636766, 22.475400878087985 ], [ 88.382548686978197, 22.47541977510075 ] ] ] } },
{ "type": "Feature", "properties": { "ward": 101, "source_sheet": "101_baghajatin.pdf p1", "source": "KMC ward sewerage network map (ArcMap GeoPDF)", "extraction_method": "geopdf_raster_polygonised", "georef_max_residual_m": 0.1 }, "geometry": { "type": "Polygon", "coordinates": [ [ [ 88.384997948912115, 22.474772909644894 ], [ 88.38513367393729, 22.474771764370001 ], [ 88.385182938519776, 22.474762173292959 ], [ 88.385241106788371, 22.474653872109492 ], [ 88.38525997134235, 22.474564253298322 ], [ 88.385254383586172, 22.474497779208001 ], [ 88.384866501351809, 22.474455175463206 ], [ 88.384870025964446, 22.474562956036454 ], [ 88.38484043576014, 22.474565499520374 ], [ 88.384858744230584, 22.47467086152815 ], [ 88.384913866260433, 22.474755268403534 ], [ 88.384948549378052, 22.474768738787155 ], [ 88.384997948912115, 22.474772909644894 ] ] ] } },
{ "type": "Feature", "properties": { "ward": 101, "source_sheet": "101_baghajatin.pdf p1", "source": "KMC ward sewerage network map (ArcMap GeoPDF)", "extraction_method": "geopdf_raster_polygonised", "georef_max_residual_m": 0.1 }, "geometry": { "type": "Polygon", "coordinates": [ [ [ 88.37738849879608, 22.474690131094103 ], [ 88.377467443925724, 22.474687174840863 ], [ 88.377464618347133, 22.47465049708714 ], [ 88.377461994057214, 22.474634462217317 ], [ 88.377447165292992, 22.474632292803058 ], [ 88.377436556323929, 22.474556685052207 ], [ 88.377423971655475, 22.474531558390517 ], [ 88.37737701766693, 22.474525070836577 ], [ 88.377354249002877, 22.474467915834332 ], [ 88.377290065650243, 22.474466160495187 ], [ 88.376957123229943, 22.474489598070022 ], [ 88.376937560231823, 22.474508112894345 ], [ 88.37691851141993, 22.474579381766436 ], [ 88.376923603379439, 22.474595395949997 ], [ 88.376940966937156, 22.474604425677278 ], [ 88.376985430849118, 22.474608640402998 ], [ 88.377046833521121, 22.474578305401756 ], [ 88.377140383761045, 22.474554582221764 ], [ 88.377199654052689, 22.47455867267794 ], [ 88.377229423367083, 22.474574479822024 ], [ 88.377326626534355, 22.474672299491733 ], [ 88.37738849879608, 22.474690131094103 ] ] ] } },
{ "type": "Feature", "properties": { "ward": 101, "source_sheet": "101_baghajatin.pdf p1", "source": "KMC ward sewerage network map (ArcMap GeoPDF)", "extraction_method": "geopdf_raster_polygonised", "georef_max_residual_m": 0.1 }, "geometry": { "type": "Polygon", "coordinates": [ [ [ 88.38797473800966, 22.476075894558193 ], [ 88.388009286478379, 22.476075602390495 ], [ 88.388073222503394, 22.476052123342654 ], [ 88.388193961767698, 22.47603275150658 ], [ 88.388187628588682, 22.475890587383343 ], [ 88.388199672784737, 22.475358316078033 ], [ 88.388249261920691, 22.47462845747064 ], [ 88.388122326149968, 22.474519426994384 ], [ 88.388130912211409, 22.47438860583523 ], [ 88.388236573224788, 22.474341835532954 ], [ 88.388251086472891, 22.474311892939838 ], [ 88.388255503427061, 22.474259097397734 ], [ 88.388245519854152, 22.47424771266628 ], [ 88.388054716911569, 22.474169042121812 ], [ 88.387878472553282, 22.474065016064362 ], [ 88.387851305182622, 22.474062951939644 ], [ 88.387826785806539, 22.474079216096843 ], [ 88.387800181804025, 22.474134493061751 ], [ 88.387778152657816, 22.4741530299918 ], [ 88.387766264775124, 22.474199007190833 ], [ 88.387659533005589, 22.474388003978941 ], [ 88.387630731553216, 22.474470825510615 ], [ 88.387607293622978, 22.474597184550074 ], [ 88.387488335383011, 22.474797753772162 ], [ 88.387459353515837, 22.474862226126245 ], [ 88.387420816124603, 22.474958892930527 ], [ 88.387397445533736, 22.475092132877954 ], [ 88.38738643610138, 22.475227562171131 ], [ 88.387399675949951, 22.47531920363468 ], [ 88.387427857419965, 22.475424481800079 ], [ 88.387541293983702, 22.475666669306047 ], [ 88.387617128905049, 22.475849534924418 ], [ 88.387710012913644, 22.476009318005811 ], [ 88.387769621958313, 22.476047809179057 ], [ 88.38797473800966, 22.476075894558193 ] ] ] } },
{ "type": "Feature", "properties": { "ward": 101, "source_sheet": "101_baghajatin.pdf p1", "source": "KMC ward sewerage network map (ArcMap GeoPDF)", "extraction_method": "geopdf_raster_polygonised", "georef_max_residual_m": 0.1 }, "geometry": { "type": "Polygon", "coordinates": [ [ [ 88.379898023059738, 22.474905320788924 ], [ 88.379917742537472, 22.474902861182606 ], [ 88.379939750499446, 22.474882031618439 ], [ 88.379956755766031, 22.474854362587806 ], [ 88.379956486887991, 22.474826838771872 ], [ 88.379941590858877, 22.474817788636088 ], [ 88.379686786998093, 22.474755702906403 ], [ 88.37959020940194, 22.474722106995419 ], [ 88.379476111342598, 22.474663426017823 ], [ 88.379389068826171, 22.474595342250879 ], [ 88.379341599648086, 22.474536101279071 ], [ 88.379313939525574, 22.474483575368975 ], [ 88.379237936978868, 22.47428235600994 ], [ 88.379133155111546, 22.473913928028917 ], [ 88.379123149886297, 22.473900249040771 ], [ 88.379103340964249, 22.473893533934081 ], [ 88.379036757347748, 22.47389868096667 ], [ 88.379017105159321, 22.473908021416655 ], [ 88.379007480572696, 22.473933334513347 ], [ 88.379048441859084, 22.474084383894027 ], [ 88.379266040615107, 22.47463307744454 ], [ 88.379318669220822, 22.474715213487446 ], [ 88.379351040898996, 22.474744761402118 ], [ 88.379400686726626, 22.474774164154944 ], [ 88.379628547050686, 22.474857121348887 ], [ 88.379806627228916, 22.474896913693449 ], [ 88.379898023059738, 22.474905320788924 ] ] ] } },
{ "type": "Feature", "properties": { "ward": 101, "source_sheet": "101_baghajatin.pdf p1", "source": "KMC ward sewerage network map (ArcMap GeoPDF)", "extraction_method": "geopdf_raster_polygonised", "georef_max_residual_m": 0.1 }, "geometry": { "type": "Polygon", "coordinates": [ [ [ 88.38825505257762, 22.47421322452875 ], [ 88.388341422583039, 22.47421249400378 ], [ 88.388370944978121, 22.474203068954054 ], [ 88.388380635478939, 22.474184636314053 ], [ 88.388425966426453, 22.474025978323994 ], [ 88.388628271002929, 22.473517329629988 ], [ 88.388635358437583, 22.473485155994076 ], [ 88.388635132958882, 22.473462219561114 ], [ 88.388619920897568, 22.47342105924043 ], [ 88.388577406325069, 22.473364073048653 ], [ 88.38849525079975, 22.473291365333562 ], [ 88.388450539156963, 22.473261923699525 ], [ 88.388363831597729, 22.473228249598819 ], [ 88.388309925482901, 22.473267700722037 ], [ 88.387967839684194, 22.473866990644588 ], [ 88.387890405462031, 22.474023626146501 ], [ 88.387905369486418, 22.474039556458365 ], [ 88.388074120531883, 22.474134470518848 ], [ 88.38825505257762, 22.47421322452875 ] ] ] } },
{ "type": "Feature", "properties": { "ward": 101, "source_sheet": "101_baghajatin.pdf p1", "source": "KMC ward sewerage network map (ArcMap GeoPDF)", "extraction_method": "geopdf_raster_polygonised", "georef_max_residual_m": 0.1 }, "geometry": { "type": "Polygon", "coordinates": [ [ [ 88.388181312177352, 22.473238968618368 ], [ 88.388220074030471, 22.473165238100947 ], [ 88.38799957013444, 22.4730776432658 ], [ 88.387970543747713, 22.473137528406998 ], [ 88.388020190647723, 22.473166928447931 ], [ 88.388181312177352, 22.473238968618368 ] ] ] } },
{ "type": "Feature", "properties": { "ward": 101, "source_sheet": "101_baghajatin.pdf p1", "source": "KMC ward sewerage network map (ArcMap GeoPDF)", "extraction_method": "geopdf_raster_polygonised", "georef_max_residual_m": 0.1 }, "geometry": { "type": "Polygon", "coordinates": [ [ [ 88.378915349592205, 22.472585330012652 ], [ 88.37894002654599, 22.47258512273952 ], [ 88.378979352956279, 22.472568735524256 ], [ 88.378968676220609, 22.472486246930497 ], [ 88.379000286086878, 22.47243781075375 ], [ 88.379004639381407, 22.472378134320689 ], [ 88.37898458442011, 22.472346189004341 ], [ 88.378947300408555, 22.472318976083482 ], [ 88.378902837203881, 22.47231476186403 ], [ 88.378833831406354, 22.472324516809145 ], [ 88.378819092416023, 22.472331522121763 ], [ 88.378816915729288, 22.472361360337963 ], [ 88.378807201656826, 22.472377498811323 ], [ 88.378812584739066, 22.472423330423215 ], [ 88.378863147427069, 22.472546773172429 ], [ 88.378883112847788, 22.472569543891023 ], [ 88.378915349592205, 22.472585330012652 ] ] ] } },
{ "type": "Feature", "properties": { "ward": 101, "source_sheet": "101_baghajatin.pdf p1", "source": "KMC ward sewerage network map (ArcMap GeoPDF)", "extraction_method": "geopdf_raster_polygonised", "georef_max_residual_m": 0.1 }, "geometry": { "type": "Polygon", "coordinates": [ [ [ 88.376917579618052, 22.472964524766013 ], [ 88.377361184921284, 22.472901163699966 ], [ 88.377412783050929, 22.472877792372124 ], [ 88.377429855701564, 22.472857004551479 ], [ 88.377432055050889, 22.472829459994816 ], [ 88.377380196513883, 22.472572984784783 ], [ 88.377364048660496, 22.472435489736135 ], [ 88.377343524479429, 22.472355377451851 ], [ 88.377340430689259, 22.472291175826747 ], [ 88.377327577942367, 22.472238525284325 ], [ 88.377309991066028, 22.472206559036273 ], [ 88.377282622876834, 22.472183850211849 ], [ 88.377233224359344, 22.472179676930619 ], [ 88.377055729521246, 22.472199516545832 ], [ 88.377006912231039, 22.472254978222935 ], [ 88.37687553453425, 22.472448762860974 ], [ 88.37677321007493, 22.472584957699727 ], [ 88.37683986026201, 22.472586692593556 ], [ 88.376837571385508, 22.472605062528729 ], [ 88.376815362104281, 22.472605248785353 ], [ 88.37681574209347, 22.472644240920207 ], [ 88.376845354476657, 22.472643992576867 ], [ 88.376845488593602, 22.472657754506596 ], [ 88.376825747002911, 22.47265792006954 ], [ 88.376839337253614, 22.47278626126969 ], [ 88.376917579618052, 22.472964524766013 ] ] ] } },
{ "type": "Feature", "properties": { "ward": 101, "source_sheet": "101_baghajatin.pdf p1", "source": "KMC ward sewerage network map (ArcMap GeoPDF)", "extraction_method": "geopdf_raster_polygonised", "georef_max_residual_m": 0.1 }, "geometry": { "type": "Polygon", "coordinates": [ [ [ 88.388667764164381, 22.473266967604605 ], [ 88.388712115068543, 22.473259710883529 ], [ 88.388758505221418, 22.473208854050515 ], [ 88.389056167733543, 22.472609938544196 ], [ 88.389392904536436, 22.471969402815006 ], [ 88.389397659413788, 22.471951011897293 ], [ 88.389392453364039, 22.471923529955152 ], [ 88.389345026194647, 22.47186887936498 ], [ 88.389302805088761, 22.47184171070532 ], [ 88.389159071168493, 22.471780993626641 ], [ 88.389112072660168, 22.471769922182901 ], [ 88.389072612487922, 22.471772549939985 ], [ 88.389036003377839, 22.471814148743778 ], [ 88.388960948861694, 22.471961589225042 ], [ 88.388783785097729, 22.472265874331331 ], [ 88.388481028840204, 22.472848775623731 ], [ 88.388403663339616, 22.473012292264478 ], [ 88.388399043562146, 22.473044445020896 ], [ 88.388406581904817, 22.473058144264645 ], [ 88.388667764164381, 22.473266967604605 ] ] ] } },
{ "type": "Feature", "properties": { "ward": 101, "source_sheet": "101_baghajatin.pdf p1", "source": "KMC ward sewerage network map (ArcMap GeoPDF)", "extraction_method": "geopdf_raster_polygonised", "georef_max_residual_m": 0.1 }, "geometry": { "type": "Polygon", "coordinates": [ [ [ 88.379014189642234, 22.473862169096297 ], [ 88.379102915528321, 22.473849954537943 ], [ 88.379112629658295, 22.473833816046184 ], [ 88.379112405743655, 22.473810879521857 ], [ 88.378981380309995, 22.473282103006646 ], [ 88.378872269052124, 22.472975644824867 ], [ 88.378773723021112, 22.472740206879426 ], [ 88.378461641258042, 22.472118902761579 ], [ 88.378262391451742, 22.471932480613699 ], [ 88.377981373133451, 22.471712336896477 ], [ 88.37788962155922, 22.471667230132457 ], [ 88.377699095763063, 22.471616070686409 ], [ 88.377669528339482, 22.471620906484464 ], [ 88.377657324131718, 22.4716347719468 ], [ 88.377653417564019, 22.471740321465447 ], [ 88.377653551754747, 22.471754083392042 ], [ 88.377668514404235, 22.471770014729767 ], [ 88.377834117525694, 22.471796151105316 ], [ 88.377953125537445, 22.471852498340578 ], [ 88.378102215679888, 22.471956763649445 ], [ 88.37831640570792, 22.472156823621127 ], [ 88.378391286714475, 22.47224336091319 ], [ 88.378665905313696, 22.472819102954546 ], [ 88.378896958244212, 22.473482376280629 ], [ 88.378979372919574, 22.473834935478738 ], [ 88.378994380730191, 22.473855453975645 ], [ 88.379014189642234, 22.473862169096297 ] ] ] } }
]
}
