{
"type": "FeatureCollection",
"name": "ward107_p1_water_bodies",
"crs": { "type": "name", "properties": { "name": "urn:ogc:def:crs:OGC:1.3:CRS84" } },
"features": [
{ "type": "Feature", "properties": { "ward": 107, "source_sheet": "107_vip bazar.pdf p1", "source": "KMC ward sewerage network map (ArcMap GeoPDF)", "extraction_method": "geopdf_raster_polygonised", "georef_max_residual_m": 0.1 }, "geometry": { "type": "Polygon", "coordinates": [ [ [ 88.394574887271233, 22.530802375885045 ], [ 88.394625565024768, 22.530797651558263 ], [ 88.394922287038355, 22.530726550790767 ], [ 88.395076540020312, 22.530703794330133 ], [ 88.39509713950244, 22.530688627901228 ], [ 88.395179858428705, 22.530660073315264 ], [ 88.395193584270757, 22.530649248773461 ], [ 88.395197424710105, 22.530572141729181 ], [ 88.395163435863736, 22.530401164156718 ], [ 88.395118240789813, 22.530262398406038 ], [ 88.395090168532093, 22.530221965903582 ], [ 88.39505772076005, 22.530205121847569 ], [ 88.395043887946912, 22.530205242657463 ], [ 88.394714847731592, 22.530272343932371 ], [ 88.394362944953045, 22.53035891250375 ], [ 88.394296556819484, 22.530406592500913 ], [ 88.394282895092374, 22.530423839202268 ], [ 88.394278626366471, 22.530458131362224 ], [ 88.394300145640926, 22.530535017043714 ], [ 88.394368672864204, 22.530701411478532 ], [ 88.394405988329012, 22.530743904350036 ], [ 88.394415081895474, 22.530730979379328 ], [ 88.394461362594484, 22.530747702800248 ], [ 88.394463860600723, 22.530766949371277 ], [ 88.394429171461809, 22.53075654755197 ], [ 88.394457029731981, 22.530775572729176 ], [ 88.394535651337577, 22.5307984365793 ], [ 88.394533260286025, 22.53078989373077 ], [ 88.394514752275001, 22.530783632521672 ], [ 88.394523824440441, 22.530768566801086 ], [ 88.394549291672831, 22.530779049112841 ], [ 88.394554116564578, 22.53080041629757 ], [ 88.394574887271233, 22.530802375885045 ] ], [ [ 88.394503203487432, 22.530781592416023 ], [ 88.394503182094809, 22.53077945167184 ], [ 88.394507793052668, 22.530779411416535 ], [ 88.394507814445348, 22.530781552160718 ], [ 88.394503203487432, 22.530781592416023 ] ], [ [ 88.39449626565802, 22.530779512054547 ], [ 88.394480041736443, 22.530771089969566 ], [ 88.394482197469372, 22.530756084632806 ], [ 88.394503032346634, 22.530764466462536 ], [ 88.39449626565802, 22.530779512054547 ] ] ] } },
{ "type": "Feature", "properties": { "ward": 107, "source_sheet": "107_vip bazar.pdf p1", "source": "KMC ward sewerage network map (ArcMap GeoPDF)", "extraction_method": "geopdf_raster_polygonised", "georef_max_residual_m": 0.1 }, "geometry": { "type": "Polygon", "coordinates": [ [ [ 88.392772091054638, 22.528747824081453 ], [ 88.393447837486846, 22.528305180681706 ], [ 88.393357177337265, 22.528231038857012 ], [ 88.393336407025373, 22.528229079091396 ], [ 88.393306607306215, 22.528246466470261 ], [ 88.392766112888651, 22.528610856518664 ], [ 88.392764106533377, 22.528640847068392 ], [ 88.392750380679146, 22.528651671405079 ], [ 88.392755269294469, 22.528679460905995 ], [ 88.392748737497655, 22.528718054642432 ], [ 88.392764939713615, 22.528724336175227 ], [ 88.392772091054638, 22.528747824081453 ] ] ] } },
{ "type": "Feature", "properties": { "ward": 107, "source_sheet": "107_vip bazar.pdf p1", "source": "KMC ward sewerage network map (ArcMap GeoPDF)", "extraction_method": "geopdf_raster_polygonised", "georef_max_residual_m": 0.1 }, "geometry": { "type": "Polygon", "coordinates": [ [ [ 88.393633099843868, 22.527924619528999 ], [ 88.393686017903562, 22.527913453198188 ], [ 88.393933422389168, 22.527752865580059 ], [ 88.393976990350481, 22.52772893515235 ], [ 88.393983906636947, 22.527728874799617 ], [ 88.393995604833478, 22.527745900174732 ], [ 88.394062013241651, 22.527700361091018 ], [ 88.394050208129684, 22.527672631993752 ], [ 88.394121205955585, 22.527624911905466 ], [ 88.394127972552056, 22.527609866329225 ], [ 88.394127566266576, 22.5275691921671 ], [ 88.394103528387888, 22.527470919071849 ], [ 88.394063502263037, 22.527387772018628 ], [ 88.394000935120147, 22.527356204022343 ], [ 88.393897126961107, 22.527350687042098 ], [ 88.393765846133192, 22.527364678078914 ], [ 88.393729215890076, 22.527390688851401 ], [ 88.393713377201976, 22.5274208000877 ], [ 88.393727726116353, 22.527703277958679 ], [ 88.393670261411756, 22.527720906762859 ], [ 88.393653866893516, 22.527695358604628 ], [ 88.393559643567002, 22.52772615364669 ], [ 88.393590169904812, 22.527781551585168 ], [ 88.393590234030924, 22.527787973822601 ], [ 88.393565045298729, 22.527805321019695 ], [ 88.39360944699763, 22.527864879773531 ], [ 88.393633099843868, 22.527924619528999 ] ] ] } },
{ "type": "Feature", "properties": { "ward": 107, "source_sheet": "107_vip bazar.pdf p1", "source": "KMC ward sewerage network map (ArcMap GeoPDF)", "extraction_method": "geopdf_raster_polygonised", "georef_max_residual_m": 0.1 }, "geometry": { "type": "Polygon", "coordinates": [ [ [ 88.393479771643996, 22.528270647199932 ], [ 88.393928344835558, 22.527937030042839 ], [ 88.393983162053004, 22.527885169335089 ], [ 88.394159717974233, 22.527787286633146 ], [ 88.394396022272318, 22.527669613843152 ], [ 88.394655765455724, 22.527590272863574 ], [ 88.394683254531799, 22.527341684799719 ], [ 88.394433204052348, 22.527468041699766 ], [ 88.394160419597355, 22.527626710614438 ], [ 88.394068908143765, 22.52769815998931 ], [ 88.394068993674409, 22.527706722970908 ], [ 88.394027731165934, 22.527730633304188 ], [ 88.393812731153147, 22.527903783922646 ], [ 88.393627230977287, 22.528029576407899 ], [ 88.393586117922638, 22.528068471855878 ], [ 88.393446426826543, 22.528163891457247 ], [ 88.393407426761314, 22.52818350004036 ], [ 88.393400595942026, 22.52819212335298 ], [ 88.393403072362503, 22.528209229210297 ], [ 88.393479771643996, 22.528270647199932 ] ] ] } },
{ "type": "Feature", "properties": { "ward": 107, "source_sheet": "107_vip bazar.pdf p1", "source": "KMC ward sewerage network map (ArcMap GeoPDF)", "extraction_method": "geopdf_raster_polygonised", "georef_max_residual_m": 0.1 }, "geometry": { "type": "Polygon", "coordinates": [ [ [ 88.392654461068929, 22.527357243314952 ], [ 88.392778804421766, 22.527341172733266 ], [ 88.392824784713937, 22.527327926246016 ], [ 88.392868331391142, 22.527301855367771 ], [ 88.392916702540916, 22.52729715174025 ], [ 88.392902677726411, 22.527278005632379 ], [ 88.392877807581471, 22.527096243185493 ], [ 88.392851379807411, 22.526989426963066 ], [ 88.392839681815445, 22.526972401492891 ], [ 88.392818804883163, 22.526959737916599 ], [ 88.392730899970417, 22.526930531248546 ], [ 88.39267787538337, 22.526930993517119 ], [ 88.392622737614175, 22.526950742588003 ], [ 88.392570140192774, 22.526994019760551 ], [ 88.39255201722689, 22.527026291738114 ], [ 88.392573130452419, 22.527293724328473 ], [ 88.392603528144264, 22.527336278000721 ], [ 88.392654461068929, 22.527357243314952 ] ] ] } },
{ "type": "Feature", "properties": { "ward": 107, "source_sheet": "107_vip bazar.pdf p1", "source": "KMC ward sewerage network map (ArcMap GeoPDF)", "extraction_method": "geopdf_raster_polygonised", "georef_max_residual_m": 0.1 }, "geometry": { "type": "Polygon", "coordinates": [ [ [ 88.393571944811143, 22.524801532294919 ], [ 88.393615682925088, 22.524794727972989 ], [ 88.39364992166233, 22.524760174375913 ], [ 88.393661192082675, 22.524734384865045 ], [ 88.393660337155254, 22.524648755002186 ], [ 88.393626929116564, 22.524535576973438 ], [ 88.393563722242106, 22.524439786324969 ], [ 88.393538213523613, 22.524425022293102 ], [ 88.393508243655788, 22.524425283700513 ], [ 88.393414022468207, 22.52445607855881 ], [ 88.393414150683057, 22.524468923039958 ], [ 88.393438251544637, 22.524573618565128 ], [ 88.393456865519937, 22.524590583681007 ], [ 88.393500881393607, 22.524611609100912 ], [ 88.393533541360071, 22.524649861024976 ], [ 88.39353672296032, 22.524737611530423 ], [ 88.393530106018744, 22.524767642309865 ], [ 88.39354417338572, 22.524791069870592 ], [ 88.393571944811143, 22.524801532294919 ] ] ] } },
{ "type": "Feature", "properties": { "ward": 107, "source_sheet": "107_vip bazar.pdf p1", "source": "KMC ward sewerage network map (ArcMap GeoPDF)", "extraction_method": "geopdf_raster_polygonised", "georef_max_residual_m": 0.1 }, "geometry": { "type": "Polygon", "coordinates": [ [ [ 88.391347468480546, 22.52391744609384 ], [ 88.391379679622943, 22.523910742770497 ], [ 88.391432404354532, 22.523880310504204 ], [ 88.391450569896747, 22.523852320145735 ], [ 88.39145253385152, 22.523818048086611 ], [ 88.391417099848752, 22.523732719300007 ], [ 88.391334811851067, 22.523572865820533 ], [ 88.391288064538713, 22.523509044866948 ], [ 88.391235019890161, 22.523507365845376 ], [ 88.391209767584712, 22.523518290410987 ], [ 88.391136657335451, 22.523585295998586 ], [ 88.391102268885717, 22.523604863838411 ], [ 88.391028433266897, 22.523599083906813 ], [ 88.391007770322673, 22.523607827549217 ], [ 88.391078509814676, 22.523765640827992 ], [ 88.391104039502139, 22.523782546019433 ], [ 88.391219435814889, 22.523794386818288 ], [ 88.391237964084468, 22.523802789215342 ], [ 88.391261252436223, 22.523826136702443 ], [ 88.391296387669556, 22.5238814950409 ], [ 88.391347468480546, 22.52391744609384 ] ] ] } },
{ "type": "Feature", "properties": { "ward": 107, "source_sheet": "107_vip bazar.pdf p1", "source": "KMC ward sewerage network map (ArcMap GeoPDF)", "extraction_method": "geopdf_raster_polygonised", "georef_max_residual_m": 0.1 }, "geometry": { "type": "Polygon", "coordinates": [ [ [ 88.39402625833192, 22.523658592486989 ], [ 88.394067712076975, 22.523653948921883 ], [ 88.394092857261754, 22.52363232018579 ], [ 88.394062755823867, 22.523388516469531 ], [ 88.394027897565934, 22.523360988486992 ], [ 88.393988556870795, 22.52334634520399 ], [ 88.393956281885252, 22.523346626797053 ], [ 88.393901081590272, 22.523359953993236 ], [ 88.393952101992909, 22.523620702705919 ], [ 88.393977674729669, 22.523641888918533 ], [ 88.39402625833192, 22.523658592486989 ] ] ] } },
{ "type": "Feature", "properties": { "ward": 107, "source_sheet": "107_vip bazar.pdf p1", "source": "KMC ward sewerage network map (ArcMap GeoPDF)", "extraction_method": "geopdf_raster_polygonised", "georef_max_residual_m": 0.1 }, "geometry": { "type": "Polygon", "coordinates": [ [ [ 88.391259866828065, 22.523455767043391 ], [ 88.391328984972745, 22.523450883279271 ], [ 88.391391080345443, 22.523435355971721 ], [ 88.391666443077256, 22.523304501581368 ], [ 88.391705527449517, 22.523293456460461 ], [ 88.391721536900718, 22.523280471398369 ], [ 88.391734984887904, 22.523241817432002 ], [ 88.391805447818342, 22.523140579697412 ], [ 88.39181443446364, 22.523116951131414 ], [ 88.3918115101621, 22.523054889502244 ], [ 88.39175293727736, 22.522961198611672 ], [ 88.391713575563855, 22.522944414005121 ], [ 88.391575297137862, 22.522949900310199 ], [ 88.391446730859528, 22.523004543416146 ], [ 88.391306808387071, 22.523076412794634 ], [ 88.391328538012502, 22.523174706574025 ], [ 88.39132194197839, 22.523206878037797 ], [ 88.391195424709807, 22.523235811892317 ], [ 88.391177131187419, 22.523250957727281 ], [ 88.391172755139635, 22.523274546116003 ], [ 88.391208914219362, 22.523432660445781 ], [ 88.391239075913504, 22.523451666219209 ], [ 88.391259866828065, 22.523455767043391 ] ] ] } },
{ "type": "Feature", "properties": { "ward": 107, "source_sheet": "107_vip bazar.pdf p1", "source": "KMC ward sewerage network map (ArcMap GeoPDF)", "extraction_method": "geopdf_raster_polygonised", "georef_max_residual_m": 0.1 }, "geometry": { "type": "Polygon", "coordinates": [ [ [ 88.391921035727762, 22.523171686755198 ], [ 88.3920039858222, 22.523166682203108 ], [ 88.391992160204907, 22.523136812150934 ], [ 88.392022044429055, 22.523127988045847 ], [ 88.392040167065929, 22.523095716132303 ], [ 88.39209282729928, 22.523058861424268 ], [ 88.392124461810795, 22.522994357755682 ], [ 88.392124034856849, 22.52295154278708 ], [ 88.392114664018678, 22.522936637895672 ], [ 88.392054746234763, 22.522939300891029 ], [ 88.39197433642947, 22.522967833611919 ], [ 88.391910106744348, 22.52300050720449 ], [ 88.391871278598558, 22.523037241354245 ], [ 88.39186000795776, 22.523063030754869 ], [ 88.39186022139512, 22.523084438241302 ], [ 88.391874565773918, 22.523135695707662 ], [ 88.391904834207537, 22.523165405098556 ], [ 88.391921035727762, 22.523171686755198 ] ] ] } },
{ "type": "Feature", "properties": { "ward": 107, "source_sheet": "107_vip bazar.pdf p1", "source": "KMC ward sewerage network map (ArcMap GeoPDF)", "extraction_method": "geopdf_raster_polygonised", "georef_max_residual_m": 0.1 }, "geometry": { "type": "Polygon", "coordinates": [ [ [ 88.388583000731828, 22.523444799904613 ], [ 88.388682024864295, 22.523433234538764 ], [ 88.388704972014153, 22.523422330398901 ], [ 88.388773749551703, 22.52338319570659 ], [ 88.388851407731394, 22.523309728803987 ], [ 88.388757495019505, 22.522908049081657 ], [ 88.388717516082622, 22.522829181927968 ], [ 88.388664194850776, 22.522799672273131 ], [ 88.38860886639587, 22.522800153159437 ], [ 88.388551424219457, 22.522819920828002 ], [ 88.388416196152065, 22.522900310696453 ], [ 88.388386780089448, 22.522956230681789 ], [ 88.388451515748699, 22.523206157720058 ], [ 88.388478450296688, 22.523364352960645 ], [ 88.388520521709481, 22.523421792616038 ], [ 88.388583000731828, 22.523444799904613 ] ] ] } },
{ "type": "Feature", "properties": { "ward": 107, "source_sheet": "107_vip bazar.pdf p1", "source": "KMC ward sewerage network map (ArcMap GeoPDF)", "extraction_method": "geopdf_raster_polygonised", "georef_max_residual_m": 0.1 }, "geometry": { "type": "Polygon", "coordinates": [ [ [ 88.389786247061423, 22.523650572096706 ], [ 88.389899209956596, 22.523649589406073 ], [ 88.389947494734827, 22.523636323727288 ], [ 88.389974967275663, 22.523616816296183 ], [ 88.390011277581166, 22.523558695128369 ], [ 88.39009369510724, 22.523500172792506 ], [ 88.390121061013431, 22.523469961587914 ], [ 88.390120783887937, 22.523442131836269 ], [ 88.390045843169887, 22.523093811351014 ], [ 88.390002790765109, 22.522937897602461 ], [ 88.389953270009954, 22.522826999761534 ], [ 88.38990656620669, 22.522767459857157 ], [ 88.389867119495406, 22.52274211178235 ], [ 88.389827758046437, 22.522725326699426 ], [ 88.389719214805766, 22.522707002441219 ], [ 88.389564969451143, 22.522729753383217 ], [ 88.389293641135694, 22.522802763858053 ], [ 88.389261579246053, 22.522824452014397 ], [ 88.389257160272322, 22.522843758865829 ], [ 88.389278547556387, 22.522907800983255 ], [ 88.389301878044819, 22.522935430282672 ], [ 88.389343566157763, 22.522954336197813 ], [ 88.389440625399786, 22.522977042446698 ], [ 88.389500479385163, 22.522967958168898 ], [ 88.389569831785948, 22.522986623427634 ], [ 88.389623238503646, 22.523024695771177 ], [ 88.389674531685117, 22.523082054903082 ], [ 88.389707467297086, 22.523148137439872 ], [ 88.389695553104815, 22.523340925305998 ], [ 88.389712308644064, 22.523402866702494 ], [ 88.389712905352908, 22.523462807716626 ], [ 88.389681418774288, 22.523542296222978 ], [ 88.389674864963411, 22.523578749138945 ], [ 88.38969373409509, 22.523621403727866 ], [ 88.389786247061423, 22.523650572096706 ] ] ] } },
{ "type": "Feature", "properties": { "ward": 107, "source_sheet": "107_vip bazar.pdf p1", "source": "KMC ward sewerage network map (ArcMap GeoPDF)", "extraction_method": "geopdf_raster_polygonised", "georef_max_residual_m": 0.1 }, "geometry": { "type": "Polygon", "coordinates": [ [ [ 88.390185276065282, 22.522972705780916 ], [ 88.390219856369484, 22.522972404888453 ], [ 88.390371540646271, 22.522923984372703 ], [ 88.390389919504557, 22.522917401626561 ], [ 88.390424179970481, 22.522884989440875 ], [ 88.390511506146765, 22.522856397289303 ], [ 88.390456819962907, 22.522689880248418 ], [ 88.390446212671634, 22.522550811746385 ], [ 88.390417695677968, 22.522465422491287 ], [ 88.390291394942906, 22.522284542027602 ], [ 88.390081736692935, 22.52229921187152 ], [ 88.389745156651145, 22.52230213987178 ], [ 88.389355660178694, 22.522316232009818 ], [ 88.389282144822317, 22.522342562505525 ], [ 88.389204231768105, 22.522390340570897 ], [ 88.389181433939726, 22.522416230031553 ], [ 88.389154387535115, 22.522478552349082 ], [ 88.38915259342275, 22.522529950423408 ], [ 88.389167490592939, 22.522636867719598 ], [ 88.389202837713952, 22.522713634092071 ], [ 88.389228366989656, 22.522730539604524 ], [ 88.389246895006508, 22.522738942245155 ], [ 88.389276864565076, 22.522738681649333 ], [ 88.389350550565482, 22.522729477154851 ], [ 88.389421760757642, 22.522703166667551 ], [ 88.389612657308717, 22.522656546795545 ], [ 88.389663374985005, 22.522656105670258 ], [ 88.389755716803961, 22.522668148087384 ], [ 88.389875616261335, 22.522669246045414 ], [ 88.389940421794563, 22.522694373510696 ], [ 88.389996624077284, 22.522781662936591 ], [ 88.390033935993586, 22.522824157037736 ], [ 88.390076284958042, 22.52290942602011 ], [ 88.390090266288269, 22.522924290925783 ], [ 88.390136671784774, 22.522953860265702 ], [ 88.390185276065282, 22.522972705780916 ] ] ] } },
{ "type": "Feature", "properties": { "ward": 107, "source_sheet": "107_vip bazar.pdf p1", "source": "KMC ward sewerage network map (ArcMap GeoPDF)", "extraction_method": "geopdf_raster_polygonised", "georef_max_residual_m": 0.1 }, "geometry": { "type": "Polygon", "coordinates": [ [ [ 88.388753358242539, 22.522723964487909 ], [ 88.388836329576932, 22.52272110232764 ], [ 88.388916676084762, 22.522686148894316 ], [ 88.388934927201404, 22.522666721803773 ], [ 88.388957341742383, 22.522602298849101 ], [ 88.388958113601831, 22.522448144704644 ], [ 88.388943919456693, 22.522411872176498 ], [ 88.388872198179484, 22.522386804413337 ], [ 88.388848782685059, 22.522350612034536 ], [ 88.388826565147397, 22.522203080527948 ], [ 88.388817455648805, 22.521982643222827 ], [ 88.388772887596204, 22.521905956891619 ], [ 88.388749621277086, 22.52188474975344 ], [ 88.388710260196206, 22.521867964376376 ], [ 88.388675658851184, 22.52186612417891 ], [ 88.388540048513278, 22.521907980575058 ], [ 88.388471356771646, 22.521955678149045 ], [ 88.388425995141276, 22.522031005141667 ], [ 88.388419760391386, 22.522099569306764 ], [ 88.388456022441389, 22.522268388210893 ], [ 88.388531113519704, 22.522400473725227 ], [ 88.388545925026833, 22.522498828098193 ], [ 88.388609404405301, 22.522622450731845 ], [ 88.388637579644865, 22.522673588333355 ], [ 88.388667783432709, 22.522696876119852 ], [ 88.388702576637655, 22.52271798307294 ], [ 88.388753358242539, 22.522723964487909 ] ] ] } },
{ "type": "Feature", "properties": { "ward": 107, "source_sheet": "107_vip bazar.pdf p1", "source": "KMC ward sewerage network map (ArcMap GeoPDF)", "extraction_method": "geopdf_raster_polygonised", "georef_max_residual_m": 0.1 }, "geometry": { "type": "Polygon", "coordinates": [ [ [ 88.391926780526376, 22.52051045469149 ], [ 88.392078845674192, 22.520500566202767 ], [ 88.392433265705989, 22.520437531863305 ], [ 88.392442358843965, 22.520424607012888 ], [ 88.392441889146681, 22.520377510538779 ], [ 88.392396806965053, 22.520018226324471 ], [ 88.392387457663489, 22.520005462184127 ], [ 88.3923528567814, 22.520003622755894 ], [ 88.392318383985142, 22.52001462781443 ], [ 88.392060808880785, 22.520310180116017 ], [ 88.391992161879898, 22.520362160599525 ], [ 88.391895829771627, 22.520412241288323 ], [ 88.391887120726409, 22.520463699598135 ], [ 88.391901208687869, 22.520489268099979 ], [ 88.391926780526376, 22.52051045469149 ] ] ] } },
{ "type": "Feature", "properties": { "ward": 107, "source_sheet": "107_vip bazar.pdf p1", "source": "KMC ward sewerage network map (ArcMap GeoPDF)", "extraction_method": "geopdf_raster_polygonised", "georef_max_residual_m": 0.1 }, "geometry": { "type": "Polygon", "coordinates": [ [ [ 88.394073100005443, 22.519806644428595 ], [ 88.394305293680915, 22.519740390502733 ], [ 88.394390482733797, 22.519728942469239 ], [ 88.394343154697609, 22.519376101374998 ], [ 88.394255617810401, 22.519383287992845 ], [ 88.394207163966001, 22.519379428895625 ], [ 88.393928694026116, 22.51942895887742 ], [ 88.393938577720562, 22.519495241616546 ], [ 88.3939479484944, 22.519510146409779 ], [ 88.393966497696383, 22.519520689265242 ], [ 88.393990084943098, 22.519574006849531 ], [ 88.394033696213597, 22.519785578857043 ], [ 88.394052330955688, 22.519804684690147 ], [ 88.394073100005443, 22.519806644428595 ] ] ] } },
{ "type": "Feature", "properties": { "ward": 107, "source_sheet": "107_vip bazar.pdf p1", "source": "KMC ward sewerage network map (ArcMap GeoPDF)", "extraction_method": "geopdf_raster_polygonised", "georef_max_residual_m": 0.1 }, "geometry": { "type": "Polygon", "coordinates": [ [ [ 88.393555401138016, 22.518755679515955 ], [ 88.39485897044716, 22.518622272799572 ], [ 88.394818963885058, 22.518310045669519 ], [ 88.393510829608772, 22.518447773623425 ], [ 88.393555401138016, 22.518755679515955 ] ] ] } },
{ "type": "Feature", "properties": { "ward": 107, "source_sheet": "107_vip bazar.pdf p1", "source": "KMC ward sewerage network map (ArcMap GeoPDF)", "extraction_method": "geopdf_raster_polygonised", "georef_max_residual_m": 0.1 }, "geometry": { "type": "Polygon", "coordinates": [ [ [ 88.388375061293871, 22.518995598418467 ], [ 88.389012625479452, 22.518889433480108 ], [ 88.389765601926314, 22.518797248880027 ], [ 88.391642445272637, 22.518583948375234 ], [ 88.39328194515852, 22.518383400460465 ], [ 88.393298060718763, 22.51838111901284 ], [ 88.393297953914171, 22.518370415269938 ], [ 88.393283396006439, 22.518297750416604 ], [ 88.393269564368154, 22.518297871014187 ], [ 88.392438363964857, 22.518405740004379 ], [ 88.391604622061195, 22.518490076590549 ], [ 88.390752820449464, 22.518613102933763 ], [ 88.389965330602891, 22.518712015117497 ], [ 88.389573730680809, 22.518745394099195 ], [ 88.389106332965596, 22.518807263264922 ], [ 88.388751638323399, 22.518842460372579 ], [ 88.388367145003187, 22.518895043121095 ], [ 88.388375061293871, 22.518995598418467 ] ] ] } },
{ "type": "Feature", "properties": { "ward": 107, "source_sheet": "107_vip bazar.pdf p1", "source": "KMC ward sewerage network map (ArcMap GeoPDF)", "extraction_method": "geopdf_raster_polygonised", "georef_max_residual_m": 0.1 }, "geometry": { "type": "Polygon", "coordinates": [ [ [ 88.395903789576337, 22.518435451842503 ], [ 88.395924494228041, 22.518430989112897 ], [ 88.395942786597203, 22.518415842787832 ], [ 88.395976659410479, 22.518344896093758 ], [ 88.39597870785569, 22.518319187001733 ], [ 88.395969379762718, 22.51830856382389 ], [ 88.395574472392511, 22.518241362331366 ], [ 88.395442922250297, 22.51822752460075 ], [ 88.395131004974715, 22.518159597275464 ], [ 88.394904767825764, 22.518129458260557 ], [ 88.394635072756884, 22.518133953146016 ], [ 88.393400687216854, 22.518268895558517 ], [ 88.39338000385095, 22.518275498714942 ], [ 88.393370889570335, 22.51828628286162 ], [ 88.393381200131273, 22.518395380631812 ], [ 88.393395159953258, 22.518408104515057 ], [ 88.393519388414347, 22.518381330011458 ], [ 88.394032930189567, 22.518323327491963 ], [ 88.394652449771414, 22.518257975661555 ], [ 88.394806881540703, 22.51825448684966 ], [ 88.39504225441533, 22.518275982505219 ], [ 88.39533316776965, 22.518318402192801 ], [ 88.395903789576337, 22.518435451842503 ] ] ] } },
{ "type": "Feature", "properties": { "ward": 107, "source_sheet": "107_vip bazar.pdf p1", "source": "KMC ward sewerage network map (ArcMap GeoPDF)", "extraction_method": "geopdf_raster_polygonised", "georef_max_residual_m": 0.1 }, "geometry": { "type": "Polygon", "coordinates": [ [ [ 88.398917757666965, 22.520117558529968 ], [ 88.399012928461744, 22.519951873657263 ], [ 88.399037728979437, 22.519895992325125 ], [ 88.398756900755671, 22.519249748708507 ], [ 88.398585731122751, 22.518733141554431 ], [ 88.398499117650019, 22.518372082169869 ], [ 88.398666887643529, 22.518319231500445 ], [ 88.398936153590611, 22.518271914978445 ], [ 88.39929269763816, 22.51819171983626 ], [ 88.399637993869774, 22.518139454534357 ], [ 88.399815348973917, 22.518122914566487 ], [ 88.399851524961406, 22.518051946965439 ], [ 88.398885073118862, 22.518235966304104 ], [ 88.398571728388092, 22.518255836407477 ], [ 88.39850227019997, 22.518226471239714 ], [ 88.398469996465764, 22.518226753677396 ], [ 88.398265063524917, 22.518252097207689 ], [ 88.398235202233053, 22.518263063148083 ], [ 88.398203228595747, 22.51829331595037 ], [ 88.398134327775111, 22.518319609969428 ], [ 88.397819020282199, 22.518373750701908 ], [ 88.397462431880584, 22.518449661155078 ], [ 88.397271329986367, 22.518474882486732 ], [ 88.397202321771957, 22.518490472394898 ], [ 88.397066374954633, 22.518498083774571 ], [ 88.396900202569526, 22.518480268071364 ], [ 88.396856338144019, 22.518474228710449 ], [ 88.396708329604522, 22.51842842190684 ], [ 88.396572104447969, 22.51840820317511 ], [ 88.396442902185626, 22.518398627619657 ], [ 88.39606872043025, 22.51832910531321 ], [ 88.39604568912516, 22.518331447453626 ], [ 88.396031964514776, 22.518342272019126 ], [ 88.395993609601319, 22.518426103477289 ], [ 88.395996086094115, 22.518443209307467 ], [ 88.396010003341786, 22.51845165145928 ], [ 88.3964095648289, 22.518523093042639 ], [ 88.396649655882626, 22.518555249749248 ], [ 88.397074575928912, 22.518626468017167 ], [ 88.397129902522295, 22.518625984305714 ], [ 88.397373875994091, 22.518585314279942 ], [ 88.397633836216855, 22.518529517544856 ], [ 88.398163234277604, 22.518443531096739 ], [ 88.398195508066394, 22.518443248718 ], [ 88.39833582942876, 22.518412047862565 ], [ 88.398424211782398, 22.518719568585016 ], [ 88.398758605898891, 22.519650087885125 ], [ 88.398917757666965, 22.520117558529968 ] ] ] } },
{ "type": "Feature", "properties": { "ward": 107, "source_sheet": "107_vip bazar.pdf p1", "source": "KMC ward sewerage network map (ArcMap GeoPDF)", "extraction_method": "geopdf_raster_polygonised", "georef_max_residual_m": 0.1 }, "geometry": { "type": "Polygon", "coordinates": [ [ [ 88.397769979021518, 22.518080871988492 ], [ 88.398066993808655, 22.518041877937783 ], [ 88.398025468092342, 22.517808879651295 ], [ 88.397994513808811, 22.517710667577074 ], [ 88.397812826962124, 22.517755075531831 ], [ 88.397661151229215, 22.517803502674084 ], [ 88.39766375647568, 22.517833452938444 ], [ 88.397713645517484, 22.51798074091101 ], [ 88.397741694399528, 22.518019032357518 ], [ 88.397769979021518, 22.518080871988492 ] ] ] } },
{ "type": "Feature", "properties": { "ward": 107, "source_sheet": "107_vip bazar.pdf p1", "source": "KMC ward sewerage network map (ArcMap GeoPDF)", "extraction_method": "geopdf_raster_polygonised", "georef_max_residual_m": 0.1 }, "geometry": { "type": "Polygon", "coordinates": [ [ [ 88.396982654925296, 22.517734502774939 ], [ 88.397120734913585, 22.517709745386739 ], [ 88.397121797868152, 22.51758556200642 ], [ 88.397130890383266, 22.517572636918228 ], [ 88.396949139132062, 22.51761062166733 ], [ 88.396982654925296, 22.517734502774939 ] ] ] } },
{ "type": "Feature", "properties": { "ward": 107, "source_sheet": "107_vip bazar.pdf p1", "source": "KMC ward sewerage network map (ArcMap GeoPDF)", "extraction_method": "geopdf_raster_polygonised", "georef_max_residual_m": 0.1 }, "geometry": { "type": "Polygon", "coordinates": [ [ [ 88.386764972716179, 22.517748566882023 ], [ 88.386797246500606, 22.517748286795889 ], [ 88.386893430003255, 22.517683223861127 ], [ 88.386929697708666, 22.517620821851075 ], [ 88.386926648272009, 22.51754591544853 ], [ 88.38691027752607, 22.517522507203378 ], [ 88.38688942382143, 22.517511983499134 ], [ 88.386856831181291, 22.517480152280811 ], [ 88.386826224917655, 22.517416189727626 ], [ 88.386821040364737, 22.517358429362641 ], [ 88.386813975753469, 22.517343504098395 ], [ 88.386800122912263, 22.517341483380743 ], [ 88.386735639308171, 22.517348465802669 ], [ 88.386653287538095, 22.517413408614157 ], [ 88.386632625183026, 22.517422151668818 ], [ 88.386600755350955, 22.517463106061719 ], [ 88.386634368286693, 22.51759769356876 ], [ 88.386681749140649, 22.517725738771297 ], [ 88.386707298439518, 22.517744785510242 ], [ 88.386764972716179, 22.517748566882023 ] ] ] } },
{ "type": "Feature", "properties": { "ward": 107, "source_sheet": "107_vip bazar.pdf p1", "source": "KMC ward sewerage network map (ArcMap GeoPDF)", "extraction_method": "geopdf_raster_polygonised", "georef_max_residual_m": 0.1 }, "geometry": { "type": "Polygon", "coordinates": [ [ [ 88.396941923530903, 22.517580711685572 ], [ 88.397153621663804, 22.517540324195767 ], [ 88.397171763841456, 22.517510192525254 ], [ 88.397203887486171, 22.517494925139502 ], [ 88.397195515162082, 22.517349414926375 ], [ 88.397180591242687, 22.517240357843971 ], [ 88.397159629785818, 22.5172191317805 ], [ 88.397127184917636, 22.517202287974115 ], [ 88.397069489386467, 22.517196369572591 ], [ 88.396940737976664, 22.517231750016382 ], [ 88.396906287691763, 22.517244896753585 ], [ 88.396892627500407, 22.517262143621817 ], [ 88.396877689970111, 22.517382166427502 ], [ 88.396882707365549, 22.517422800292369 ], [ 88.396901577713919, 22.517465453998092 ], [ 88.396913125407863, 22.517467493989216 ], [ 88.396941923530903, 22.517580711685572 ] ] ] } },
{ "type": "Feature", "properties": { "ward": 107, "source_sheet": "107_vip bazar.pdf p1", "source": "KMC ward sewerage network map (ArcMap GeoPDF)", "extraction_method": "geopdf_raster_polygonised", "georef_max_residual_m": 0.1 }, "geometry": { "type": "Polygon", "coordinates": [ [ [ 88.395022622384175, 22.517464739964623 ], [ 88.395075579144276, 22.517457854864666 ], [ 88.395171993563451, 22.517416335405041 ], [ 88.395210926252375, 22.517390304293261 ], [ 88.395219976160959, 22.517373097810164 ], [ 88.395217136170373, 22.517319599259274 ], [ 88.395181787350296, 22.517242834256557 ], [ 88.39510494402704, 22.5171664314956 ], [ 88.395005882325691, 22.517173719074638 ], [ 88.394951090888398, 22.517227720711642 ], [ 88.394944538673798, 22.51726417378492 ], [ 88.394961595026047, 22.51735608506165 ], [ 88.394999377333576, 22.517445674476512 ], [ 88.395022622384175, 22.517464739964623 ] ] ] } },
{ "type": "Feature", "properties": { "ward": 107, "source_sheet": "107_vip bazar.pdf p1", "source": "KMC ward sewerage network map (ArcMap GeoPDF)", "extraction_method": "geopdf_raster_polygonised", "georef_max_residual_m": 0.1 }, "geometry": { "type": "Polygon", "coordinates": [ [ [ 88.395815728067063, 22.517928819884794 ], [ 88.396246812469201, 22.517925053943308 ], [ 88.39626747421984, 22.517916309681748 ], [ 88.396285423982249, 22.517866911386388 ], [ 88.396292133884572, 22.517385142815019 ], [ 88.396290057516282, 22.517177490439785 ], [ 88.396285168739894, 22.517149701023072 ], [ 88.396273514051984, 22.517136957254063 ], [ 88.396241176325148, 22.517130816993575 ], [ 88.395722430644568, 22.51712892565741 ], [ 88.395706443662633, 22.517144051819002 ], [ 88.395698014331316, 22.517223339980497 ], [ 88.395699260954459, 22.517578724057316 ], [ 88.395708616024365, 22.517822708763827 ], [ 88.395743943897031, 22.517897332876757 ], [ 88.395769494386968, 22.517916378112343 ], [ 88.395815728067063, 22.517928819884794 ] ] ] } },
{ "type": "Feature", "properties": { "ward": 107, "source_sheet": "107_vip bazar.pdf p1", "source": "KMC ward sewerage network map (ArcMap GeoPDF)", "extraction_method": "geopdf_raster_polygonised", "georef_max_residual_m": 0.1 }, "geometry": { "type": "Polygon", "coordinates": [ [ [ 88.389706845140992, 22.517294821961805 ], [ 88.389734486954993, 22.517292440635426 ], [ 88.389812567503498, 22.517261788453951 ], [ 88.389890456250754, 22.517211869468291 ], [ 88.389908642627887, 22.517186020041724 ], [ 88.389933957849152, 22.517181517980795 ], [ 88.389890801253586, 22.517014900232208 ], [ 88.389879296284889, 22.517017141234138 ], [ 88.389837524711496, 22.516989672349606 ], [ 88.389802818056481, 22.516977128572176 ], [ 88.389749797200892, 22.516977589685066 ], [ 88.389715324902653, 22.516988594162537 ], [ 88.389635130952257, 22.517038533108078 ], [ 88.389596410259657, 22.517085970443052 ], [ 88.389601425522997, 22.517126604644623 ], [ 88.389662746949099, 22.517265232330757 ], [ 88.389674443678018, 22.51728225811274 ], [ 88.389706845140992, 22.517294821961805 ] ] ] } },
{ "type": "Feature", "properties": { "ward": 107, "source_sheet": "107_vip bazar.pdf p1", "source": "KMC ward sewerage network map (ArcMap GeoPDF)", "extraction_method": "geopdf_raster_polygonised", "georef_max_residual_m": 0.1 }, "geometry": { "type": "Polygon", "coordinates": [ [ [ 88.397228294659854, 22.517169289995195 ], [ 88.397329725676528, 22.517168403133386 ], [ 88.397407461498858, 22.517103495432742 ], [ 88.397407311538885, 22.517088510216588 ], [ 88.397282520004126, 22.516828407601114 ], [ 88.397268645694851, 22.516824247044088 ], [ 88.397048413048537, 22.516933219098831 ], [ 88.396929346395822, 22.516784394634488 ], [ 88.396878909406709, 22.516812667634635 ], [ 88.396865206422731, 22.51682563300799 ], [ 88.396845144462844, 22.516894318218036 ], [ 88.396843610120328, 22.516971405213585 ], [ 88.396932987010871, 22.517148321392359 ], [ 88.396970063762254, 22.517167265682399 ], [ 88.397228294659854, 22.517169289995195 ] ] ] } },
{ "type": "Feature", "properties": { "ward": 107, "source_sheet": "107_vip bazar.pdf p1", "source": "KMC ward sewerage network map (ArcMap GeoPDF)", "extraction_method": "geopdf_raster_polygonised", "georef_max_residual_m": 0.1 }, "geometry": { "type": "Polygon", "coordinates": [ [ [ 88.386016981105968, 22.517181284619092 ], [ 88.386203601039909, 22.517168961160127 ], [ 88.386214978592378, 22.51715387588526 ], [ 88.386217591568212, 22.516952604884789 ], [ 88.386207860532764, 22.516901306744163 ], [ 88.386177318452681, 22.516843766308053 ], [ 88.3861402006183, 22.516820537941346 ], [ 88.386057147673341, 22.516814835516552 ], [ 88.385983528221061, 22.516830460629542 ], [ 88.385979151421679, 22.516854048929549 ], [ 88.386000716790704, 22.517168580048217 ], [ 88.386016981105968, 22.517181284619092 ] ] ] } },
{ "type": "Feature", "properties": { "ward": 107, "source_sheet": "107_vip bazar.pdf p1", "source": "KMC ward sewerage network map (ArcMap GeoPDF)", "extraction_method": "geopdf_raster_polygonised", "georef_max_residual_m": 0.1 }, "geometry": { "type": "Polygon", "coordinates": [ [ [ 88.396552956784888, 22.51626315566379 ], [ 88.396615198157974, 22.51626261174227 ], [ 88.396656563943225, 22.516249404638124 ], [ 88.396677161189899, 22.516234238097955 ], [ 88.396692826798017, 22.516187000658125 ], [ 88.396692141651002, 22.516118496783921 ], [ 88.396678138965086, 22.516101491694581 ], [ 88.39661329269866, 22.516072085336102 ], [ 88.396587699636697, 22.516048758726519 ], [ 88.396547483078223, 22.515946345369063 ], [ 88.39651967045242, 22.515931601876122 ], [ 88.396475892477625, 22.51593412535329 ], [ 88.396443704874784, 22.515942970343307 ], [ 88.396416213355124, 22.515960338027501 ], [ 88.396391134090067, 22.515988389297036 ], [ 88.396366418711779, 22.516052833251859 ], [ 88.396367296348373, 22.516140603853508 ], [ 88.396383754079253, 22.516172574053712 ], [ 88.396423371204264, 22.516215046555967 ], [ 88.396552956784888, 22.51626315566379 ] ] ] } },
{ "type": "Feature", "properties": { "ward": 107, "source_sheet": "107_vip bazar.pdf p1", "source": "KMC ward sewerage network map (ArcMap GeoPDF)", "extraction_method": "geopdf_raster_polygonised", "georef_max_residual_m": 0.1 }, "geometry": { "type": "Polygon", "coordinates": [ [ [ 88.388609383041668, 22.514506155705771 ], [ 88.388662402980373, 22.514505695015806 ], [ 88.388666906982223, 22.514494951185846 ], [ 88.388666545129041, 22.514458558370652 ], [ 88.388632760908308, 22.514306845266777 ], [ 88.388565952343313, 22.514311707624689 ], [ 88.388560916247002, 22.514268932602679 ], [ 88.388425249306124, 22.514304366305876 ], [ 88.388418525204713, 22.514323693173107 ], [ 88.388431753806472, 22.514494853364415 ], [ 88.388609383041668, 22.514506155705771 ] ] ] } },
{ "type": "Feature", "properties": { "ward": 107, "source_sheet": "107_vip bazar.pdf p1", "source": "KMC ward sewerage network map (ArcMap GeoPDF)", "extraction_method": "geopdf_raster_polygonised", "georef_max_residual_m": 0.1 }, "geometry": { "type": "Polygon", "coordinates": [ [ [ 88.398301604797112, 22.518217522563155 ], [ 88.398472044447232, 22.518201044576777 ], [ 88.398478874484084, 22.518192421079373 ], [ 88.398477009168701, 22.518006176358536 ], [ 88.398560610686317, 22.517376010834525 ], [ 88.398573231138755, 22.517024787585349 ], [ 88.398570829792874, 22.516785024240697 ], [ 88.398539339404977, 22.516633293661162 ], [ 88.398521101659938, 22.516423641934303 ], [ 88.398484850892316, 22.516256966465708 ], [ 88.398226109453034, 22.515743265761753 ], [ 88.398216631343359, 22.515717657497294 ], [ 88.398220577343665, 22.515651254072296 ], [ 88.398213533068429, 22.515638470107739 ], [ 88.397526306813575, 22.514696047802566 ], [ 88.397046650708631, 22.513991592379991 ], [ 88.397023427420152, 22.513974667907164 ], [ 88.396774615926077, 22.513991829098654 ], [ 88.396758607996148, 22.514004814599772 ], [ 88.396761063061973, 22.514019779679938 ], [ 88.397219585472044, 22.514685883971016 ], [ 88.397590912539584, 22.515162206233803 ], [ 88.397880723631829, 22.515555744158746 ], [ 88.398103127510154, 22.515894206943123 ], [ 88.398302630214289, 22.51624785626317 ], [ 88.398361783073042, 22.516399344866361 ], [ 88.398407126072826, 22.51655309521297 ], [ 88.398439902598483, 22.516833270486483 ], [ 88.398430658984566, 22.517291510786634 ], [ 88.398367911450663, 22.517932198449049 ], [ 88.398323606997337, 22.518112424388793 ], [ 88.398289864087033, 22.51819621597949 ], [ 88.398301604797112, 22.518217522563155 ] ] ] } },
{ "type": "Feature", "properties": { "ward": 107, "source_sheet": "107_vip bazar.pdf p1", "source": "KMC ward sewerage network map (ArcMap GeoPDF)", "extraction_method": "geopdf_raster_polygonised", "georef_max_residual_m": 0.1 }, "geometry": { "type": "Polygon", "coordinates": [ [ [ 88.396692071451341, 22.513806289230626 ], [ 88.396830233285201, 22.513790095261758 ], [ 88.396406529083151, 22.513147235666271 ], [ 88.396316990715874, 22.513184413807014 ], [ 88.396392361878952, 22.513344325380771 ], [ 88.396551726155337, 22.513604126904358 ], [ 88.396692071451341, 22.513806289230626 ] ] ] } },
{ "type": "Feature", "properties": { "ward": 107, "source_sheet": "107_vip bazar.pdf p1", "source": "KMC ward sewerage network map (ArcMap GeoPDF)", "extraction_method": "geopdf_raster_polygonised", "georef_max_residual_m": 0.1 }, "geometry": { "type": "Polygon", "coordinates": [ [ [ 88.386702442522221, 22.512844216339982 ], [ 88.38678542932702, 22.512843496284837 ], [ 88.386861351770108, 22.512827850905346 ], [ 88.386860862884092, 22.512778613519178 ], [ 88.386999152890951, 22.512775272514943 ], [ 88.38702131191809, 22.512685160718668 ], [ 88.387019377427393, 22.512490351937839 ], [ 88.387003463077093, 22.51228067788999 ], [ 88.386978689457791, 22.512107476702152 ], [ 88.386602988142812, 22.512115018474081 ], [ 88.38657820496806, 22.512173038881599 ], [ 88.386541683374688, 22.512209751713339 ], [ 88.386525844625652, 22.512239862288592 ], [ 88.386512417299741, 22.512280656646702 ], [ 88.386510707119712, 22.51234061782279 ], [ 88.386540218090019, 22.512526623646195 ], [ 88.386590688353238, 22.512733857026227 ], [ 88.386612030096188, 22.512793618204075 ], [ 88.38664464277376, 22.512827590304269 ], [ 88.386656274981931, 22.512838194083869 ], [ 88.386702442522221, 22.512844216339982 ] ] ] } },
{ "type": "Feature", "properties": { "ward": 107, "source_sheet": "107_vip bazar.pdf p1", "source": "KMC ward sewerage network map (ArcMap GeoPDF)", "extraction_method": "geopdf_raster_polygonised", "georef_max_residual_m": 0.1 }, "geometry": { "type": "Polygon", "coordinates": [ [ [ 88.385959153810305, 22.511818730164698 ], [ 88.386034226132338, 22.511717454918575 ], [ 88.386036382608921, 22.511702449629407 ], [ 88.386027055716184, 22.511691825806089 ], [ 88.385906358479929, 22.511609375731087 ], [ 88.385447450657225, 22.511362864177173 ], [ 88.38531114864692, 22.511334072434583 ], [ 88.385165732167678, 22.511316064273839 ], [ 88.384900532027501, 22.511307657697536 ], [ 88.384605492060189, 22.511312354840989 ], [ 88.384462423258483, 22.511298607586465 ], [ 88.384432456104989, 22.511298867162363 ], [ 88.384421015143687, 22.511307530031907 ], [ 88.384407820646615, 22.511371872589425 ], [ 88.384414927098106, 22.511391079515338 ], [ 88.384447432828892, 22.511414348317587 ], [ 88.384788894716664, 22.511441363384783 ], [ 88.385111724304693, 22.511449270717417 ], [ 88.385521097882005, 22.511582742748956 ], [ 88.385959153810305, 22.511818730164698 ] ] ] } },
{ "type": "Feature", "properties": { "ward": 107, "source_sheet": "107_vip bazar.pdf p1", "source": "KMC ward sewerage network map (ArcMap GeoPDF)", "extraction_method": "geopdf_raster_polygonised", "georef_max_residual_m": 0.1 }, "geometry": { "type": "Polygon", "coordinates": [ [ [ 88.386317730356282, 22.51194407680412 ], [ 88.386356918322761, 22.511943736889759 ], [ 88.386738812139086, 22.511863349999402 ], [ 88.386798427821063, 22.511830718628101 ], [ 88.386961563628347, 22.511775779538429 ], [ 88.387236865987205, 22.511640651986305 ], [ 88.387355948046263, 22.511560403583115 ], [ 88.387671466517787, 22.511296469819641 ], [ 88.387671168782774, 22.511266499241405 ], [ 88.387640457357847, 22.511191832966894 ], [ 88.387612752897041, 22.511187791609022 ], [ 88.38730579610295, 22.511385281788218 ], [ 88.386899971261016, 22.511609320642954 ], [ 88.386764518904002, 22.511666160411259 ], [ 88.38651412664187, 22.511756111325035 ], [ 88.386396902869578, 22.511791383252152 ], [ 88.386237909737247, 22.511799185146383 ], [ 88.386177762815976, 22.511778297396024 ], [ 88.386071172596516, 22.511723557338161 ], [ 88.385962138697252, 22.511887214398907 ], [ 88.385966918974617, 22.511904300475546 ], [ 88.385978508569764, 22.51191062279787 ], [ 88.386317730356282, 22.51194407680412 ] ] ] } },
{ "type": "Feature", "properties": { "ward": 107, "source_sheet": "107_vip bazar.pdf p1", "source": "KMC ward sewerage network map (ArcMap GeoPDF)", "extraction_method": "geopdf_raster_polygonised", "georef_max_residual_m": 0.1 }, "geometry": { "type": "Polygon", "coordinates": [ [ [ 88.396265805815233, 22.513137760413827 ], [ 88.396380529968127, 22.513083234790397 ], [ 88.395977362724949, 22.512418785065659 ], [ 88.395851278844958, 22.512259316128709 ], [ 88.395764511466083, 22.512112349357725 ], [ 88.395712557066588, 22.511988628823232 ], [ 88.395690013735361, 22.511808987142892 ], [ 88.395688751682314, 22.511682683001652 ], [ 88.39571371835855, 22.511412707184874 ], [ 88.395840427318404, 22.51094273594595 ], [ 88.396023143509112, 22.510540785399204 ], [ 88.395937617937889, 22.510517982045069 ], [ 88.395816092326328, 22.510814492349407 ], [ 88.395705450277163, 22.511046679486814 ], [ 88.395638734146033, 22.511291328633348 ], [ 88.3955825169338, 22.511433121203066 ], [ 88.395563353272408, 22.511591717720165 ], [ 88.395561224043064, 22.511840084774335 ], [ 88.3955713430381, 22.511929915692086 ], [ 88.39564242311863, 22.512121979195296 ], [ 88.39566355466674, 22.512160331504717 ], [ 88.395801955645581, 22.512398907624839 ], [ 88.395951369503067, 22.512586004985184 ], [ 88.396111053003636, 22.512877918267144 ], [ 88.396265805815233, 22.513137760413827 ] ] ] } },
{ "type": "Feature", "properties": { "ward": 107, "source_sheet": "107_vip bazar.pdf p1", "source": "KMC ward sewerage network map (ArcMap GeoPDF)", "extraction_method": "geopdf_raster_polygonised", "georef_max_residual_m": 0.1 }, "geometry": { "type": "Polygon", "coordinates": [ [ [ 88.393837722186547, 22.511007313082604 ], [ 88.393886087645299, 22.511002609443306 ], [ 88.39417361192919, 22.51093801466633 ], [ 88.394189705246433, 22.51093359242212 ], [ 88.394221720939541, 22.51090762193127 ], [ 88.394345921213855, 22.510878706363638 ], [ 88.394302075404312, 22.510412364768918 ], [ 88.39429042149122, 22.510399620808119 ], [ 88.394234991269897, 22.510389399629283 ], [ 88.393898889257386, 22.510437290608117 ], [ 88.393896564690664, 22.510666391073944 ], [ 88.393885615730881, 22.510724291836198 ], [ 88.393842330609587, 22.510776051770353 ], [ 88.393791980486711, 22.510812886745541 ], [ 88.393783058938666, 22.510842937650096 ], [ 88.393783400705772, 22.510877189652227 ], [ 88.39380271769457, 22.510964799600146 ], [ 88.393821543402879, 22.511003172292362 ], [ 88.393837722186547, 22.511007313082604 ] ] ] } },
{ "type": "Feature", "properties": { "ward": 107, "source_sheet": "107_vip bazar.pdf p1", "source": "KMC ward sewerage network map (ArcMap GeoPDF)", "extraction_method": "geopdf_raster_polygonised", "georef_max_residual_m": 0.1 }, "geometry": { "type": "Polygon", "coordinates": [ [ [ 88.391219172432272, 22.511272052223831 ], [ 88.391507231929893, 22.511260980923961 ], [ 88.391764961695955, 22.51121377726875 ], [ 88.39192137105637, 22.511178160266372 ], [ 88.392098078698012, 22.5110974066429 ], [ 88.392372968805532, 22.510921596339312 ], [ 88.392787276936758, 22.510624678334601 ], [ 88.393146537439648, 22.51035607129867 ], [ 88.393389003292455, 22.510165555400775 ], [ 88.3933889178779, 22.510156992398056 ], [ 88.393279316630085, 22.510031632501022 ], [ 88.393270010679487, 22.510023149868339 ], [ 88.393251569592621, 22.510023310607892 ], [ 88.393110252359165, 22.510185112589042 ], [ 88.392961592431249, 22.510304159704621 ], [ 88.392860891986544, 22.510377829100044 ], [ 88.392691335934003, 22.510482071508825 ], [ 88.39229538383556, 22.510770265621488 ], [ 88.392009160147381, 22.510965442928086 ], [ 88.391947305004805, 22.51100451848167 ], [ 88.39187386006229, 22.511037272125243 ], [ 88.391708315539219, 22.511081532367221 ], [ 88.391547231929181, 22.511110767041718 ], [ 88.391402156391294, 22.511127016578282 ], [ 88.391171576818181, 22.51112260083292 ], [ 88.39094998337761, 22.511094556236468 ], [ 88.390906057516858, 22.511082092859464 ], [ 88.390656951495245, 22.511069273836803 ], [ 88.390308404188502, 22.511025205353658 ], [ 88.390010826098532, 22.511006384126826 ], [ 88.389724603449096, 22.510970336102606 ], [ 88.38927975106121, 22.510978485224243 ], [ 88.388943113170569, 22.510972847150029 ], [ 88.388613497139161, 22.510977852064542 ], [ 88.388290626306556, 22.510965670198303 ], [ 88.38812725802687, 22.510997062257999 ], [ 88.38800775147557, 22.511034496083521 ], [ 88.387867455889335, 22.511067828459044 ], [ 88.387722762584772, 22.511122608299651 ], [ 88.387674651967771, 22.51115299916734 ], [ 88.387710250198907, 22.511255455229556 ], [ 88.387726492669088, 22.511266018908202 ], [ 88.388160870492683, 22.511131649555423 ], [ 88.388257538249164, 22.511115823384539 ], [ 88.388354354920168, 22.511114982441796 ], [ 88.388684205421214, 22.511133526342878 ], [ 88.389129101014149, 22.51112966034885 ], [ 88.389528063716455, 22.511143319963544 ], [ 88.389959106933361, 22.511137431160861 ], [ 88.390046937254823, 22.511160217672415 ], [ 88.390152974513995, 22.511159295457105 ], [ 88.390261466071109, 22.511173338394411 ], [ 88.390339841437338, 22.511172656658974 ], [ 88.390646704462355, 22.511197819291944 ], [ 88.390764629855767, 22.511233189189717 ], [ 88.39090545767705, 22.511253373133219 ], [ 88.391219172432272, 22.511272052223831 ] ] ] } },
{ "type": "Feature", "properties": { "ward": 107, "source_sheet": "107_vip bazar.pdf p1", "source": "KMC ward sewerage network map (ArcMap GeoPDF)", "extraction_method": "geopdf_raster_polygonised", "georef_max_residual_m": 0.1 }, "geometry": { "type": "Polygon", "coordinates": [ [ [ 88.396022843985065, 22.510510814924746 ], [ 88.396029759408705, 22.510510754527456 ], [ 88.396031936181785, 22.510497889905924 ], [ 88.396068406398101, 22.510225672630241 ], [ 88.396073519133097, 22.509814568432539 ], [ 88.396435531453378, 22.509822110960091 ], [ 88.396638233007053, 22.509805353479376 ], [ 88.396983210198854, 22.509723124361511 ], [ 88.397236024743947, 22.509645982005853 ], [ 88.397456759989879, 22.509588388123511 ], [ 88.397444441996427, 22.509509281239783 ], [ 88.397370849366283, 22.509527052060903 ], [ 88.397356954382587, 22.50952075072373 ], [ 88.397347755302519, 22.509522972073263 ], [ 88.397345535834489, 22.509531555212689 ], [ 88.397258112433093, 22.509549446885899 ], [ 88.397244217451643, 22.509543145538871 ], [ 88.397198307676391, 22.50956281523947 ], [ 88.397163752222042, 22.509565258209264 ], [ 88.397145396869973, 22.509573982381148 ], [ 88.397133807015038, 22.50956766087679 ], [ 88.397117799606079, 22.509580646392962 ], [ 88.397053427388471, 22.509598336483478 ], [ 88.397021155637148, 22.509598618529338 ], [ 88.397005148213594, 22.509611604034983 ], [ 88.396949996467669, 22.50962921350246 ], [ 88.396910852145155, 22.509633837456366 ], [ 88.396906348929718, 22.509644581483023 ], [ 88.396867290227391, 22.509657768417149 ], [ 88.396819032417099, 22.509673176662361 ], [ 88.396809747693553, 22.509666834991339 ], [ 88.396795959745916, 22.509671237343742 ], [ 88.396791456520347, 22.50968198136766 ], [ 88.396708728807695, 22.509708395456194 ], [ 88.39669026638569, 22.509706415839545 ], [ 88.396685763150813, 22.509717159860926 ], [ 88.396649009532098, 22.509730326602842 ], [ 88.396589097614424, 22.509732990997442 ], [ 88.39658901200464, 22.509724428005963 ], [ 88.396575181238845, 22.509724548844314 ], [ 88.396575245445533, 22.509730971087958 ], [ 88.396471514694298, 22.509731877338034 ], [ 88.396471429091747, 22.509723314346132 ], [ 88.396459903453106, 22.509723415036412 ], [ 88.396459967654465, 22.509729837280378 ], [ 88.396450768543403, 22.509732058580035 ], [ 88.396356258297814, 22.509732884204254 ], [ 88.396356172702369, 22.509724321211923 ], [ 88.396344647063074, 22.509724421893978 ], [ 88.396344732657795, 22.509732984886345 ], [ 88.396243307022942, 22.509733870853179 ], [ 88.396243242831574, 22.509727448608626 ], [ 88.39622941206342, 22.509727569417304 ], [ 88.396229497651078, 22.509736132410097 ], [ 88.396132703660911, 22.509739118786225 ], [ 88.396132639474629, 22.509732696541366 ], [ 88.396114198448856, 22.509732857606714 ], [ 88.396114284029423, 22.509741420599923 ], [ 88.395996722478912, 22.509742447342308 ], [ 88.395980565186207, 22.509740447512623 ], [ 88.39597819587857, 22.509734045398453 ], [ 88.395978281450766, 22.509742608392159 ], [ 88.395883771178902, 22.509743433739509 ], [ 88.395865308758417, 22.509741454027903 ], [ 88.395862939455967, 22.509735051911779 ], [ 88.395863025021072, 22.509743614905901 ], [ 88.395747768584854, 22.509744621337216 ], [ 88.395745377898194, 22.50973607847045 ], [ 88.395745442066598, 22.50974250071636 ], [ 88.395729327554463, 22.509744782358577 ], [ 88.395634817271045, 22.509745607559928 ], [ 88.395632426591206, 22.50973706469113 ], [ 88.395632490754394, 22.509743486937356 ], [ 88.395616376239616, 22.509745768568358 ], [ 88.395514907791977, 22.50974237257935 ], [ 88.395422809553168, 22.509753881276332 ], [ 88.395291459945923, 22.509759309740936 ], [ 88.395286785539682, 22.509752927736283 ], [ 88.395286849686954, 22.509759349983444 ], [ 88.395270735162654, 22.509761631580229 ], [ 88.395176267610708, 22.50976673801139 ], [ 88.395171571828627, 22.509758215253981 ], [ 88.395171635970613, 22.509764637501444 ], [ 88.395155521443129, 22.509766919086822 ], [ 88.395035676071544, 22.509770105997475 ], [ 88.39495956402817, 22.509766488362697 ], [ 88.3949433853643, 22.509762347678954 ], [ 88.394943321232887, 22.509755925430852 ], [ 88.394941080234418, 22.509762367795233 ], [ 88.3949226391953, 22.509762528724362 ], [ 88.394830348495631, 22.509754770340447 ], [ 88.394830284369448, 22.509748348092035 ], [ 88.394825738235909, 22.509754810569749 ], [ 88.394731163787554, 22.509749212992581 ], [ 88.394714985131188, 22.509745072285423 ], [ 88.394714921010362, 22.509738650036681 ], [ 88.394712680001376, 22.509745092398425 ], [ 88.394691933832917, 22.509745273413994 ], [ 88.394578832866998, 22.509731273648413 ], [ 88.394389705378245, 22.50972221889527 ], [ 88.394371221603535, 22.509718098261203 ], [ 88.394371157498682, 22.509711676011502 ], [ 88.394368916473823, 22.509718118369261 ], [ 88.394348170306344, 22.509718299340356 ], [ 88.394269731793742, 22.50971256073483 ], [ 88.394253553152737, 22.50970841998037 ], [ 88.394253489053355, 22.509701997730339 ], [ 88.394251248023082, 22.50970844008674 ], [ 88.394126728288356, 22.509705244281594 ], [ 88.394046134199172, 22.509714510922159 ], [ 88.394029998289341, 22.509714651645321 ], [ 88.394027629070365, 22.509708249497852 ], [ 88.394027693159344, 22.509714671748497 ], [ 88.393940247749512, 22.509730420896854 ], [ 88.393827616759182, 22.509763517107309 ], [ 88.393823070576886, 22.509769979559088 ], [ 88.393804608168338, 22.50976799960986 ], [ 88.3938046722472, 22.509774421861064 ], [ 88.393788600406893, 22.509780984811641 ], [ 88.393650676953897, 22.509820724249629 ], [ 88.393563466339188, 22.509860021455175 ], [ 88.393531514811855, 22.509892414064257 ], [ 88.393513052389125, 22.509890434082237 ], [ 88.393496831035179, 22.50988201175042 ], [ 88.393494440482044, 22.50987346884348 ], [ 88.393489894280421, 22.509879931286719 ], [ 88.393469084017298, 22.509873689893773 ], [ 88.393416172722368, 22.509884855830599 ], [ 88.39331329580493, 22.509971390084452 ], [ 88.393432224350178, 22.510107373333827 ], [ 88.393453077356682, 22.510117896230941 ], [ 88.393500801869166, 22.510048970203783 ], [ 88.393550980961962, 22.509995009321802 ], [ 88.393656248302634, 22.509917017826922 ], [ 88.393709031436018, 22.509893007308865 ], [ 88.393810179619166, 22.509864293177145 ], [ 88.393975828730476, 22.509830734625787 ], [ 88.394074885310957, 22.509823447936693 ], [ 88.394242882158068, 22.509794150512224 ], [ 88.39459356125947, 22.509821064468071 ], [ 88.394794171788263, 22.509825736904446 ], [ 88.394946481451612, 22.509841535288651 ], [ 88.39515624837874, 22.509839704558267 ], [ 88.395301321944245, 22.509823451726458 ], [ 88.395575482751127, 22.50980607179558 ], [ 88.395856687197792, 22.509801475504357 ], [ 88.395882150581713, 22.509811957821352 ], [ 88.395912438150489, 22.509843807358333 ], [ 88.395929151658009, 22.509901466653577 ], [ 88.395941966177929, 22.510261031857251 ], [ 88.395925792727951, 22.510488112224699 ], [ 88.396022843985065, 22.510510814924746 ] ] ] } },
{ "type": "Feature", "properties": { "ward": 107, "source_sheet": "107_vip bazar.pdf p1", "source": "KMC ward sewerage network map (ArcMap GeoPDF)", "extraction_method": "geopdf_raster_polygonised", "georef_max_residual_m": 0.1 }, "geometry": { "type": "Polygon", "coordinates": [ [ [ 88.397537225177416, 22.509566275308426 ], [ 88.398079648923968, 22.509403102974495 ], [ 88.3990707330166, 22.509152506304115 ], [ 88.399896145570423, 22.50893332764797 ], [ 88.401163276878279, 22.508624636482793 ], [ 88.401170170721088, 22.508622435125602 ], [ 88.401170020418576, 22.508607449917825 ], [ 88.401160134380774, 22.508541167671712 ], [ 88.401125493415037, 22.508535048499585 ], [ 88.401116294472189, 22.508537270058326 ], [ 88.401114096722964, 22.50854799398212 ], [ 88.401093350789978, 22.508548175813104 ], [ 88.401031306216126, 22.508567987987028 ], [ 88.401010517340879, 22.508563888319248 ], [ 88.401003709374692, 22.508574652646132 ], [ 88.40091633009159, 22.508596827741709 ], [ 88.400909350374363, 22.508590466111318 ], [ 88.40089554121451, 22.508592728059135 ], [ 88.400888733237849, 22.508603492381638 ], [ 88.40085878834229, 22.508605895728479 ], [ 88.400803659020113, 22.508625647217389 ], [ 88.400789763990772, 22.508619346179142 ], [ 88.400776062154193, 22.508632311838564 ], [ 88.400693271538969, 22.508652305674477 ], [ 88.40068398672274, 22.508645964231626 ], [ 88.400665674661411, 22.508658970277249 ], [ 88.400592104436683, 22.508678883273287 ], [ 88.400578295261354, 22.508681145194569 ], [ 88.400571315554274, 22.508674783549033 ], [ 88.400555308584515, 22.508687769386828 ], [ 88.400534562625737, 22.508687951146904 ], [ 88.400472517898294, 22.50870776311238 ], [ 88.400465538194354, 22.508701401462098 ], [ 88.400451729014122, 22.508703663372742 ], [ 88.40044492099706, 22.508714427678363 ], [ 88.400424175033294, 22.50871460942443 ], [ 88.400362130275937, 22.508734421348709 ], [ 88.400348235253205, 22.508728120271968 ], [ 88.40033451190402, 22.508738945151585 ], [ 88.400251721149289, 22.508758938766647 ], [ 88.400226343503704, 22.508757020125568 ], [ 88.400221819117078, 22.508765623486827 ], [ 88.400139049783149, 22.508787757790369 ], [ 88.400125176219788, 22.508783597439056 ], [ 88.400111474302591, 22.508796563045642 ], [ 88.400037925366419, 22.508818616540804 ], [ 88.400024116165525, 22.508820878415683 ], [ 88.400017136475, 22.508814516745296 ], [ 88.400001129434898, 22.508827502531222 ], [ 88.399927580462176, 22.508849555977609 ], [ 88.399913771255882, 22.508851817843265 ], [ 88.399909096678257, 22.50884543598135 ], [ 88.399881606978411, 22.508862804178847 ], [ 88.399808036514045, 22.508882716827312 ], [ 88.399794162949277, 22.508878556447492 ], [ 88.399780460990684, 22.508891522027813 ], [ 88.399755126223511, 22.508893884803754 ], [ 88.399706911943738, 22.508913575376727 ], [ 88.399693102726431, 22.508915837223945 ], [ 88.399686123045186, 22.508909475538747 ], [ 88.399670115961811, 22.508922461293743 ], [ 88.399589672990899, 22.508946715885699 ], [ 88.399580388200818, 22.508940374377868 ], [ 88.399566578978181, 22.508942636214471 ], [ 88.399559770879748, 22.50895340048643 ], [ 88.399477001310245, 22.508975534460177 ], [ 88.399470021635182, 22.508969172765305 ], [ 88.399456212407358, 22.508971434592659 ], [ 88.399449404298821, 22.508982198860437 ], [ 88.399366634691532, 22.509004332779121 ], [ 88.399359655019694, 22.5089979710793 ], [ 88.399345845786698, 22.509000232897431 ], [ 88.399343626450118, 22.509008816058238 ], [ 88.399299957962398, 22.509022043919966 ], [ 88.399253962909427, 22.509033151202033 ], [ 88.399244678127516, 22.509026809674417 ], [ 88.399226365873773, 22.509039815565135 ], [ 88.399189591263465, 22.509050842121123 ], [ 88.399143596190427, 22.509061949372555 ], [ 88.399134311411174, 22.509055607838445 ], [ 88.399115999142722, 22.509068613717282 ], [ 88.399090664325996, 22.509070976390831 ], [ 88.399079224514693, 22.509079640248846 ], [ 88.39903322942159, 22.509090747469646 ], [ 88.399023944644995, 22.50908440592903 ], [ 88.399005632361849, 22.509097411795992 ], [ 88.398980297536994, 22.509099774452537 ], [ 88.398966552601024, 22.509108458476497 ], [ 88.398920557487614, 22.509119565666005 ], [ 88.398897484897205, 22.509117626645256 ], [ 88.398892981852967, 22.509128370719491 ], [ 88.398810212054542, 22.509150504360665 ], [ 88.398798622167391, 22.509144182977888 ], [ 88.398782614970145, 22.509157168649878 ], [ 88.398702150250429, 22.509179282066402 ], [ 88.398683666450111, 22.509175161930003 ], [ 88.398674553154137, 22.509185946337631 ], [ 88.398589478163458, 22.509208100037892 ], [ 88.398575604595919, 22.509203939553021 ], [ 88.398561902487273, 22.509216905036531 ], [ 88.398479132574195, 22.509239038512614 ], [ 88.398467542693069, 22.509232717105693 ], [ 88.398451535453262, 22.509245702746711 ], [ 88.398426200586968, 22.509248065317863 ], [ 88.398414760717543, 22.509256729131323 ], [ 88.398368765502383, 22.509267836167734 ], [ 88.398361785859748, 22.509261474423202 ], [ 88.398350281697788, 22.5092637159932 ], [ 88.398345778606284, 22.509274460054332 ], [ 88.398267618856266, 22.509296553095734 ], [ 88.398237630883315, 22.509294674471793 ], [ 88.398230822662995, 22.509305438693222 ], [ 88.398148052635278, 22.509327572004203 ], [ 88.398141072999024, 22.509321210249794 ], [ 88.398129568827684, 22.509323451804441 ], [ 88.398125044291419, 22.509332055113717 ], [ 88.398088226652746, 22.509338799932916 ], [ 88.398083680688373, 22.509345262494577 ], [ 88.398037685412291, 22.509356369439111 ], [ 88.398028400659285, 22.509350027839879 ], [ 88.398010088242771, 22.509363033599691 ], [ 88.397938822319972, 22.509382925259981 ], [ 88.397911139449789, 22.509381026417103 ], [ 88.397902026078725, 22.509391810784461 ], [ 88.397867492109754, 22.509396394649357 ], [ 88.397862946133017, 22.509402857205352 ], [ 88.397816950816804, 22.509413964088601 ], [ 88.397793878183364, 22.50941202491147 ], [ 88.397796247566703, 22.509418426995193 ], [ 88.397780175978482, 22.509424990332871 ], [ 88.397757124763501, 22.509425191897407 ], [ 88.397752578780583, 22.509431654450584 ], [ 88.397706583444304, 22.509442761303198 ], [ 88.397688099631281, 22.50943864105291 ], [ 88.39767898623866, 22.509449425408629 ], [ 88.397596216021952, 22.50947155844435 ], [ 88.397575427085201, 22.509467458335173 ], [ 88.397566313681708, 22.509478242685024 ], [ 88.397524907141218, 22.509487168432859 ], [ 88.397537225177416, 22.509566275308426 ] ] ] } }
]
}
