{
"type": "FeatureCollection",
"name": "ward106_p2_water_bodies",
"crs": { "type": "name", "properties": { "name": "urn:ogc:def:crs:OGC:1.3:CRS84" } },
"features": [
{ "type": "Feature", "properties": { "ward": 106, "source_sheet": "106_garfa2.pdf p2", "source": "KMC ward sewerage network map (ArcMap GeoPDF)", "extraction_method": "geopdf_raster_polygonised", "georef_max_residual_m": 2.5 }, "geometry": { "type": "Polygon", "coordinates": [ [ [ 88.388150038206476, 22.509562173065149 ], [ 88.388159270939667, 22.50956209032497 ], [ 88.388193604128887, 22.509536036503967 ], [ 88.388232698453152, 22.509522813074188 ], [ 88.388244094581552, 22.50950983787304 ], [ 88.388240555737468, 22.509400448512633 ], [ 88.388261063922684, 22.509376664090677 ], [ 88.38826077435273, 22.509350920550208 ], [ 88.388216581116509, 22.509321279454408 ], [ 88.388178516163379, 22.509220781550308 ], [ 88.388152764274622, 22.509188829656694 ], [ 88.388118262259979, 22.509199866399648 ], [ 88.388084122158745, 22.509243082564058 ], [ 88.388054212353623, 22.509251932631301 ], [ 88.388006126638501, 22.509286691699089 ], [ 88.38799489939062, 22.509314683951047 ], [ 88.388000480821191, 22.509400454397202 ], [ 88.38799136873169, 22.509411263604125 ], [ 88.387968286921989, 22.509411470428262 ], [ 88.387963767065216, 22.509420092973901 ], [ 88.387973241054326, 22.509441463197756 ], [ 88.388017337773533, 22.509462523179657 ], [ 88.388045325486175, 22.509488018523868 ], [ 88.388073602746417, 22.509539257404654 ], [ 88.388092188852426, 22.509549818408416 ], [ 88.388117578866996, 22.509549590880884 ], [ 88.388150038206476, 22.509562173065149 ] ] ] } },
{ "type": "Feature", "properties": { "ward": 106, "source_sheet": "106_garfa2.pdf p2", "source": "KMC ward sewerage network map (ArcMap GeoPDF)", "extraction_method": "geopdf_raster_polygonised", "georef_max_residual_m": 2.5 }, "geometry": { "type": "Polygon", "coordinates": [ [ [ 88.388803317203184, 22.509356784808705 ], [ 88.388863112601896, 22.509336939098812 ], [ 88.388883379263532, 22.509291701658455 ], [ 88.388882848176394, 22.509244505179748 ], [ 88.388865580495903, 22.509145966497435 ], [ 88.388841557297809, 22.509062506956457 ], [ 88.388822971207247, 22.509051946038163 ], [ 88.388781424071723, 22.509052318528322 ], [ 88.388726148578101, 22.509063541638632 ], [ 88.388677821735527, 22.509076847948894 ], [ 88.38865490894436, 22.509092071931832 ], [ 88.38865745848598, 22.509113504187404 ], [ 88.388692829370868, 22.509179697941139 ], [ 88.388700429748397, 22.509239704114496 ], [ 88.388733661476806, 22.509320935610571 ], [ 88.388752344151868, 22.50934007771572 ], [ 88.388803317203184, 22.509356784808705 ] ] ] } },
{ "type": "Feature", "properties": { "ward": 106, "source_sheet": "106_garfa2.pdf p2", "source": "KMC ward sewerage network map (ArcMap GeoPDF)", "extraction_method": "geopdf_raster_polygonised", "georef_max_residual_m": 2.5 }, "geometry": { "type": "Polygon", "coordinates": [ [ [ 88.388271301751885, 22.509260714725986 ], [ 88.388305924424316, 22.509260404425305 ], [ 88.388436814838869, 22.509199156957354 ], [ 88.38847112375305, 22.509170957788278 ], [ 88.388565638310538, 22.509159383027093 ], [ 88.388576841294991, 22.509129245446434 ], [ 88.388576406857311, 22.509090630139792 ], [ 88.388536178356532, 22.509003024787251 ], [ 88.388542282296001, 22.508930022690937 ], [ 88.388509750674061, 22.508911004694358 ], [ 88.388435720232977, 22.508896649679286 ], [ 88.388366499204466, 22.508899415614959 ], [ 88.38829283074287, 22.508917239959931 ], [ 88.388251283638184, 22.508917612311325 ], [ 88.388197954376167, 22.508896635125875 ], [ 88.38811493255912, 22.508903815654278 ], [ 88.388110509238459, 22.508921019384459 ], [ 88.38816641208976, 22.50896557416193 ], [ 88.388185215286214, 22.508995442816119 ], [ 88.388180912618225, 22.509023373023769 ], [ 88.388149153138826, 22.509073004400356 ], [ 88.388145212393695, 22.509133114035453 ], [ 88.388163822577638, 22.509145820329127 ], [ 88.388213162957172, 22.509222616565186 ], [ 88.388245815269812, 22.50925236109477 ], [ 88.388271301751885, 22.509260714725986 ] ] ] } },
{ "type": "Feature", "properties": { "ward": 106, "source_sheet": "106_garfa2.pdf p2", "source": "KMC ward sewerage network map (ArcMap GeoPDF)", "extraction_method": "geopdf_raster_polygonised", "georef_max_residual_m": 2.5 }, "geometry": { "type": "Polygon", "coordinates": [ [ [ 88.393732686134157, 22.509233130924503 ], [ 88.394039115974536, 22.509181027263946 ], [ 88.394045943608504, 22.509172383797836 ], [ 88.394037832330511, 22.50906732690844 ], [ 88.393959393666208, 22.508662531712456 ], [ 88.393933478596153, 22.508411740457859 ], [ 88.393919460125559, 22.508396848028379 ], [ 88.393522795819919, 22.508430453472918 ], [ 88.393509116340155, 22.508445595071255 ], [ 88.393619763091593, 22.509045342062155 ], [ 88.393642401060873, 22.509210342531876 ], [ 88.393661035934898, 22.509225193454096 ], [ 88.39371412389626, 22.509224715881043 ], [ 88.393732686134157, 22.509233130924503 ] ] ] } },
{ "type": "Feature", "properties": { "ward": 106, "source_sheet": "106_garfa2.pdf p2", "source": "KMC ward sewerage network map (ArcMap GeoPDF)", "extraction_method": "geopdf_raster_polygonised", "georef_max_residual_m": 2.5 }, "geometry": { "type": "Polygon", "coordinates": [ [ [ 88.388373085872075, 22.508869319421354 ], [ 88.388504506843844, 22.508855268405007 ], [ 88.388541244506271, 22.508837775009965 ], [ 88.388561583616308, 22.508798973490524 ], [ 88.388560883706504, 22.508736759937861 ], [ 88.388538758657972, 22.508616809630148 ], [ 88.388538275972266, 22.508573903730419 ], [ 88.388521443055396, 22.508513980297181 ], [ 88.388481649174977, 22.508464990226088 ], [ 88.388432888124271, 22.508439681142413 ], [ 88.388377395651531, 22.508431596466426 ], [ 88.388294325864848, 22.50843448648277 ], [ 88.388223400126989, 22.508490905414295 ], [ 88.388202964443963, 22.508521125713678 ], [ 88.388203326379696, 22.508553305143376 ], [ 88.388221984746565, 22.508570302025433 ], [ 88.388277549659975, 22.508584822638216 ], [ 88.388289476581875, 22.508619043931308 ], [ 88.388289886800223, 22.508655513949822 ], [ 88.388283107078351, 22.508668447779577 ], [ 88.388262430083614, 22.508677215134377 ], [ 88.388188641077065, 22.508684312950507 ], [ 88.38817743803709, 22.508714450508204 ], [ 88.388193884770757, 22.508740049258012 ], [ 88.388221824101606, 22.508761253988983 ], [ 88.388268059890748, 22.508767276161187 ], [ 88.388349183680816, 22.508796586262317 ], [ 88.388363274021245, 22.508817915089494 ], [ 88.388361496750434, 22.508865132268767 ], [ 88.388373085872075, 22.508869319421354 ] ] ] } },
{ "type": "Feature", "properties": { "ward": 106, "source_sheet": "106_garfa2.pdf p2", "source": "KMC ward sewerage network map (ArcMap GeoPDF)", "extraction_method": "geopdf_raster_polygonised", "georef_max_residual_m": 2.5 }, "geometry": { "type": "Polygon", "coordinates": [ [ [ 88.398924318453723, 22.508420397326102 ], [ 88.399050878162328, 22.508384926599909 ], [ 88.399000609091772, 22.508226613123767 ], [ 88.398981998118686, 22.508213908125306 ], [ 88.39894275956496, 22.508214262384552 ], [ 88.398866809244396, 22.508234257606109 ], [ 88.398855560007789, 22.508260105218362 ], [ 88.398924318453723, 22.508420397326102 ] ] ] } },
{ "type": "Feature", "properties": { "ward": 106, "source_sheet": "106_garfa2.pdf p2", "source": "KMC ward sewerage network map (ArcMap GeoPDF)", "extraction_method": "geopdf_raster_polygonised", "georef_max_residual_m": 2.5 }, "geometry": { "type": "Polygon", "coordinates": [ [ [ 88.3863576490009, 22.508235134826446 ], [ 88.38641071264918, 22.508232514382343 ], [ 88.386477408352718, 22.508210462289028 ], [ 88.386498013098574, 22.508195259269847 ], [ 88.386504431433721, 22.508150146052476 ], [ 88.386485098466281, 22.508073080640418 ], [ 88.386440496280215, 22.508006968962608 ], [ 88.386405560582674, 22.507979389984005 ], [ 88.386382382593567, 22.507971015380349 ], [ 88.386299288880934, 22.507971759058492 ], [ 88.386269355113029, 22.507978463490186 ], [ 88.38624413405293, 22.50799370779292 ], [ 88.38622379438354, 22.508032509050036 ], [ 88.386243103102629, 22.508107429204191 ], [ 88.386318169232368, 22.508214033039401 ], [ 88.3863576490009, 22.508235134826446 ] ] ] } },
{ "type": "Feature", "properties": { "ward": 106, "source_sheet": "106_garfa2.pdf p2", "source": "KMC ward sewerage network map (ArcMap GeoPDF)", "extraction_method": "geopdf_raster_polygonised", "georef_max_residual_m": 2.5 }, "geometry": { "type": "Polygon", "coordinates": [ [ [ 88.387801257375173, 22.507490588397708 ], [ 88.387863432668311, 22.507477158297434 ], [ 88.387920846909509, 22.507450897758506 ], [ 88.387939143230724, 22.507435715247045 ], [ 88.38797068532962, 22.507366776254646 ], [ 88.387962554686993, 22.507259573503067 ], [ 88.387915233868043, 22.507157012898947 ], [ 88.387912395017153, 22.507109837067457 ], [ 88.387886354135574, 22.507052141548339 ], [ 88.387874138000242, 22.506992176654798 ], [ 88.387884520828408, 22.506889099050309 ], [ 88.387834892070245, 22.506786559087576 ], [ 88.387809502557062, 22.506786786545163 ], [ 88.387565394658409, 22.506838320020666 ], [ 88.387563207106524, 22.50684906717678 ], [ 88.38761914026334, 22.507101736619383 ], [ 88.387608274862302, 22.507161908290307 ], [ 88.387606810862465, 22.50723701433337 ], [ 88.387620900920709, 22.507258343243237 ], [ 88.387633189334849, 22.507324744046908 ], [ 88.387636462243208, 22.507410535217279 ], [ 88.387696739413272, 22.507433595891623 ], [ 88.387752689756141, 22.507482441449636 ], [ 88.387801257375173, 22.507490588397708 ] ] ] } },
{ "type": "Feature", "properties": { "ward": 106, "source_sheet": "106_garfa2.pdf p2", "source": "KMC ward sewerage network map (ArcMap GeoPDF)", "extraction_method": "geopdf_raster_polygonised", "georef_max_residual_m": 2.5 }, "geometry": { "type": "Polygon", "coordinates": [ [ [ 88.396017402941411, 22.509588024633842 ], [ 88.396047263721414, 22.509574882534107 ], [ 88.39605392148458, 22.509551221974483 ], [ 88.396044188194807, 22.509098607845317 ], [ 88.396050603433693, 22.509053494406956 ], [ 88.396077307145632, 22.508965288029401 ], [ 88.396231036718987, 22.508678550412096 ], [ 88.396283134068938, 22.508386292062578 ], [ 88.396298814221836, 22.507935594403314 ], [ 88.396328707002354, 22.507516951241634 ], [ 88.396343287516785, 22.507377361916149 ], [ 88.396435988765347, 22.50679723969392 ], [ 88.396425689074007, 22.50670293022139 ], [ 88.396406981516591, 22.506681643747971 ], [ 88.396202018932911, 22.506724255373751 ], [ 88.396176847773063, 22.5067437917448 ], [ 88.396177328421004, 22.506990520700903 ], [ 88.396158074296196, 22.507533507402126 ], [ 88.396128423506056, 22.507973603438423 ], [ 88.396089394480839, 22.508400910918844 ], [ 88.395983893770676, 22.508665758810164 ], [ 88.395895228788689, 22.508990529142217 ], [ 88.395847965036111, 22.509302053399743 ], [ 88.395757553651748, 22.50947236293219 ], [ 88.395772639288154, 22.509581647856177 ], [ 88.396017402941411, 22.509588024633842 ] ] ] } },
{ "type": "Feature", "properties": { "ward": 106, "source_sheet": "106_garfa2.pdf p2", "source": "KMC ward sewerage network map (ArcMap GeoPDF)", "extraction_method": "geopdf_raster_polygonised", "georef_max_residual_m": 2.5 }, "geometry": { "type": "Polygon", "coordinates": [ [ [ 88.38935354942933, 22.506764364534156 ], [ 88.389385839183205, 22.506761929437836 ], [ 88.389505379287144, 22.506717947083505 ], [ 88.38953973568357, 22.506694038309298 ], [ 88.389539325173359, 22.50665756830162 ], [ 88.389511048036226, 22.506606329658176 ], [ 88.389462553098312, 22.506604619098425 ], [ 88.389354336440249, 22.506629190265965 ], [ 88.389317623602693, 22.506648829111334 ], [ 88.389306445094434, 22.506681112029124 ], [ 88.389318492795923, 22.506726059723118 ], [ 88.389325610356508, 22.506743159982928 ], [ 88.38935354942933, 22.506764364534156 ] ] ] } },
{ "type": "Feature", "properties": { "ward": 106, "source_sheet": "106_garfa2.pdf p2", "source": "KMC ward sewerage network map (ArcMap GeoPDF)", "extraction_method": "geopdf_raster_polygonised", "georef_max_residual_m": 2.5 }, "geometry": { "type": "Polygon", "coordinates": [ [ [ 88.390938174554933, 22.506245950539245 ], [ 88.391000348924408, 22.506232519269034 ], [ 88.391023164305935, 22.506208713810626 ], [ 88.39106444467474, 22.506184742559054 ], [ 88.391064106285882, 22.506154708453042 ], [ 88.391050040009105, 22.506135525155997 ], [ 88.390989811270515, 22.506116756319827 ], [ 88.390966560853798, 22.506101946492297 ], [ 88.390906525484368, 22.506100339971152 ], [ 88.390885873215197, 22.506111252931383 ], [ 88.390870248039008, 22.506158594436101 ], [ 88.390910259533626, 22.506226891562022 ], [ 88.390938174554933, 22.506245950539245 ] ] ] } },
{ "type": "Feature", "properties": { "ward": 106, "source_sheet": "106_garfa2.pdf p2", "source": "KMC ward sewerage network map (ArcMap GeoPDF)", "extraction_method": "geopdf_raster_polygonised", "georef_max_residual_m": 2.5 }, "geometry": { "type": "Polygon", "coordinates": [ [ [ 88.387826505412448, 22.506245965123298 ], [ 88.387904547587496, 22.506206646734981 ], [ 88.387968958060114, 22.506186760054192 ], [ 88.388001006486988, 22.506162872279599 ], [ 88.388010070130534, 22.506147772486418 ], [ 88.388007303658412, 22.506107032539891 ], [ 88.387981431811241, 22.506064354094931 ], [ 88.387914182588091, 22.506037064939431 ], [ 88.387877228465953, 22.506035250497391 ], [ 88.387790170953039, 22.506093959243874 ], [ 88.387765312198979, 22.506141383208107 ], [ 88.387800802433105, 22.506218303722669 ], [ 88.387826505412448, 22.506245965123298 ] ] ] } },
{ "type": "Feature", "properties": { "ward": 106, "source_sheet": "106_garfa2.pdf p2", "source": "KMC ward sewerage network map (ArcMap GeoPDF)", "extraction_method": "geopdf_raster_polygonised", "georef_max_residual_m": 2.5 }, "geometry": { "type": "Polygon", "coordinates": [ [ [ 88.389433242179962, 22.506051340062431 ], [ 88.389463199497115, 22.506046780364425 ], [ 88.3895158275553, 22.506005543635471 ], [ 88.389515392917431, 22.505966928329517 ], [ 88.389452325103576, 22.505900983118693 ], [ 88.389392289805542, 22.505899376027642 ], [ 88.389353293182907, 22.505921180867521 ], [ 88.389348918378687, 22.505942675215255 ], [ 88.389382101288263, 22.506019616040614 ], [ 88.389433242179962, 22.506051340062431 ] ] ] } },
{ "type": "Feature", "properties": { "ward": 106, "source_sheet": "106_garfa2.pdf p2", "source": "KMC ward sewerage network map (ArcMap GeoPDF)", "extraction_method": "geopdf_raster_polygonised", "georef_max_residual_m": 2.5 }, "geometry": { "type": "Polygon", "coordinates": [ [ [ 88.393325711949331, 22.505898380385304 ], [ 88.393408707347319, 22.505889051980613 ], [ 88.393449987177192, 22.505865080142144 ], [ 88.393444862596724, 22.505820070543447 ], [ 88.393421515164334, 22.505796679915864 ], [ 88.393400209586588, 22.505749670324001 ], [ 88.393374554059378, 22.505726300445406 ], [ 88.393291534550073, 22.505733483536552 ], [ 88.393245638498016, 22.505757496843856 ], [ 88.39324124010173, 22.505776845975699 ], [ 88.393258340869238, 22.505860367053721 ], [ 88.393325711949331, 22.505898380385304 ] ] ] } },
{ "type": "Feature", "properties": { "ward": 106, "source_sheet": "106_garfa2.pdf p2", "source": "KMC ward sewerage network map (ArcMap GeoPDF)", "extraction_method": "geopdf_raster_polygonised", "georef_max_residual_m": 2.5 }, "geometry": { "type": "Polygon", "coordinates": [ [ [ 88.39068104266623, 22.505960760426131 ], [ 88.390814744515808, 22.505944541658014 ], [ 88.390833064479864, 22.505931504134502 ], [ 88.390833801760976, 22.505792039331268 ], [ 88.390807542477603, 22.505715036681462 ], [ 88.390788835884038, 22.505693749502459 ], [ 88.390749622068526, 22.505696247023806 ], [ 88.390676293948346, 22.505744106477561 ], [ 88.390660354601764, 22.50576355914659 ], [ 88.390653768542691, 22.505793655412564 ], [ 88.39068104266623, 22.505960760426131 ] ] ] } },
{ "type": "Feature", "properties": { "ward": 106, "source_sheet": "106_garfa2.pdf p2", "source": "KMC ward sewerage network map (ArcMap GeoPDF)", "extraction_method": "geopdf_raster_polygonised", "georef_max_residual_m": 2.5 }, "geometry": { "type": "Polygon", "coordinates": [ [ [ 88.385089317772824, 22.505676155772868 ], [ 88.385289811308397, 22.505646471267969 ], [ 88.385317316110473, 22.505629061186731 ], [ 88.385324095983862, 22.505616127470685 ], [ 88.38532318088879, 22.505534606117202 ], [ 88.385300842551004, 22.505395347462223 ], [ 88.385153387925499, 22.505420266686631 ], [ 88.385086211740344, 22.505399412201303 ], [ 88.385023916650681, 22.505402114703706 ], [ 88.385003215823474, 22.50540873633015 ], [ 88.384886344438641, 22.505484874217355 ], [ 88.384828930351389, 22.505511133668406 ], [ 88.384899666574327, 22.505643523181629 ], [ 88.384920535968675, 22.505651918660586 ], [ 88.385015120798073, 22.505646781981589 ], [ 88.385089317772824, 22.505676155772868 ] ] ] } },
{ "type": "Feature", "properties": { "ward": 106, "source_sheet": "106_garfa2.pdf p2", "source": "KMC ward sewerage network map (ArcMap GeoPDF)", "extraction_method": "geopdf_raster_polygonised", "georef_max_residual_m": 2.5 }, "geometry": { "type": "Polygon", "coordinates": [ [ [ 88.384826477789801, 22.505498282506878 ], [ 88.38487929970961, 22.505474209625579 ], [ 88.38493200123402, 22.505439410231936 ], [ 88.384931543804498, 22.505398649547502 ], [ 88.384900767887771, 22.505330268229613 ], [ 88.384842222399726, 22.505255698616178 ], [ 88.38482363711195, 22.505245137190418 ], [ 88.384761318007804, 22.505245694288668 ], [ 88.384699648832196, 22.505304174447566 ], [ 88.384697894361324, 22.505353536966229 ], [ 88.38470962751957, 22.505370596201015 ], [ 88.384714652975319, 22.505407025026205 ], [ 88.384726434284602, 22.505428374858059 ], [ 88.384789042348231, 22.50545356136087 ], [ 88.384807868396223, 22.505485575781901 ], [ 88.384826477789801, 22.505498282506878 ] ] ] } },
{ "type": "Feature", "properties": { "ward": 106, "source_sheet": "106_garfa2.pdf p2", "source": "KMC ward sewerage network map (ArcMap GeoPDF)", "extraction_method": "geopdf_raster_polygonised", "georef_max_residual_m": 2.5 }, "geometry": { "type": "Polygon", "coordinates": [ [ [ 88.39365160125358, 22.504503014182589 ], [ 88.393817759796363, 22.504499374116705 ], [ 88.393845360073399, 22.504490543806384 ], [ 88.393861298820283, 22.504471090849037 ], [ 88.39386001559123, 22.504357390418075 ], [ 88.393850637956206, 22.504344601720483 ], [ 88.393822771384677, 22.504329833827132 ], [ 88.393762761021478, 22.504330373624772 ], [ 88.393686836110561, 22.504352511633691 ], [ 88.393615357900927, 22.504359591050399 ], [ 88.393594802946268, 22.504379085502134 ], [ 88.393590695123905, 22.504424178138883 ], [ 88.393612121575657, 22.504481914176903 ], [ 88.393633112293827, 22.504501034966754 ], [ 88.39365160125358, 22.504503014182589 ] ] ] } },
{ "type": "Feature", "properties": { "ward": 106, "source_sheet": "106_garfa2.pdf p2", "source": "KMC ward sewerage network map (ArcMap GeoPDF)", "extraction_method": "geopdf_raster_polygonised", "georef_max_residual_m": 2.5 }, "geometry": { "type": "Polygon", "coordinates": [ [ [ 88.38808218714351, 22.504555156105482 ], [ 88.388123636453841, 22.504546202677492 ], [ 88.388152893912249, 22.504479429639893 ], [ 88.388189220383936, 22.504425466332872 ], [ 88.38824653682903, 22.504390624549309 ], [ 88.388243963354356, 22.504367046971094 ], [ 88.38822997002255, 22.504354299283971 ], [ 88.388211432874087, 22.504348028847833 ], [ 88.388174527450531, 22.504350505044094 ], [ 88.388110214340145, 22.504378972953145 ], [ 88.388056050243875, 22.50448887938936 ], [ 88.388054007491135, 22.50451249833057 ], [ 88.388070574273954, 22.504548823614687 ], [ 88.38808218714351, 22.504555156105482 ] ] ] } },
{ "type": "Feature", "properties": { "ward": 106, "source_sheet": "106_garfa2.pdf p2", "source": "KMC ward sewerage network map (ArcMap GeoPDF)", "extraction_method": "geopdf_raster_polygonised", "georef_max_residual_m": 2.5 }, "geometry": { "type": "Polygon", "coordinates": [ [ [ 88.388005609764136, 22.504519368480064 ], [ 88.388021621730829, 22.50450635194904 ], [ 88.38802104280569, 22.504454864831466 ], [ 88.387983100135273, 22.504365093231044 ], [ 88.387955185881935, 22.504346033697665 ], [ 88.387909096302877, 22.504352883137759 ], [ 88.387883972550767, 22.504376708848646 ], [ 88.387879573432073, 22.504396057872761 ], [ 88.387932949126778, 22.504421325857901 ], [ 88.38797735777878, 22.504470274800187 ], [ 88.388005609764136, 22.504519368480064 ] ] ] } },
{ "type": "Feature", "properties": { "ward": 106, "source_sheet": "106_garfa2.pdf p2", "source": "KMC ward sewerage network map (ArcMap GeoPDF)", "extraction_method": "geopdf_raster_polygonised", "georef_max_residual_m": 2.5 }, "geometry": { "type": "Polygon", "coordinates": [ [ [ 88.388773820700877, 22.504478155907833 ], [ 88.388852296041989, 22.504477452440014 ], [ 88.388875304618949, 22.504470809643124 ], [ 88.388905044403515, 22.504446942402563 ], [ 88.388906121593678, 22.504337511626915 ], [ 88.388891380019473, 22.504258259830188 ], [ 88.388872625645888, 22.504232681808425 ], [ 88.388831031682727, 22.50422876364712 ], [ 88.388708919880841, 22.50424916784943 ], [ 88.388679180100809, 22.504273035053892 ], [ 88.38866800160045, 22.504305317934421 ], [ 88.388704529485508, 22.504474485991132 ], [ 88.388773820700877, 22.504478155907833 ] ] ] } },
{ "type": "Feature", "properties": { "ward": 106, "source_sheet": "106_garfa2.pdf p2", "source": "KMC ward sewerage network map (ArcMap GeoPDF)", "extraction_method": "geopdf_raster_polygonised", "georef_max_residual_m": 2.5 }, "geometry": { "type": "Polygon", "coordinates": [ [ [ 88.396182802152225, 22.50665791781687 ], [ 88.396360091384324, 22.506617701112273 ], [ 88.396373818877095, 22.50660684986968 ], [ 88.396373624853169, 22.506589687563913 ], [ 88.396088909972761, 22.506111659525335 ], [ 88.395726254681691, 22.505681534103221 ], [ 88.395516003823104, 22.50546029500806 ], [ 88.395392365323744, 22.50534555104646 ], [ 88.395342828723372, 22.505251594789375 ], [ 88.395257046957752, 22.505014215855741 ], [ 88.395169617704212, 22.50463095714489 ], [ 88.395056581950016, 22.504228619310062 ], [ 88.394930812903482, 22.503925089361328 ], [ 88.394914462501418, 22.503908072479994 ], [ 88.394893713983564, 22.503910404763452 ], [ 88.394784694476684, 22.504068008214425 ], [ 88.394778133604888, 22.504100249896332 ], [ 88.394842050892805, 22.504241278109106 ], [ 88.39499296052125, 22.504726949977712 ], [ 88.395087846771517, 22.505157342835798 ], [ 88.395114132493546, 22.505236489967718 ], [ 88.395175500265935, 22.505356085869519 ], [ 88.395358125829716, 22.505584010737305 ], [ 88.395589295110469, 22.505817934679119 ], [ 88.395783268617151, 22.506028592731699 ], [ 88.395961595045449, 22.50628444713767 ], [ 88.396098157653455, 22.506521368047878 ], [ 88.396154959128154, 22.506645295655748 ], [ 88.396182802152225, 22.50665791781687 ] ] ] } },
{ "type": "Feature", "properties": { "ward": 106, "source_sheet": "106_garfa2.pdf p2", "source": "KMC ward sewerage network map (ArcMap GeoPDF)", "extraction_method": "geopdf_raster_polygonised", "georef_max_residual_m": 2.5 }, "geometry": { "type": "Polygon", "coordinates": [ [ [ 88.386275955821446, 22.504661440798486 ], [ 88.386335894231578, 22.504654467888138 ], [ 88.386418720890276, 22.504630126012643 ], [ 88.386518089817912, 22.504639964261344 ], [ 88.386557014279376, 22.504611724206779 ], [ 88.386695500437582, 22.50461048466606 ], [ 88.386725385260476, 22.50459948959455 ], [ 88.386750340543131, 22.504560646968976 ], [ 88.386756734594428, 22.504513388436653 ], [ 88.386813015025638, 22.504386299342354 ], [ 88.386811809871801, 22.504279034455983 ], [ 88.386804427626274, 22.504238335782688 ], [ 88.386790313919704, 22.504214861474086 ], [ 88.386772518294038, 22.504069125849121 ], [ 88.386771096270166, 22.503942553275856 ], [ 88.386779774286708, 22.503893128782504 ], [ 88.386762798191214, 22.503820333277385 ], [ 88.386743947852821, 22.503786173791891 ], [ 88.386718293764204, 22.503762802772403 ], [ 88.386671794590342, 22.503733181786053 ], [ 88.386590674121905, 22.503703870655066 ], [ 88.386521407394298, 22.503702345074384 ], [ 88.386454569238609, 22.503711525299188 ], [ 88.386383163087899, 22.503725037402894 ], [ 88.386330293914213, 22.503744820139325 ], [ 88.386286681174695, 22.503766665543985 ], [ 88.38621568456135, 22.503816647648605 ], [ 88.386193133708488, 22.503864050737153 ], [ 88.386180104321483, 22.503937114796258 ], [ 88.386192054363619, 22.503973481608412 ], [ 88.386222324595295, 22.503996811408296 ], [ 88.386248243685188, 22.504043780789804 ], [ 88.386256300395004, 22.504144547850725 ], [ 88.386214615021416, 22.504338017105514 ], [ 88.386200144891305, 22.504488332554114 ], [ 88.386212552781345, 22.504565460026029 ], [ 88.386238688836087, 22.504631737084363 ], [ 88.386252778403971, 22.504653066144545 ], [ 88.386275955821446, 22.504661440798486 ] ] ] } },
{ "type": "Feature", "properties": { "ward": 106, "source_sheet": "106_garfa2.pdf p2", "source": "KMC ward sewerage network map (ArcMap GeoPDF)", "extraction_method": "geopdf_raster_polygonised", "georef_max_residual_m": 2.5 }, "geometry": { "type": "Polygon", "coordinates": [ [ [ 88.397194704555318, 22.503670833594185 ], [ 88.39723622567017, 22.503668313727285 ], [ 88.397263752743143, 22.503653046985001 ], [ 88.397272329929805, 22.503595040961557 ], [ 88.397306465776012, 22.503551823034506 ], [ 88.397306174607252, 22.503526079576492 ], [ 88.397280518892316, 22.50350271032648 ], [ 88.397107534661956, 22.503514997479233 ], [ 88.397077626740767, 22.503523849137242 ], [ 88.397063996638053, 22.503543281579187 ], [ 88.397064214981157, 22.503562589174702 ], [ 88.397094996302329, 22.50363096789939 ], [ 88.397139116623691, 22.503654170709481 ], [ 88.397194704555318, 22.503670833594185 ] ] ] } },
{ "type": "Feature", "properties": { "ward": 106, "source_sheet": "106_garfa2.pdf p2", "source": "KMC ward sewerage network map (ArcMap GeoPDF)", "extraction_method": "geopdf_raster_polygonised", "georef_max_residual_m": 2.5 }, "geometry": { "type": "Polygon", "coordinates": [ [ [ 88.394692080360485, 22.504043095719872 ], [ 88.394717396623903, 22.504036431331521 ], [ 88.394824156557036, 22.503883139279552 ], [ 88.394826198151563, 22.503859520309344 ], [ 88.394816844693239, 22.503848876960475 ], [ 88.394534435147747, 22.503778471468586 ], [ 88.394110603380994, 22.503653554653702 ], [ 88.393454754303704, 22.503423447854324 ], [ 88.393320619653622, 22.503401053426597 ], [ 88.393029535886399, 22.503380069942054 ], [ 88.392533057607878, 22.50336307744071 ], [ 88.392161408953726, 22.503362125983379 ], [ 88.392105894199958, 22.50335189720289 ], [ 88.391107862482428, 22.502867393192467 ], [ 88.3908431477699, 22.502728165828326 ], [ 88.390812804613233, 22.502698401035378 ], [ 88.39072021616316, 22.502675631464644 ], [ 88.390655118442126, 22.502839274604018 ], [ 88.390655263406572, 22.502852146371346 ], [ 88.39066930511116, 22.502869184435479 ], [ 88.390785191850753, 22.502911054508754 ], [ 88.3917671388771, 22.503402141559945 ], [ 88.391931834529004, 22.503473609498563 ], [ 88.392080180317919, 22.503528060069808 ], [ 88.392154183961111, 22.503540268251044 ], [ 88.392726539186711, 22.503530833796756 ], [ 88.392890485354613, 22.503535796659648 ], [ 88.393320223576524, 22.503570552240813 ], [ 88.393410504890312, 22.503593341017801 ], [ 88.393702654301961, 22.503708716613573 ], [ 88.394059285190536, 22.50381063850373 ], [ 88.394692080360485, 22.504043095719872 ] ] ] } },
{ "type": "Feature", "properties": { "ward": 106, "source_sheet": "106_garfa2.pdf p2", "source": "KMC ward sewerage network map (ArcMap GeoPDF)", "extraction_method": "geopdf_raster_polygonised", "georef_max_residual_m": 2.5 }, "geometry": { "type": "Polygon", "coordinates": [ [ [ 88.390571979628191, 22.502835729742287 ], [ 88.390601912048922, 22.502829024572964 ], [ 88.390611047685312, 22.50282036053639 ], [ 88.390635784113556, 22.502762209719929 ], [ 88.390685063623721, 22.502628745720877 ], [ 88.39068484617512, 22.502609438069591 ], [ 88.390670852818232, 22.50259669059427 ], [ 88.390495125800101, 22.502570376027386 ], [ 88.390206279510977, 22.502542930730012 ], [ 88.390028220404403, 22.502514491058911 ], [ 88.389660924231791, 22.502489894052225 ], [ 88.389619427360145, 22.502494557250952 ], [ 88.38962421250055, 22.502509532919873 ], [ 88.389686868285807, 22.502539008139866 ], [ 88.390365667671063, 22.502758197253364 ], [ 88.390571979628191, 22.502835729742287 ] ] ] } },
{ "type": "Feature", "properties": { "ward": 106, "source_sheet": "106_garfa2.pdf p2", "source": "KMC ward sewerage network map (ArcMap GeoPDF)", "extraction_method": "geopdf_raster_polygonised", "georef_max_residual_m": 2.5 }, "geometry": { "type": "Polygon", "coordinates": [ [ [ 88.390671314864875, 22.501817865754735 ], [ 88.390698914851029, 22.501809035997685 ], [ 88.390717137662222, 22.50178741732875 ], [ 88.390732472558554, 22.50171433229881 ], [ 88.390732085987466, 22.501680007582191 ], [ 88.390722636343, 22.501660782790196 ], [ 88.390660246523169, 22.501654906204752 ], [ 88.390526862791774, 22.501699013480088 ], [ 88.390520325159414, 22.501733400337017 ], [ 88.390539079460865, 22.501758978176294 ], [ 88.390573965973914, 22.501782265726426 ], [ 88.390671314864875, 22.501817865754735 ] ] ] } },
{ "type": "Feature", "properties": { "ward": 106, "source_sheet": "106_garfa2.pdf p2", "source": "KMC ward sewerage network map (ArcMap GeoPDF)", "extraction_method": "geopdf_raster_polygonised", "georef_max_residual_m": 2.5 }, "geometry": { "type": "Polygon", "coordinates": [ [ [ 88.389399143126738, 22.501790659169387 ], [ 88.389477544506363, 22.50178351958559 ], [ 88.389498147990182, 22.501768316235378 ], [ 88.389506583520102, 22.501697438678661 ], [ 88.38953637090853, 22.501677861940802 ], [ 88.389545434116357, 22.501662762076236 ], [ 88.3895382685415, 22.501641371212074 ], [ 88.389514946617993, 22.501620125233515 ], [ 88.389461644194611, 22.501601293612428 ], [ 88.389385478546544, 22.501601976599282 ], [ 88.389351099189497, 22.501623739996916 ], [ 88.389321577311918, 22.501666914958598 ], [ 88.389261736947716, 22.501682470094856 ], [ 88.389236517345026, 22.501697714803662 ], [ 88.389243682877648, 22.5017191056833 ], [ 88.389278424349882, 22.501729521748864 ], [ 88.389319993428117, 22.501731294536818 ], [ 88.389366564846128, 22.501767350659058 ], [ 88.389378322368898, 22.50178655484342 ], [ 88.389399143126738, 22.501790659169387 ] ] ] } },
{ "type": "Feature", "properties": { "ward": 106, "source_sheet": "106_garfa2.pdf p2", "source": "KMC ward sewerage network map (ArcMap GeoPDF)", "extraction_method": "geopdf_raster_polygonised", "georef_max_residual_m": 2.5 }, "geometry": { "type": "Polygon", "coordinates": [ [ [ 88.384569987926099, 22.501359731011995 ], [ 88.384659953768519, 22.501354635938931 ], [ 88.384644565216561, 22.501217460471931 ], [ 88.384660168024539, 22.501167974163678 ], [ 88.384657523047011, 22.501137960583605 ], [ 88.38462927296645, 22.501088866202139 ], [ 88.384592127639451, 22.501069888531493 ], [ 88.384536758602025, 22.501072528868743 ], [ 88.384513822526898, 22.50108560693273 ], [ 88.38450478285408, 22.501102851841562 ], [ 88.384507620310501, 22.501150027831688 ], [ 88.384569987926099, 22.501359731011995 ] ] ] } },
{ "type": "Feature", "properties": { "ward": 106, "source_sheet": "106_garfa2.pdf p2", "source": "KMC ward sewerage network map (ArcMap GeoPDF)", "extraction_method": "geopdf_raster_polygonised", "georef_max_residual_m": 2.5 }, "geometry": { "type": "Polygon", "coordinates": [ [ [ 88.389624154415728, 22.502299273247925 ], [ 88.389649398222247, 22.502286173771793 ], [ 88.389644444076552, 22.50225618103342 ], [ 88.389490591120889, 22.502122393543974 ], [ 88.389190389548318, 22.501906243100805 ], [ 88.388964867094401, 22.501762370058618 ], [ 88.388869199241057, 22.501670970576203 ], [ 88.388829238424151, 22.501606963381917 ], [ 88.388713127773471, 22.501339814966716 ], [ 88.388630729586382, 22.501196804073238 ], [ 88.388569248710169, 22.501066478754872 ], [ 88.388512046275864, 22.500906077880462 ], [ 88.388485379210906, 22.500792604644225 ], [ 88.388471434486775, 22.500784147549837 ], [ 88.388446046076126, 22.500784375052582 ], [ 88.388270876447834, 22.50080739975364 ], [ 88.388264072942519, 22.500818188278274 ], [ 88.3882695332818, 22.500893232325215 ], [ 88.388407331791811, 22.501241716292288 ], [ 88.388530438302354, 22.501515238804632 ], [ 88.388587496283662, 22.501662767866275 ], [ 88.388618128286637, 22.501718276678766 ], [ 88.388932659609026, 22.501977210048654 ], [ 88.389151113396693, 22.502108273418894 ], [ 88.389307539621456, 22.502265638810393 ], [ 88.389349277840225, 22.502282428654048 ], [ 88.389624154415728, 22.502299273247925 ] ] ] } },
{ "type": "Feature", "properties": { "ward": 106, "source_sheet": "106_garfa2.pdf p2", "source": "KMC ward sewerage network map (ArcMap GeoPDF)", "extraction_method": "geopdf_raster_polygonised", "georef_max_residual_m": 2.5 }, "geometry": { "type": "Polygon", "coordinates": [ [ [ 88.388872019439347, 22.500690445873708 ], [ 88.388908948004897, 22.500690114862937 ], [ 88.388936523769075, 22.500679140115658 ], [ 88.388954601935239, 22.500644649856515 ], [ 88.389014152304171, 22.500603351293165 ], [ 88.389071539407325, 22.500574945179853 ], [ 88.389073388896776, 22.500534163853079 ], [ 88.389058744292399, 22.500463493206517 ], [ 88.389058856177954, 22.500268250516438 ], [ 88.389049430999634, 22.500251170903201 ], [ 88.389010025596875, 22.500236505552383 ], [ 88.388945497346498, 22.500245666032967 ], [ 88.388865005932004, 22.50027213367628 ], [ 88.388802761551517, 22.500279128116517 ], [ 88.388779753652429, 22.500285770871542 ], [ 88.388752274465148, 22.500305326777188 ], [ 88.388745664049281, 22.500333277695709 ], [ 88.388793175885183, 22.500453000601784 ], [ 88.388858002312205, 22.500675552922953 ], [ 88.388872019439347, 22.500690445873708 ] ] ] } },
{ "type": "Feature", "properties": { "ward": 106, "source_sheet": "106_garfa2.pdf p2", "source": "KMC ward sewerage network map (ArcMap GeoPDF)", "extraction_method": "geopdf_raster_polygonised", "georef_max_residual_m": 2.5 }, "geometry": { "type": "Polygon", "coordinates": [ [ [ 88.395948507782961, 22.500019681915195 ], [ 88.395969279938001, 22.500019494815469 ], [ 88.395985290619151, 22.500006477549547 ], [ 88.395991851070733, 22.499974235826567 ], [ 88.395959980425275, 22.49980931872393 ], [ 88.39592626238867, 22.49968518291529 ], [ 88.395900559163053, 22.499657522805837 ], [ 88.395868125816534, 22.499647087377923 ], [ 88.395828889626841, 22.499647440756327 ], [ 88.395778283034318, 22.499662915089807 ], [ 88.395753209974927, 22.499691032511951 ], [ 88.395752210706277, 22.499806898991686 ], [ 88.395736660505023, 22.499860676756501 ], [ 88.395735031094873, 22.4999207656791 ], [ 88.395742245974773, 22.499946446809343 ], [ 88.395753931473351, 22.499959214623903 ], [ 88.3958465672183, 22.499986271938862 ], [ 88.395883834822655, 22.500015973405262 ], [ 88.395948507782961, 22.500019681915195 ] ] ] } },
{ "type": "Feature", "properties": { "ward": 106, "source_sheet": "106_garfa2.pdf p2", "source": "KMC ward sewerage network map (ArcMap GeoPDF)", "extraction_method": "geopdf_raster_polygonised", "georef_max_residual_m": 2.5 }, "geometry": { "type": "Polygon", "coordinates": [ [ [ 88.391859519102155, 22.500129407635747 ], [ 88.391919479347465, 22.500124578050333 ], [ 88.392055314186678, 22.500093320742916 ], [ 88.392409709646415, 22.499997879840301 ], [ 88.392460220053735, 22.499973825366215 ], [ 88.392390554649069, 22.499732008582548 ], [ 88.392350665422256, 22.499674438182371 ], [ 88.392318159747276, 22.499657566144698 ], [ 88.392281255692097, 22.499660043216871 ], [ 88.392046660237384, 22.499735098104157 ], [ 88.391804922881477, 22.499790907200882 ], [ 88.391772828207777, 22.499810505054935 ], [ 88.391761408990902, 22.499821335169809 ], [ 88.391761699085578, 22.499847078701752 ], [ 88.39179531680233, 22.499962634389266 ], [ 88.391828257657181, 22.500018121827459 ], [ 88.391859519102155, 22.500129407635747 ] ] ] } },
{ "type": "Feature", "properties": { "ward": 106, "source_sheet": "106_garfa2.pdf p2", "source": "KMC ward sewerage network map (ArcMap GeoPDF)", "extraction_method": "geopdf_raster_polygonised", "georef_max_residual_m": 2.5 }, "geometry": { "type": "Polygon", "coordinates": [ [ [ 88.386997394634392, 22.500046419607486 ], [ 88.387105172892802, 22.499983234866971 ], [ 88.387046502427054, 22.499691970121305 ], [ 88.387022650979233, 22.499623527167959 ], [ 88.386997310966393, 22.499628045029382 ], [ 88.386958291535478, 22.499647703937082 ], [ 88.386781007747445, 22.499687910012366 ], [ 88.386806950230607, 22.499737024658266 ], [ 88.386816977558894, 22.499807736892926 ], [ 88.386831066680472, 22.499829065935067 ], [ 88.386890550620919, 22.499987301589812 ], [ 88.386934788712878, 22.500021233844315 ], [ 88.386997394634392, 22.500046419607486 ] ] ] } },
{ "type": "Feature", "properties": { "ward": 106, "source_sheet": "106_garfa2.pdf p2", "source": "KMC ward sewerage network map (ArcMap GeoPDF)", "extraction_method": "geopdf_raster_polygonised", "georef_max_residual_m": 2.5 }, "geometry": { "type": "Polygon", "coordinates": [ [ [ 88.400884274450732, 22.503952915330071 ], [ 88.400879123264517, 22.503905760791625 ], [ 88.40088604749495, 22.503905698203646 ], [ 88.400885950216292, 22.503897117064753 ], [ 88.400874312555047, 22.503888640238916 ], [ 88.400868991140555, 22.503826468706212 ], [ 88.400861969637191, 22.503817950154211 ], [ 88.400868602031778, 22.503792144150029 ], [ 88.400849991518285, 22.503779439339176 ], [ 88.400852202317012, 22.503770837337932 ], [ 88.40082907293359, 22.50376675538778 ], [ 88.400759320027277, 22.503722330243715 ], [ 88.400754557974878, 22.503709500255777 ], [ 88.400740733849958, 22.503711770704058 ], [ 88.400664008147075, 22.503663117526742 ], [ 88.400659246105661, 22.503650287535336 ], [ 88.400645421984535, 22.503652557975229 ], [ 88.400568696346227, 22.503603904748797 ], [ 88.400561601929567, 22.503588950326638 ], [ 88.400545445426388, 22.503589096330391 ], [ 88.400473384624746, 22.50354469190988 ], [ 88.400463982150484, 22.503529758339106 ], [ 88.400450133724519, 22.503529883476588 ], [ 88.400375740600921, 22.503483354579746 ], [ 88.400373310974132, 22.503472649008202 ], [ 88.40035251403188, 22.503470691416521 ], [ 88.400315293185059, 22.503445281663016 ], [ 88.400278023732071, 22.503415581329303 ], [ 88.400282566941144, 22.503409103765811 ], [ 88.400261745699538, 22.503405000876416 ], [ 88.40019192022325, 22.503354139609645 ], [ 88.400191774373098, 22.503341267896534 ], [ 88.400168645075667, 22.503337185846686 ], [ 88.400101127733905, 22.503286303684732 ], [ 88.400103314266602, 22.503275556405676 ], [ 88.400084776809621, 22.50326928735543 ], [ 88.400019421763844, 22.503205512590657 ], [ 88.400023940673506, 22.50319688974832 ], [ 88.400014611188041, 22.503188392004205 ], [ 88.400000762793383, 22.503188517101339 ], [ 88.399979698542381, 22.503162961315653 ], [ 88.399935577953499, 22.503139759298666 ], [ 88.399933124063622, 22.503126908432193 ], [ 88.399912327176239, 22.503124950780641 ], [ 88.39984026680942, 22.50308054605178 ], [ 88.399837812929647, 22.503067695183258 ], [ 88.399823988848325, 22.503069965550527 ], [ 88.399747263807953, 22.503021311898284 ], [ 88.399742501875025, 22.503008481873348 ], [ 88.399726345433564, 22.503008627791548 ], [ 88.399696121910353, 22.502989591203505 ], [ 88.399651879922871, 22.502955662672488 ], [ 88.399654066486974, 22.50294491539761 ], [ 88.399644761340156, 22.502938562915929 ], [ 88.39963557769083, 22.502942936864414 ], [ 88.39957036879224, 22.502892033613875 ], [ 88.399560917863923, 22.502872809409538 ], [ 88.399540096719363, 22.502868706421406 ], [ 88.399481884960849, 22.50282417646229 ], [ 88.399467769336525, 22.502800703362052 ], [ 88.399451612917289, 22.502800849251475 ], [ 88.399391068860325, 22.502754194811033 ], [ 88.399388590733906, 22.502739198646328 ], [ 88.399379285612639, 22.502732846147833 ], [ 88.399367793908354, 22.502737240921018 ], [ 88.399304941848399, 22.502690607284915 ], [ 88.399288518210099, 22.502667155005383 ], [ 88.39927469415646, 22.50266942532404 ], [ 88.399223431028759, 22.502626978032676 ], [ 88.399209534100407, 22.502622812485704 ], [ 88.399204747939635, 22.502607837154393 ], [ 88.399195442835293, 22.502601484644302 ], [ 88.39918161878613, 22.502603754954723 ], [ 88.399116458791141, 22.502557142075204 ], [ 88.399107129403305, 22.502548644272849 ], [ 88.399111672642903, 22.50254216674039 ], [ 88.39908621115606, 22.502535960075647 ], [ 88.399023383568476, 22.502491471605929 ], [ 88.399018597432772, 22.502476496267594 ], [ 88.398997776360147, 22.502472393205302 ], [ 88.398960556020484, 22.502446983109408 ], [ 88.39892797609032, 22.502423676624332 ], [ 88.398927854651021, 22.502412950189584 ], [ 88.398907033589992, 22.502408847114907 ], [ 88.398869813283383, 22.502383436996134 ], [ 88.398834901043315, 22.502358006035983 ], [ 88.398834779611548, 22.502347279600702 ], [ 88.398793016086117, 22.502328346987692 ], [ 88.39874415841993, 22.502294459845345 ], [ 88.398741704658661, 22.502281608953044 ], [ 88.3987232159581, 22.502279630309797 ], [ 88.398681258196021, 22.502243535368084 ], [ 88.398658056264182, 22.502233017227432 ], [ 88.398648629792362, 22.502215938246593 ], [ 88.398627808767301, 22.502211835133799 ], [ 88.398564981468425, 22.502167346468589 ], [ 88.398555555012635, 22.502150267481358 ], [ 88.398537066331045, 22.502148288815686 ], [ 88.39849744098639, 22.502114318280896 ], [ 88.39847423908904, 22.502103800111797 ], [ 88.398462480319509, 22.502084596657337 ], [ 88.398448632025463, 22.502084721615493 ], [ 88.398378832136657, 22.502036004774542 ], [ 88.398376378414795, 22.502023153874326 ], [ 88.398357889751551, 22.502021175187053 ], [ 88.398285757600661, 22.501970333839338 ], [ 88.398280971564375, 22.501955358473197 ], [ 88.398262482910908, 22.501953379774442 ], [ 88.398225262840157, 22.501927969493099 ], [ 88.398225190010692, 22.501921533629886 ], [ 88.398190326553106, 22.501900393092232 ], [ 88.398194869817559, 22.501893915584024 ], [ 88.398185564805601, 22.501887563010264 ], [ 88.398171740805154, 22.501889833231417 ], [ 88.398099608788399, 22.501838991792592 ], [ 88.398097155096622, 22.501826140886326 ], [ 88.398078666461828, 22.501824162165423 ], [ 88.398013531464159, 22.50177969408583 ], [ 88.398004202194926, 22.501771196212704 ], [ 88.398008745464494, 22.501764718709428 ], [ 88.397983284161029, 22.501758511859975 ], [ 88.397915816908707, 22.50171191926859 ], [ 88.397908698607679, 22.501694819418624 ], [ 88.397894874620292, 22.50169708961532 ], [ 88.397825075113985, 22.501648372512324 ], [ 88.397820289139631, 22.501633397128817 ], [ 88.397804132844527, 22.501633542846157 ], [ 88.397738998021012, 22.501589074645501 ], [ 88.397727336471291, 22.501578452282004 ], [ 88.397731879748449, 22.501571974786049 ], [ 88.397722574778498, 22.501565622183112 ], [ 88.39770875079985, 22.501567892363372 ], [ 88.397641283729016, 22.501521299646519 ], [ 88.397634165472184, 22.501504199781817 ], [ 88.397618009190765, 22.501504345479734 ], [ 88.397569103559618, 22.501466167371309 ], [ 88.397557539095757, 22.501464126148115 ], [ 88.397543448203436, 22.501442798140324 ], [ 88.397529624233044, 22.501445068304761 ], [ 88.397452925125393, 22.501398558752033 ], [ 88.397445831162273, 22.50138360416587 ], [ 88.397429674893559, 22.501383749844194 ], [ 88.397352975851575, 22.501337240240108 ], [ 88.397355186839562, 22.501328638275311 ], [ 88.397329749902212, 22.501324576605402 ], [ 88.397287914090057, 22.501299207707362 ], [ 88.397290173604418, 22.501294896320807 ], [ 88.39726002355691, 22.501282295102147 ], [ 88.397257569954846, 22.501269444177787 ], [ 88.397236773364156, 22.501267486164213 ], [ 88.397160074447697, 22.50122097646107 ], [ 88.397155312820445, 22.501208146341575 ], [ 88.397141488864875, 22.501210416471896 ], [ 88.397090299687136, 22.50117440430056 ], [ 88.397067122303142, 22.501166031203173 ], [ 88.397057696101314, 22.501148952113414 ], [ 88.397048512476815, 22.501153325913432 ], [ 88.397004344473672, 22.501125832452264 ], [ 88.396971546864449, 22.501083217933118 ], [ 88.396978398197007, 22.501076719652801 ], [ 88.396955172323487, 22.501064055959734 ], [ 88.396905951707453, 22.500997988871067 ], [ 88.3969128272945, 22.50099363588275 ], [ 88.396908114208955, 22.500985096332485 ], [ 88.396896574047432, 22.500985200348403 ], [ 88.396868465332432, 22.500948980065775 ], [ 88.396847183709312, 22.500904116213281 ], [ 88.396854010785418, 22.500895472648978 ], [ 88.396837733299421, 22.500884891818519 ], [ 88.396809285072337, 22.500818637472413 ], [ 88.396804499239437, 22.500803662050213 ], [ 88.396811374820672, 22.500799309066462 ], [ 88.396788003490272, 22.500773773609421 ], [ 88.396768763170869, 22.500705290757974 ], [ 88.39677559024301, 22.500696647197032 ], [ 88.396756810739234, 22.50066892484222 ], [ 88.396758997503881, 22.500658177594133 ], [ 88.396737594704646, 22.500602587274145 ], [ 88.396744397521928, 22.500591798425102 ], [ 88.396730379602346, 22.500576906201587 ], [ 88.396706402037054, 22.500497738491141 ], [ 88.396713204852176, 22.50048694964341 ], [ 88.396699211198396, 22.500474202705846 ], [ 88.396672925648971, 22.500395055787394 ], [ 88.396679752713226, 22.500386412230668 ], [ 88.396663426799861, 22.500371540799019 ], [ 88.396663232794182, 22.500354378482097 ], [ 88.396637165543552, 22.500294539161395 ], [ 88.396643968355207, 22.500283750316552 ], [ 88.396629998979066, 22.500273148660973 ], [ 88.396601381244068, 22.500191877233885 ], [ 88.396608256803049, 22.500187524259687 ], [ 88.396605803285908, 22.500174673319663 ], [ 88.396594214691206, 22.500170486731065 ], [ 88.396565597001413, 22.500089215294476 ], [ 88.396572424058704, 22.500080571742402 ], [ 88.396556098194026, 22.500065700296926 ], [ 88.396544170130426, 22.500031479646786 ], [ 88.396532169328268, 22.499990823125817 ], [ 88.396536639870533, 22.499977909792641 ], [ 88.396520314022155, 22.49996303834255 ], [ 88.396494052934187, 22.499886036669853 ], [ 88.396500904234543, 22.499879538410774 ], [ 88.39648455415454, 22.499862521666188 ], [ 88.396482003666819, 22.499841089563201 ], [ 88.396455960848542, 22.499783395490592 ], [ 88.396462763652053, 22.499772606653305 ], [ 88.396448794342433, 22.499762004978042 ], [ 88.396420201080446, 22.499682878793056 ], [ 88.396427003882351, 22.499672089957258 ], [ 88.396408297334077, 22.499650803417964 ], [ 88.396410484114568, 22.499640056172737 ], [ 88.396384441367843, 22.499582362083743 ], [ 88.396391244168157, 22.499571573249437 ], [ 88.396377274884742, 22.499560971566414 ], [ 88.396348657465865, 22.499479700072506 ], [ 88.396355484509485, 22.499471056529824 ], [ 88.396339158742109, 22.499456185056456 ], [ 88.396310565614485, 22.499377058842729 ], [ 88.396317368411601, 22.499366270011489 ], [ 88.396303399154974, 22.499355668320465 ], [ 88.396286637019116, 22.499302181616201 ], [ 88.39625213815998, 22.499313219958161 ], [ 88.396245480818905, 22.499336880528528 ], [ 88.396334537971086, 22.499660050001051 ], [ 88.396435208399637, 22.499989551282692 ], [ 88.39661641333295, 22.500500694954383 ], [ 88.396689000760134, 22.500796120932527 ], [ 88.396724348765062, 22.500860167612338 ], [ 88.396836880509312, 22.50101362997858 ], [ 88.397026135585634, 22.50121574734867 ], [ 88.397491358151896, 22.501531233655157 ], [ 88.398054443107995, 22.501927365011376 ], [ 88.399111137821848, 22.502698793507488 ], [ 88.399716433266633, 22.503152466182264 ], [ 88.399946560131824, 22.503294136481088 ], [ 88.400107250905393, 22.503419269689822 ], [ 88.400532739749366, 22.503690049875928 ], [ 88.400884274450732, 22.503952915330071 ] ] ] } },
{ "type": "Feature", "properties": { "ward": 106, "source_sheet": "106_garfa2.pdf p2", "source": "KMC ward sewerage network map (ArcMap GeoPDF)", "extraction_method": "geopdf_raster_polygonised", "georef_max_residual_m": 2.5 }, "geometry": { "type": "Polygon", "coordinates": [ [ [ 88.388279529674094, 22.500755829900271 ], [ 88.388431715367702, 22.500741593199763 ], [ 88.388454602737809, 22.500724224004347 ], [ 88.388454337368231, 22.50070062573548 ], [ 88.388392302062414, 22.500520958485318 ], [ 88.388323841717252, 22.500180435253121 ], [ 88.388285755455954, 22.500077791843879 ], [ 88.388267122403107, 22.500062940192212 ], [ 88.388234785924652, 22.500061084393504 ], [ 88.388197664556714, 22.500044252860683 ], [ 88.388076296634239, 22.499925191384904 ], [ 88.388031600089334, 22.499850498798132 ], [ 88.387979569556123, 22.499739398155395 ], [ 88.387944370475026, 22.499688221116806 ], [ 88.387888351021573, 22.499632939530734 ], [ 88.387771961454419, 22.499546015913992 ], [ 88.387727409873648, 22.499484195013988 ], [ 88.387689227820019, 22.49937297023029 ], [ 88.387701581001409, 22.499239837719408 ], [ 88.387728095678597, 22.499134470063552 ], [ 88.387795214092719, 22.498945063697956 ], [ 88.38783584193169, 22.498863170281517 ], [ 88.387869931525898, 22.49881566364402 ], [ 88.387822703662835, 22.498515714643691 ], [ 88.387738861554269, 22.498243985206781 ], [ 88.387790691657827, 22.498131954276563 ], [ 88.38784567360328, 22.498094988106967 ], [ 88.387799320843612, 22.498078239133324 ], [ 88.387789992425525, 22.49806974062054 ], [ 88.38779220397268, 22.498061138756338 ], [ 88.387776023911726, 22.498059138148736 ], [ 88.387723542836881, 22.498113246014018 ], [ 88.387711978757849, 22.49811120406158 ], [ 88.387714479634042, 22.498128345780813 ], [ 88.387701210313239, 22.498179956960609 ], [ 88.387683180332516, 22.49821873768591 ], [ 88.387690417749852, 22.49824656456035 ], [ 88.387683493761855, 22.498246626567028 ], [ 88.387681282205619, 22.498255228430036 ], [ 88.38767729307088, 22.498311047529651 ], [ 88.387668133411978, 22.498317566100244 ], [ 88.387669314795744, 22.498422685727945 ], [ 88.387662390798937, 22.498422747734157 ], [ 88.38766251134814, 22.498433474226736 ], [ 88.387669435345472, 22.498433412220489 ], [ 88.387670520296027, 22.498529950652706 ], [ 88.387661312403083, 22.498532178626505 ], [ 88.387668622166331, 22.498566441395695 ], [ 88.387660306340678, 22.498648045412867 ], [ 88.387669538351389, 22.498647962737216 ], [ 88.387672834875318, 22.498735899304073 ], [ 88.387666127855027, 22.498755268997062 ], [ 88.38767305186839, 22.498755206989852 ], [ 88.387674136837006, 22.498851745418051 ], [ 88.387667212818869, 22.498851807425549 ], [ 88.387667309260351, 22.498860388619129 ], [ 88.387674233278929, 22.498860326611613 ], [ 88.387674594936499, 22.498892506087373 ], [ 88.387654522072964, 22.498954905762655 ], [ 88.387643054364375, 22.498961445002514 ], [ 88.387647863261719, 22.4989785660518 ], [ 88.387634400972829, 22.4990130148391 ], [ 88.387600118374394, 22.499043359044865 ], [ 88.387583986418534, 22.499045649020676 ], [ 88.387584131074334, 22.499058520811207 ], [ 88.387549824344859, 22.499086719708778 ], [ 88.387515300626688, 22.499095610913418 ], [ 88.387478324246942, 22.499091650986461 ], [ 88.387476136775135, 22.499102398145595 ], [ 88.387400068856607, 22.499111661319329 ], [ 88.387363092474303, 22.499107701365972 ], [ 88.387363188898135, 22.499116282560415 ], [ 88.387344748917798, 22.49911859317784 ], [ 88.387236320615415, 22.499123854980617 ], [ 88.38720847986184, 22.499111231143782 ], [ 88.387148326964038, 22.499098896571549 ], [ 88.387145874337833, 22.49908604544051 ], [ 88.387118081803607, 22.499077712184885 ], [ 88.387052879086184, 22.499026803518291 ], [ 88.38705742280186, 22.499020326300542 ], [ 88.387050426470381, 22.499013952385187 ], [ 88.387041242634737, 22.499018325624455 ], [ 88.386982891698892, 22.498960919048475 ], [ 88.386968995448186, 22.498956752406276 ], [ 88.386966566941339, 22.498946046570357 ], [ 88.386957383107131, 22.498950419804785 ], [ 88.386890065287091, 22.498916694117252 ], [ 88.386869293215923, 22.498916880038255 ], [ 88.386869196823397, 22.498908298841769 ], [ 88.386859940694279, 22.498906236173305 ], [ 88.386832316893731, 22.498912919959576 ], [ 88.386827628585479, 22.498906525376444 ], [ 88.386765312374195, 22.498907083107067 ], [ 88.386753700045844, 22.498900750490179 ], [ 88.386746896503709, 22.498911538954427 ], [ 88.386657004665878, 22.498923071009248 ], [ 88.386638492410768, 22.498918945647169 ], [ 88.386631688858586, 22.498929734107026 ], [ 88.386592573185382, 22.498940811723049 ], [ 88.386535017527876, 22.498954199854193 ], [ 88.386523429297824, 22.498950012519838 ], [ 88.386521217660231, 22.498958614370366 ], [ 88.386477461858163, 22.498967587965311 ], [ 88.38643844252627, 22.498987246742985 ], [ 88.3864199543588, 22.498985266655442 ], [ 88.386415458795867, 22.498996034455708 ], [ 88.386330447874727, 22.499031123324958 ], [ 88.386316551633129, 22.499026956625872 ], [ 88.386307367771124, 22.499031329824493 ], [ 88.386307464129516, 22.499039911022933 ], [ 88.386238536964086, 22.499068419397663 ], [ 88.386217837129252, 22.499075041134869 ], [ 88.386208556908244, 22.499070833129398 ], [ 88.386206369337529, 22.49908158027625 ], [ 88.386121310132523, 22.499112378440543 ], [ 88.386102821950701, 22.499110398317239 ], [ 88.386098326359217, 22.49912116610993 ], [ 88.386010959090555, 22.499151984865108 ], [ 88.385992470904284, 22.499150004729323 ], [ 88.385987975302982, 22.499160772519385 ], [ 88.385932751581919, 22.499176285097036 ], [ 88.385919023921829, 22.499187135463359 ], [ 88.385889019748177, 22.499187403837187 ], [ 88.385877600096975, 22.499198233556239 ], [ 88.385824612113609, 22.499207289554302 ], [ 88.38579475242571, 22.499220429711002 ], [ 88.385769316108394, 22.499216366177521 ], [ 88.385767128501755, 22.499227113320046 ], [ 88.385684256712395, 22.49924716411952 ], [ 88.385661152486719, 22.499245225228155 ], [ 88.385658940791487, 22.499253827069467 ], [ 88.385599076881832, 22.499267235517376 ], [ 88.38557383318809, 22.499280334354975 ], [ 88.385555320909674, 22.49927620886934 ], [ 88.385548517254932, 22.499286997288092 ], [ 88.385454177543593, 22.499313587068706 ], [ 88.385442589310955, 22.499309399656635 ], [ 88.385440401677769, 22.499320146795945 ], [ 88.38537366181626, 22.499337907675955 ], [ 88.385362218035738, 22.499346592060515 ], [ 88.385327597787452, 22.499346901604493 ], [ 88.385327694086769, 22.499355482806237 ], [ 88.385233113545993, 22.499360619456578 ], [ 88.385212269174659, 22.499354369265706 ], [ 88.385212365466913, 22.499362950467862 ], [ 88.385117784912865, 22.49936808705095 ], [ 88.385096940544713, 22.499361836844944 ], [ 88.385097036829876, 22.499370418047526 ], [ 88.385087804761085, 22.499370500578195 ], [ 88.385002239634076, 22.49935624685676 ], [ 88.384985963166855, 22.499345664771756 ], [ 88.384979111324526, 22.499352162567249 ], [ 88.384960647188421, 22.499352327614439 ], [ 88.384946726879363, 22.499346015496076 ], [ 88.384884386353221, 22.499344427208353 ], [ 88.384884266013316, 22.49933370070411 ], [ 88.384845101929614, 22.49934048730616 ], [ 88.384831181626438, 22.499334175177481 ], [ 88.384768841104304, 22.499332586844691 ], [ 88.384768744839562, 22.499324005640851 ], [ 88.384754896739054, 22.499324129408222 ], [ 88.384754968936974, 22.499330565311144 ], [ 88.384676592621119, 22.499339847841487 ], [ 88.38463961621882, 22.499335887262095 ], [ 88.384639712475661, 22.499344468466404 ], [ 88.384565952175933, 22.499353709691253 ], [ 88.384526667754173, 22.499349769711067 ], [ 88.384526764004107, 22.49935835091577 ], [ 88.384434491422113, 22.499363466474122 ], [ 88.384413647080223, 22.499357216178097 ], [ 88.384413743323222, 22.499365797383213 ], [ 88.384386071169914, 22.499368190157462 ], [ 88.384307622620511, 22.499371036606423 ], [ 88.384307550443154, 22.4993646007023 ], [ 88.384296010353779, 22.499364703809 ], [ 88.384296106589545, 22.499373285014538 ], [ 88.384268434431576, 22.499375677768754 ], [ 88.384201525963277, 22.499378421061586 ], [ 88.384199145772698, 22.499372005777065 ], [ 88.384180681627797, 22.499372170735008 ], [ 88.3841807778565, 22.499380751940972 ], [ 88.384088505235397, 22.499385867302465 ], [ 88.384067660903014, 22.499379616961072 ], [ 88.384067757124768, 22.499388198167445 ], [ 88.383991640621446, 22.499393169146998 ], [ 88.383952308089277, 22.499384938423088 ], [ 88.383952404303926, 22.49939351962988 ], [ 88.38391778402314, 22.499393828871547 ], [ 88.383920645265562, 22.499443150195223 ], [ 88.383943941943386, 22.499462251749307 ], [ 88.384393765158819, 22.499436777930814 ], [ 88.385009909854162, 22.499422689284788 ], [ 88.385254439393805, 22.499409775654492 ], [ 88.385496420074489, 22.499375429291018 ], [ 88.385719816081917, 22.499330521203579 ], [ 88.386129462604501, 22.499221726785596 ], [ 88.386552571004032, 22.499078482647025 ], [ 88.386607818699588, 22.499065115161429 ], [ 88.386711606888042, 22.499057749794904 ], [ 88.386794695261216, 22.499057006171888 ], [ 88.386829411806389, 22.499065277512795 ], [ 88.386901345709063, 22.499098961905563 ], [ 88.386966452010441, 22.499141289438278 ], [ 88.387119431527836, 22.499197848919369 ], [ 88.387188792413525, 22.499207955551483 ], [ 88.387327345471419, 22.499213151634233 ], [ 88.387389926976226, 22.499236191963469 ], [ 88.387406227705668, 22.499248919095614 ], [ 88.387420365067015, 22.499274538682975 ], [ 88.38749047973748, 22.499557118747468 ], [ 88.387511830508799, 22.499608419901893 ], [ 88.387637572613286, 22.499705987525228 ], [ 88.387770672991749, 22.499842108391089 ], [ 88.388072628480813, 22.500214868601493 ], [ 88.388171905277417, 22.500422094039017 ], [ 88.388224201576548, 22.500556792861545 ], [ 88.388244595541252, 22.500728251223073 ], [ 88.388265633208533, 22.50075166338187 ], [ 88.388279529674094, 22.500755829900271 ] ] ] } }
]
}
