{
"type": "FeatureCollection",
"name": "ward108_p1_pumping_stations",
"crs": { "type": "name", "properties": { "name": "urn:ogc:def:crs:OGC:1.3:CRS84" } },
"features": [
{ "type": "Feature", "properties": { "ward": 108, "source_sheet": "108_ruby.pdf p1", "source": "KMC ward sewerage network map (ArcMap GeoPDF)", "extraction_method": "geopdf_vector", "georef_max_residual_m": 0.1, "name": "PS-4", "position_note": "symbol anchor; may be offset ~10 m from true location" }, "geometry": { "type": "Point", "coordinates": [ 88.399221250438302, 22.520470379592947 ] } }
]
}
