{
"type": "FeatureCollection",
"name": "ward105_p1_water_bodies",
"crs": { "type": "name", "properties": { "name": "urn:ogc:def:crs:OGC:1.3:CRS84" } },
"features": [
{ "type": "Feature", "properties": { "ward": 105, "source_sheet": "105_garfa 1.pdf p1", "source": "KMC ward sewerage network map (ArcMap GeoPDF)", "extraction_method": "geopdf_raster_polygonised", "georef_max_residual_m": 0.0 }, "geometry": { "type": "Polygon", "coordinates": [ [ [ 88.379433040552243, 22.511003769478002 ], [ 88.379481889992178, 22.511000622953727 ], [ 88.379536120886442, 22.510945136686516 ], [ 88.379546174490216, 22.510914778763304 ], [ 88.37953833993096, 22.510873555409532 ], [ 88.379510098012503, 22.510864149727055 ], [ 88.379416756926929, 22.510862150306632 ], [ 88.379382690457888, 22.510862425119964 ], [ 88.379359092085735, 22.510872249014895 ], [ 88.379350462427965, 22.510897090566395 ], [ 88.379355320338789, 22.510936961724518 ], [ 88.379375061233048, 22.510983593917928 ], [ 88.379404870073728, 22.511001244295549 ], [ 88.379433040552243, 22.511003769478002 ] ] ] } },
{ "type": "Feature", "properties": { "ward": 105, "source_sheet": "105_garfa 1.pdf p1", "source": "KMC ward sewerage network map (ArcMap GeoPDF)", "extraction_method": "geopdf_raster_polygonised", "georef_max_residual_m": 0.0 }, "geometry": { "type": "Polygon", "coordinates": [ [ [ 88.380426509110606, 22.510673716780619 ], [ 88.380534561409448, 22.510665963314398 ], [ 88.380578809903668, 22.510647715209124 ], [ 88.380603646125351, 22.510614485433745 ], [ 88.380606516153932, 22.510463078241916 ], [ 88.380589865961582, 22.510428807221349 ], [ 88.380546669590103, 22.510405760280641 ], [ 88.38043572671296, 22.510420418175329 ], [ 88.380385582288497, 22.510441466274177 ], [ 88.380351830562219, 22.510472015553617 ], [ 88.380337862864678, 22.51055332520033 ], [ 88.380346083768316, 22.510631703286599 ], [ 88.380380479103607, 22.510663078640558 ], [ 88.380426509110606, 22.510673716780619 ] ] ] } },
{ "type": "Feature", "properties": { "ward": 105, "source_sheet": "105_garfa 1.pdf p1", "source": "KMC ward sewerage network map (ArcMap GeoPDF)", "extraction_method": "geopdf_raster_polygonised", "georef_max_residual_m": 0.0 }, "geometry": { "type": "Polygon", "coordinates": [ [ [ 88.378684426356557, 22.510378122399398 ], [ 88.378792407163218, 22.510363489589071 ], [ 88.378804084900807, 22.510346880800935 ], [ 88.378774114596027, 22.510170966400448 ], [ 88.378765042024341, 22.510153148701974 ], [ 88.378751626020488, 22.510144999557124 ], [ 88.37866429568399, 22.510151208531422 ], [ 88.378639359069297, 22.510174805300107 ], [ 88.378670967481114, 22.510365844936853 ], [ 88.378684426356557, 22.510378122399398 ] ] ] } },
{ "type": "Feature", "properties": { "ward": 105, "source_sheet": "105_garfa 1.pdf p1", "source": "KMC ward sewerage network map (ArcMap GeoPDF)", "extraction_method": "geopdf_raster_polygonised", "georef_max_residual_m": 0.0 }, "geometry": { "type": "Polygon", "coordinates": [ [ [ 88.379584587850758, 22.510619958034187 ], [ 88.379735636364387, 22.510615986859033 ], [ 88.379785823847484, 22.510599067264952 ], [ 88.379834372912512, 22.510567022471768 ], [ 88.379876611360586, 22.510497870686883 ], [ 88.379890679402763, 22.510426193789431 ], [ 88.379890036057162, 22.5103642691411 ], [ 88.37986358422225, 22.510241999138032 ], [ 88.379831665335331, 22.510163812242475 ], [ 88.379773429009902, 22.510118866947874 ], [ 88.379639983225744, 22.510106181487995 ], [ 88.379552795911607, 22.510126151976415 ], [ 88.379474652643964, 22.510161187866188 ], [ 88.379439491087041, 22.510198629428704 ], [ 88.379418059979002, 22.510274494351453 ], [ 88.379428109719058, 22.510529013769794 ], [ 88.379449317426761, 22.510574257906033 ], [ 88.379501500625054, 22.510606866176676 ], [ 88.379584587850758, 22.510619958034187 ] ] ] } },
{ "type": "Feature", "properties": { "ward": 105, "source_sheet": "105_garfa 1.pdf p1", "source": "KMC ward sewerage network map (ArcMap GeoPDF)", "extraction_method": "geopdf_raster_polygonised", "georef_max_residual_m": 0.0 }, "geometry": { "type": "Polygon", "coordinates": [ [ [ 88.381653899996493, 22.510190384046197 ], [ 88.381687909011575, 22.510184604351615 ], [ 88.381717388710115, 22.51017060394453 ], [ 88.38173330909153, 22.510134693622142 ], [ 88.381738861476492, 22.510098867085333 ], [ 88.381719527508992, 22.509949015569067 ], [ 88.381695013370447, 22.509870769242998 ], [ 88.381671200638181, 22.509859951926245 ], [ 88.381607554610966, 22.509864594877477 ], [ 88.38156934557054, 22.50989380419589 ], [ 88.381548953125773, 22.509926998202126 ], [ 88.381531823514436, 22.509989066421642 ], [ 88.38153387715758, 22.510044098550043 ], [ 88.381577875093328, 22.51014420695633 ], [ 88.381615261475616, 22.510178310308898 ], [ 88.381653899996493, 22.510190384046197 ] ] ] } },
{ "type": "Feature", "properties": { "ward": 105, "source_sheet": "105_garfa 1.pdf p1", "source": "KMC ward sewerage network map (ArcMap GeoPDF)", "extraction_method": "geopdf_raster_polygonised", "georef_max_residual_m": 0.0 }, "geometry": { "type": "Polygon", "coordinates": [ [ [ 88.38219584675096, 22.510029114960911 ], [ 88.382266855561127, 22.510020283597051 ], [ 88.382291906061624, 22.510007695114009 ], [ 88.382313536029372, 22.509951095314428 ], [ 88.382286916539911, 22.509670562101878 ], [ 88.382273242641219, 22.509637643421566 ], [ 88.382241852398678, 22.509610372835269 ], [ 88.382215091722131, 22.50960095564831 ], [ 88.382164790383797, 22.509606867152009 ], [ 88.38211608472065, 22.509623775484503 ], [ 88.382092615630867, 22.509645984680528 ], [ 88.382085453352275, 22.509669438279285 ], [ 88.382100215378827, 22.509806940737988 ], [ 88.382106319697385, 22.509966532661835 ], [ 88.382125961109324, 22.510003531769595 ], [ 88.382160242110331, 22.510023897917051 ], [ 88.38219584675096, 22.510029114960911 ] ] ] } },
{ "type": "Feature", "properties": { "ward": 105, "source_sheet": "105_garfa 1.pdf p1", "source": "KMC ward sewerage network map (ArcMap GeoPDF)", "extraction_method": "geopdf_raster_polygonised", "georef_max_residual_m": 0.0 }, "geometry": { "type": "Polygon", "coordinates": [ [ [ 88.381631617524974, 22.509757055431166 ], [ 88.38174411241242, 22.509749265286356 ], [ 88.381780954757147, 22.509731076717912 ], [ 88.381804166242304, 22.50968409772301 ], [ 88.381804874368498, 22.509609776228775 ], [ 88.381782499866162, 22.509594818649511 ], [ 88.381733450611506, 22.50957870041201 ], [ 88.381646049289628, 22.509578030467644 ], [ 88.381613564494288, 22.509587926485644 ], [ 88.381606287631939, 22.509600371247753 ], [ 88.381592721494968, 22.509720211838307 ], [ 88.381607819130238, 22.50974761420607 ], [ 88.381631617524974, 22.509757055431166 ] ] ] } },
{ "type": "Feature", "properties": { "ward": 105, "source_sheet": "105_garfa 1.pdf p1", "source": "KMC ward sewerage network map (ArcMap GeoPDF)", "extraction_method": "geopdf_raster_polygonised", "georef_max_residual_m": 0.0 }, "geometry": { "type": "Polygon", "coordinates": [ [ [ 88.383776800815227, 22.509929624943901 ], [ 88.383810809652744, 22.509923844808323 ], [ 88.383862377109878, 22.50989727928361 ], [ 88.384075693977891, 22.509756554550897 ], [ 88.384088794800306, 22.509734429017879 ], [ 88.384085449778496, 22.509555547883359 ], [ 88.384073906176368, 22.50944279153688 ], [ 88.384052768878163, 22.509404428575753 ], [ 88.384012505905801, 22.509378606392055 ], [ 88.383867053909597, 22.509350883225867 ], [ 88.383667101086402, 22.509352501573591 ], [ 88.38359197899085, 22.509393019822575 ], [ 88.383573068243521, 22.509426202073026 ], [ 88.383538978000175, 22.509708602485741 ], [ 88.383545920137834, 22.509806257731896 ], [ 88.383562800278469, 22.509862546036238 ], [ 88.38358976174429, 22.509891228408787 ], [ 88.383620994637909, 22.509903361601747 ], [ 88.383776800815227, 22.509929624943901 ] ] ] } },
{ "type": "Feature", "properties": { "ward": 105, "source_sheet": "105_garfa 1.pdf p1", "source": "KMC ward sewerage network map (ArcMap GeoPDF)", "extraction_method": "geopdf_raster_polygonised", "georef_max_residual_m": 0.0 }, "geometry": { "type": "Polygon", "coordinates": [ [ [ 88.381075955607841, 22.509311521113503 ], [ 88.381096691473502, 22.509311353630256 ], [ 88.381148345129148, 22.509293045574783 ], [ 88.381165932715675, 22.509275012674397 ], [ 88.381173138060831, 22.509255687416889 ], [ 88.381173817918835, 22.509178613699252 ], [ 88.38116319244628, 22.509153927595982 ], [ 88.381143851887458, 22.509145826506423 ], [ 88.381093436186674, 22.509140728847328 ], [ 88.381040158375498, 22.509145287817287 ], [ 88.380993320125725, 22.50919933862426 ], [ 88.380983395705016, 22.509242081547715 ], [ 88.381000002912486, 22.50927222422624 ], [ 88.381041860927922, 22.509309044053133 ], [ 88.381075955607841, 22.509311521113503 ] ] ] } },
{ "type": "Feature", "properties": { "ward": 105, "source_sheet": "105_garfa 1.pdf p1", "source": "KMC ward sewerage network map (ArcMap GeoPDF)", "extraction_method": "geopdf_raster_polygonised", "georef_max_residual_m": 0.0 }, "geometry": { "type": "Polygon", "coordinates": [ [ [ 88.383520474572904, 22.508785310386582 ], [ 88.383613685191676, 22.508774922582827 ], [ 88.383625448204882, 22.508766570085744 ], [ 88.383612122975791, 22.508624927529755 ], [ 88.383598405890965, 22.508587880664159 ], [ 88.383565448538661, 22.508552365710695 ], [ 88.383535639757724, 22.508534716098374 ], [ 88.383477847280162, 22.508532431307646 ], [ 88.383436476135174, 22.508542399583636 ], [ 88.383430952890791, 22.508580978363657 ], [ 88.383482514904088, 22.50869616341631 ], [ 88.383502529084481, 22.508768940990418 ], [ 88.383520474572904, 22.508785310386582 ] ] ] } },
{ "type": "Feature", "properties": { "ward": 105, "source_sheet": "105_garfa 1.pdf p1", "source": "KMC ward sewerage network map (ArcMap GeoPDF)", "extraction_method": "geopdf_raster_polygonised", "georef_max_residual_m": 0.0 }, "geometry": { "type": "Polygon", "coordinates": [ [ [ 88.380532237520171, 22.508019513767103 ], [ 88.380576642511542, 22.508016402835235 ], [ 88.380589051006453, 22.507785097900861 ], [ 88.380560809667301, 22.507775692371283 ], [ 88.38045703135586, 22.507766896634649 ], [ 88.380390395380516, 22.507768810765857 ], [ 88.380352043624313, 22.507784258752 ], [ 88.380324359963936, 22.507828521215984 ], [ 88.380320645864543, 22.507898738359142 ], [ 88.380329932955291, 22.50793719752409 ], [ 88.380363089558912, 22.507991978639392 ], [ 88.380409190168763, 22.508009497349303 ], [ 88.380532237520171, 22.508019513767103 ] ] ] } },
{ "type": "Feature", "properties": { "ward": 105, "source_sheet": "105_garfa 1.pdf p1", "source": "KMC ward sewerage network map (ArcMap GeoPDF)", "extraction_method": "geopdf_raster_polygonised", "georef_max_residual_m": 0.0 }, "geometry": { "type": "Polygon", "coordinates": [ [ [ 88.379518683657082, 22.507697400536109 ], [ 88.379878961206046, 22.507587148770099 ], [ 88.379884714133368, 22.507570587720348 ], [ 88.379857562560417, 22.507380888560938 ], [ 88.379750979561081, 22.507387253395994 ], [ 88.379591290826681, 22.507414689868963 ], [ 88.37942735873709, 22.507461427484181 ], [ 88.379518683657082, 22.507697400536109 ] ] ] } },
{ "type": "Feature", "properties": { "ward": 105, "source_sheet": "105_garfa 1.pdf p1", "source": "KMC ward sewerage network map (ArcMap GeoPDF)", "extraction_method": "geopdf_raster_polygonised", "georef_max_residual_m": 0.0 }, "geometry": { "type": "Polygon", "coordinates": [ [ [ 88.378044736268961, 22.507972141760071 ], [ 88.37808767449701, 22.507970419551775 ], [ 88.378329393106469, 22.507854245376777 ], [ 88.378426418690637, 22.50778327617342 ], [ 88.378457093763615, 22.507741742338741 ], [ 88.378477386713911, 22.507698915962354 ], [ 88.378481187431973, 22.507636955441171 ], [ 88.378431439474454, 22.507553407013415 ], [ 88.378338920942255, 22.507344967274754 ], [ 88.378310437083087, 22.507312167557217 ], [ 88.378245410861837, 22.50732645379782 ], [ 88.378201348667361, 22.507362590593903 ], [ 88.378179574558345, 22.507405428874375 ], [ 88.378150309196229, 22.50744007019912 ], [ 88.37806048939963, 22.507491714094652 ], [ 88.377886431472746, 22.507561927494766 ], [ 88.377842469029034, 22.507607696934791 ], [ 88.377831076870066, 22.507651827752337 ], [ 88.377831433728687, 22.50768623037651 ], [ 88.377866156078852, 22.507749256757322 ], [ 88.377997140533566, 22.507953258186649 ], [ 88.378044736268961, 22.507972141760071 ] ] ] } },
{ "type": "Feature", "properties": { "ward": 105, "source_sheet": "105_garfa 1.pdf p1", "source": "KMC ward sewerage network map (ArcMap GeoPDF)", "extraction_method": "geopdf_raster_polygonised", "georef_max_residual_m": 0.0 }, "geometry": { "type": "Polygon", "coordinates": [ [ [ 88.380428734957263, 22.507467109339601 ], [ 88.380856133181467, 22.507401728824618 ], [ 88.380867867652285, 22.507390624318656 ], [ 88.380873563235951, 22.507368558826546 ], [ 88.380876619063059, 22.507235040931221 ], [ 88.380866179763714, 22.507228244134925 ], [ 88.380843977399309, 22.507229799635972 ], [ 88.380441901598019, 22.507308737877327 ], [ 88.380425709460752, 22.507318502118107 ], [ 88.380417108780122, 22.507346095923811 ], [ 88.380409137281873, 22.507434238283306 ], [ 88.380413809418883, 22.507456220071568 ], [ 88.380428734957263, 22.507467109339601 ] ] ] } },
{ "type": "Feature", "properties": { "ward": 105, "source_sheet": "105_garfa 1.pdf p1", "source": "KMC ward sewerage network map (ArcMap GeoPDF)", "extraction_method": "geopdf_raster_polygonised", "georef_max_residual_m": 0.0 }, "geometry": { "type": "Polygon", "coordinates": [ [ [ 88.382901228484329, 22.50749667539268 ], [ 88.383127022114536, 22.507416404667314 ], [ 88.383137275283772, 22.507405311985856 ], [ 88.383103043303663, 22.507247323840172 ], [ 88.383071266676112, 22.507182898635456 ], [ 88.383035404890194, 22.507152911912328 ], [ 88.382979223019746, 22.507162999851388 ], [ 88.382902534796244, 22.507195273106895 ], [ 88.382829138196101, 22.507259172720172 ], [ 88.382827814644415, 22.507274321821388 ], [ 88.382883311888463, 22.50748305811701 ], [ 88.382901228484329, 22.50749667539268 ] ] ] } },
{ "type": "Feature", "properties": { "ward": 105, "source_sheet": "105_garfa 1.pdf p1", "source": "KMC ward sewerage network map (ArcMap GeoPDF)", "extraction_method": "geopdf_raster_polygonised", "georef_max_residual_m": 0.0 }, "geometry": { "type": "Polygon", "coordinates": [ [ [ 88.38096069247969, 22.507058206012534 ], [ 88.381011035891248, 22.507056423236588 ], [ 88.381095201607124, 22.507030971569502 ], [ 88.381136243459679, 22.506989353535101 ], [ 88.381141767307994, 22.506950774797588 ], [ 88.38108816129477, 22.506923683369259 ], [ 88.380963862672246, 22.506935696941174 ], [ 88.380922506082413, 22.506947040661569 ], [ 88.380874058631193, 22.506988718443949 ], [ 88.380869887080451, 22.507014900286332 ], [ 88.380883374405997, 22.50702992978313 ], [ 88.38096069247969, 22.507058206012534 ] ] ] } },
{ "type": "Feature", "properties": { "ward": 105, "source_sheet": "105_garfa 1.pdf p1", "source": "KMC ward sewerage network map (ArcMap GeoPDF)", "extraction_method": "geopdf_raster_polygonised", "georef_max_residual_m": 0.0 }, "geometry": { "type": "Polygon", "coordinates": [ [ [ 88.380171338048541, 22.506501704902142 ], [ 88.380196516814735, 22.50650150169616 ], [ 88.380196373845209, 22.506487740658326 ], [ 88.380271552692506, 22.506452728423628 ], [ 88.380278858124939, 22.506443035926893 ], [ 88.380277076769872, 22.506414149702319 ], [ 88.38025873163501, 22.506359248999939 ], [ 88.380224051505067, 22.50630035147292 ], [ 88.380203115924459, 22.506281253367948 ], [ 88.380179475486315, 22.50628694903515 ], [ 88.380067555060833, 22.506349782109307 ], [ 88.380047105535525, 22.506377471515833 ], [ 88.380076018453778, 22.506451554034868 ], [ 88.380094077613208, 22.506478932683581 ], [ 88.380113417738073, 22.506487033923531 ], [ 88.380165299259744, 22.506490743884324 ], [ 88.380171338048541, 22.506501704902142 ] ] ] } },
{ "type": "Feature", "properties": { "ward": 105, "source_sheet": "105_garfa 1.pdf p1", "source": "KMC ward sewerage network map (ArcMap GeoPDF)", "extraction_method": "geopdf_raster_polygonised", "georef_max_residual_m": 0.0 }, "geometry": { "type": "Polygon", "coordinates": [ [ [ 88.383096134991249, 22.506299165577694 ], [ 88.383164165303626, 22.50628898177056 ], [ 88.383217184034407, 22.506259652317773 ], [ 88.383371118072375, 22.506248773500971 ], [ 88.383545601174902, 22.506219837438412 ], [ 88.383588194781922, 22.506185087349078 ], [ 88.383595385318444, 22.506164385899101 ], [ 88.383589116998806, 22.506131407392406 ], [ 88.383562070327699, 22.5060944683588 ], [ 88.383515912704141, 22.506071446128008 ], [ 88.383443267294027, 22.506065152803114 ], [ 88.383339848385859, 22.506090761417887 ], [ 88.383276447733124, 22.506118798676077 ], [ 88.383229152886869, 22.506128814792302 ], [ 88.383169894638613, 22.506127917922999 ], [ 88.383118185136439, 22.50614072215302 ], [ 88.383041583448531, 22.506181252061733 ], [ 88.383022629984197, 22.506210305938477 ], [ 88.383021521327947, 22.506246096574234 ], [ 88.38303966696887, 22.506281731478381 ], [ 88.383070927641782, 22.506296617030795 ], [ 88.383096134991249, 22.506299165577694 ] ] ] } },
{ "type": "Feature", "properties": { "ward": 105, "source_sheet": "105_garfa 1.pdf p1", "source": "KMC ward sewerage network map (ArcMap GeoPDF)", "extraction_method": "geopdf_raster_polygonised", "georef_max_residual_m": 0.0 }, "geometry": { "type": "Polygon", "coordinates": [ [ [ 88.379905946740621, 22.506049694133829 ], [ 88.379926682130076, 22.506049526825549 ], [ 88.379951746463178, 22.50603831482988 ], [ 88.379985340022444, 22.505992628523682 ], [ 88.379990592572668, 22.505927903830997 ], [ 88.379973800193341, 22.505879871652944 ], [ 88.379958932042527, 22.505874486746443 ], [ 88.379932272289963, 22.505874701860261 ], [ 88.37991017017886, 22.505885889950846 ], [ 88.379873385727819, 22.505909582477059 ], [ 88.379842654293867, 22.505945612132908 ], [ 88.379835749058813, 22.505993835524997 ], [ 88.379855403552853, 22.506032211090027 ], [ 88.379905946740621, 22.506049694133829 ] ] ] } },
{ "type": "Feature", "properties": { "ward": 105, "source_sheet": "105_garfa 1.pdf p1", "source": "KMC ward sewerage network map (ArcMap GeoPDF)", "extraction_method": "geopdf_raster_polygonised", "georef_max_residual_m": 0.0 }, "geometry": { "type": "Polygon", "coordinates": [ [ [ 88.380616167347625, 22.505833400514948 ], [ 88.380698965735803, 22.505818969870582 ], [ 88.380735821521185, 22.5058021576817 ], [ 88.380762509855032, 22.505804694642752 ], [ 88.380790850914195, 22.505823732883446 ], [ 88.380925559154463, 22.505815764085199 ], [ 88.380957871492711, 22.505789355001827 ], [ 88.380961957179238, 22.505754916535203 ], [ 88.380955789630107, 22.505731570616341 ], [ 88.38092736274767, 22.505704275783707 ], [ 88.380881362984852, 22.505696389906841 ], [ 88.380867890100319, 22.50568273650449 ], [ 88.38085831699108, 22.505616755289168 ], [ 88.380794429714115, 22.505598004064304 ], [ 88.380726313695561, 22.505599930241026 ], [ 88.380726485314682, 22.505616443484531 ], [ 88.380714650863098, 22.505617915250202 ], [ 88.380701321015664, 22.505618022868962 ], [ 88.380699725510837, 22.505607025997417 ], [ 88.38066276966417, 22.505614205450421 ], [ 88.380630056886915, 22.505602083572871 ], [ 88.380605887469457, 22.50555686345966 ], [ 88.380561411762073, 22.505553093842401 ], [ 88.38050968788221, 22.505564521133159 ], [ 88.380483342776941, 22.505595010618141 ], [ 88.380469418378567, 22.505680448606867 ], [ 88.380527115658126, 22.505816228556924 ], [ 88.380616167347625, 22.505833400514948 ] ] ] } },
{ "type": "Feature", "properties": { "ward": 105, "source_sheet": "105_garfa 1.pdf p1", "source": "KMC ward sewerage network map (ArcMap GeoPDF)", "extraction_method": "geopdf_raster_polygonised", "georef_max_residual_m": 0.0 }, "geometry": { "type": "Polygon", "coordinates": [ [ [ 88.381206139213333, 22.505163922851295 ], [ 88.38124007550303, 22.505151262791596 ], [ 88.381231496946242, 22.505038482122682 ], [ 88.38126058935957, 22.504987327050774 ], [ 88.381261684172287, 22.504950160296026 ], [ 88.381234094711971, 22.504860928892473 ], [ 88.381186184964392, 22.504811771946287 ], [ 88.381147619525976, 22.504806578529383 ], [ 88.381121031516187, 22.504813674347318 ], [ 88.381094615159952, 22.5048372834035 ], [ 88.381095144435122, 22.504888199234347 ], [ 88.381152319315873, 22.505116189852728 ], [ 88.381182398871559, 22.505159985930895 ], [ 88.381206139213333, 22.505163922851295 ] ] ] } },
{ "type": "Feature", "properties": { "ward": 105, "source_sheet": "105_garfa 1.pdf p1", "source": "KMC ward sewerage network map (ArcMap GeoPDF)", "extraction_method": "geopdf_raster_polygonised", "georef_max_residual_m": 0.0 }, "geometry": { "type": "Polygon", "coordinates": [ [ [ 88.380323710218889, 22.505199947955195 ], [ 88.380402050705385, 22.505184177237481 ], [ 88.380446240321788, 22.50516042482781 ], [ 88.380478495416327, 22.505128511426211 ], [ 88.380489857965884, 22.505081628252746 ], [ 88.380466883808623, 22.505008874076172 ], [ 88.380445748223806, 22.504970510537149 ], [ 88.38036239269735, 22.504931272974723 ], [ 88.380286714288104, 22.50491812157594 ], [ 88.38020794505357, 22.504892609109756 ], [ 88.380176642092408, 22.504873594655532 ], [ 88.380140681451209, 22.50483397448939 ], [ 88.38007645154957, 22.504782196455658 ], [ 88.38003480962071, 22.504766017839117 ], [ 88.379960812518021, 22.50477211978879 ], [ 88.379915513463416, 22.504831662724378 ], [ 88.379920757136929, 22.504908688711016 ], [ 88.379961175294909, 22.504949649181089 ], [ 88.380026557557557, 22.504969764911735 ], [ 88.380098164383469, 22.505018730994184 ], [ 88.38017020013109, 22.505108980163172 ], [ 88.380250865174816, 22.505174387703633 ], [ 88.380286654376008, 22.505197494590139 ], [ 88.380323710218889, 22.505199947955195 ] ] ] } },
{ "type": "Feature", "properties": { "ward": 105, "source_sheet": "105_garfa 1.pdf p1", "source": "KMC ward sewerage network map (ArcMap GeoPDF)", "extraction_method": "geopdf_raster_polygonised", "georef_max_residual_m": 0.0 }, "geometry": { "type": "Polygon", "coordinates": [ [ [ 88.382987241179308, 22.504802720980354 ], [ 88.383016862860316, 22.504802481414433 ], [ 88.383044903188988, 22.504792621104933 ], [ 88.383062389713032, 22.504764955311792 ], [ 88.383066374590697, 22.504720884098404 ], [ 88.383057101342743, 22.504683801206056 ], [ 88.38302700700487, 22.504638629397636 ], [ 88.382994194020412, 22.504616875280565 ], [ 88.382908133710615, 22.504602432861208 ], [ 88.382829665007819, 22.504605819845473 ], [ 88.38278846681483, 22.504632301134233 ], [ 88.382776775689294, 22.504647534072202 ], [ 88.382781419434821, 22.504666763579884 ], [ 88.382812708352972, 22.504684401410088 ], [ 88.382847131308594, 22.504718528510598 ], [ 88.382865419905585, 22.504767924478394 ], [ 88.382880402611278, 22.50478431793756 ], [ 88.382927825942161, 22.504786686866169 ], [ 88.382987241179308, 22.504802720980354 ] ] ] } },
{ "type": "Feature", "properties": { "ward": 105, "source_sheet": "105_garfa 1.pdf p1", "source": "KMC ward sewerage network map (ArcMap GeoPDF)", "extraction_method": "geopdf_raster_polygonised", "georef_max_residual_m": 0.0 }, "geometry": { "type": "Polygon", "coordinates": [ [ [ 88.379686089888793, 22.503706389665425 ], [ 88.379782331143019, 22.503702860857995 ], [ 88.379795589356561, 22.503695872801984 ], [ 88.379804304308038, 22.503679287858461 ], [ 88.379801522743847, 22.503554074296652 ], [ 88.379789374052478, 22.50352527168679 ], [ 88.379774477583425, 22.503517134539663 ], [ 88.379573223197227, 22.503535272589165 ], [ 88.379558498202144, 22.503543648677418 ], [ 88.379546863947823, 22.503564385814716 ], [ 88.379545173483407, 22.503686883020794 ], [ 88.379573485361902, 22.503703169301389 ], [ 88.379686089888793, 22.503706389665425 ] ] ] } },
{ "type": "Feature", "properties": { "ward": 105, "source_sheet": "105_garfa 1.pdf p1", "source": "KMC ward sewerage network map (ArcMap GeoPDF)", "extraction_method": "geopdf_raster_polygonised", "georef_max_residual_m": 0.0 }, "geometry": { "type": "Polygon", "coordinates": [ [ [ 88.381342253467523, 22.503296670430451 ], [ 88.381371860541819, 22.503295055079434 ], [ 88.381441198949446, 22.503268346858238 ], [ 88.381475063225139, 22.503248806252483 ], [ 88.381477939517495, 22.503240525704069 ], [ 88.381480458123704, 22.503197842565804 ], [ 88.381439396266032, 22.503094957801917 ], [ 88.381419856262212, 22.503067591246996 ], [ 88.381314857896612, 22.503083577714026 ], [ 88.381288370359528, 22.503100306270138 ], [ 88.381276693487692, 22.503116915207528 ], [ 88.381278646632438, 22.50316231466887 ], [ 88.381315436860191, 22.503281748607993 ], [ 88.381342253467523, 22.503296670430451 ] ] ] } },
{ "type": "Feature", "properties": { "ward": 105, "source_sheet": "105_garfa 1.pdf p1", "source": "KMC ward sewerage network map (ArcMap GeoPDF)", "extraction_method": "geopdf_raster_polygonised", "georef_max_residual_m": 0.0 }, "geometry": { "type": "Polygon", "coordinates": [ [ [ 88.380568367965395, 22.502658848292043 ], [ 88.380620190861933, 22.502657053762274 ], [ 88.380646707002057, 22.502643077523743 ], [ 88.380664250968806, 22.502620916390164 ], [ 88.380672207906997, 22.50253139788472 ], [ 88.380667636032754, 22.502519048813976 ], [ 88.380643753170872, 22.502501350747458 ], [ 88.380602169076113, 22.502490676659125 ], [ 88.380528116028657, 22.502491274392064 ], [ 88.380414374554903, 22.502521093025361 ], [ 88.380371652510888, 22.50254345733476 ], [ 88.380348212848773, 22.502568418458171 ], [ 88.380353184981146, 22.502619298461276 ], [ 88.380388944923084, 22.502639653155637 ], [ 88.380464421928494, 22.502633539111763 ], [ 88.380568367965395, 22.502658848292043 ] ] ] } },
{ "type": "Feature", "properties": { "ward": 105, "source_sheet": "105_garfa 1.pdf p1", "source": "KMC ward sewerage network map (ArcMap GeoPDF)", "extraction_method": "geopdf_raster_polygonised", "georef_max_residual_m": 0.0 }, "geometry": { "type": "Polygon", "coordinates": [ [ [ 88.380925032324612, 22.50262982081901 ], [ 88.381086139126808, 22.502596866921362 ], [ 88.381109664474664, 22.502580162320541 ], [ 88.38111372146858, 22.502542971635542 ], [ 88.381080573860302, 22.502346439920924 ], [ 88.380996941704964, 22.502137929848679 ], [ 88.380972858649045, 22.502100966371909 ], [ 88.380918016652885, 22.502097280503609 ], [ 88.380761210548272, 22.502116437297236 ], [ 88.380740704542404, 22.502138622350948 ], [ 88.380732304376494, 22.502185481630377 ], [ 88.380902587570446, 22.502607982523589 ], [ 88.380910150195561, 22.502623059878616 ], [ 88.380925032324612, 22.50262982081901 ] ] ] } },
{ "type": "Feature", "properties": { "ward": 105, "source_sheet": "105_garfa 1.pdf p1", "source": "KMC ward sewerage network map (ArcMap GeoPDF)", "extraction_method": "geopdf_raster_polygonised", "georef_max_residual_m": 0.0 }, "geometry": { "type": "Polygon", "coordinates": [ [ [ 88.382338772258649, 22.502268840523723 ], [ 88.382437902893813, 22.502258405724213 ], [ 88.382453671291955, 22.502065607614064 ], [ 88.382469332977323, 22.502004927382096 ], [ 88.38246503029147, 22.501448969690014 ], [ 88.38234651776456, 22.501447175165122 ], [ 88.38237050198012, 22.50175938303687 ], [ 88.382372491809932, 22.501950661395906 ], [ 88.382337598409336, 22.502156000056338 ], [ 88.382338772258649, 22.502268840523723 ] ] ] } },
{ "type": "Feature", "properties": { "ward": 105, "source_sheet": "105_garfa 1.pdf p1", "source": "KMC ward sewerage network map (ArcMap GeoPDF)", "extraction_method": "geopdf_raster_polygonised", "georef_max_residual_m": 0.0 }, "geometry": { "type": "Polygon", "coordinates": [ [ [ 88.382401073206196, 22.501423338491072 ], [ 88.382455871997806, 22.501422895556015 ], [ 88.382457130510986, 22.501259115315637 ], [ 88.382423273414133, 22.501136905481843 ], [ 88.382422715116434, 22.501083237449254 ], [ 88.382433461190558, 22.500977181718639 ], [ 88.382483958557287, 22.500705658381349 ], [ 88.38258383108095, 22.500481903576532 ], [ 88.382695880888875, 22.500289703313729 ], [ 88.38277136272491, 22.500141837637461 ], [ 88.382881223185393, 22.500023970791766 ], [ 88.383091149179862, 22.49984336486315 ], [ 88.383432556756546, 22.499630042191601 ], [ 88.38355631851627, 22.499567111231787 ], [ 88.383709743685046, 22.499508068854119 ], [ 88.383864979297798, 22.499480664718263 ], [ 88.38386929342164, 22.499468243842571 ], [ 88.383912243195908, 22.499467896317746 ], [ 88.383916457012333, 22.49944584272135 ], [ 88.38391053290654, 22.499445890656599 ], [ 88.38390711233005, 22.499401879334002 ], [ 88.383683520374461, 22.499407817030914 ], [ 88.383578639699167, 22.499434813652925 ], [ 88.383487317417305, 22.499483720038914 ], [ 88.383479883632347, 22.499481027732202 ], [ 88.383479940931068, 22.499486532144438 ], [ 88.383429858166934, 22.499513085410012 ], [ 88.383415062216301, 22.49951458130645 ], [ 88.383409252698328, 22.499525638048151 ], [ 88.383366618016197, 22.499556259708307 ], [ 88.383356250820441, 22.499556343559885 ], [ 88.383350441296116, 22.499567400299732 ], [ 88.383306339882452, 22.499599410026921 ], [ 88.383297439388727, 22.49959810579341 ], [ 88.383297511003477, 22.499604986309134 ], [ 88.383223989498831, 22.499656501021622 ], [ 88.383182749832855, 22.499678854039928 ], [ 88.383176797071698, 22.499676149742289 ], [ 88.383125304754927, 22.499709595412192 ], [ 88.383113456516924, 22.499709691225419 ], [ 88.383060540424466, 22.499748653265499 ], [ 88.383051639922627, 22.49974734901879 ], [ 88.383044363656595, 22.499759793828279 ], [ 88.382991361604894, 22.499790499227597 ], [ 88.382987033072894, 22.499801543980443 ], [ 88.382934030992061, 22.499832249362189 ], [ 88.382888519959337, 22.499871151474693 ], [ 88.382873723962092, 22.499872647323539 ], [ 88.382873795556819, 22.499879527840267 ], [ 88.38282527947176, 22.499914325575205 ], [ 88.382814897928554, 22.499913033289907 ], [ 88.382809102665149, 22.499925466116043 ], [ 88.382763491341038, 22.499954735472325 ], [ 88.382729957342335, 22.500005926685795 ], [ 88.382719633062806, 22.500010138808332 ], [ 88.382718280887133, 22.500022535712187 ], [ 88.382675832018677, 22.5000710465475 ], [ 88.38267886567219, 22.50007790311907 ], [ 88.382661350970594, 22.500102816653513 ], [ 88.382636416773622, 22.500126413945214 ], [ 88.382617549873203, 22.500163724378904 ], [ 88.382553214664426, 22.500244065147943 ], [ 88.382554824544627, 22.500256438107417 ], [ 88.382525719193922, 22.500306217265141 ], [ 88.38252732907273, 22.500318590224882 ], [ 88.382508519381872, 22.500361405061632 ], [ 88.382496771294143, 22.500371133556673 ], [ 88.382498381171473, 22.500383506516705 ], [ 88.38247957146389, 22.50042632135062 ], [ 88.382469275776032, 22.500433285665821 ], [ 88.382473776151073, 22.500438754166503 ], [ 88.382452075928441, 22.500488473457352 ], [ 88.382440327826302, 22.500498201948865 ], [ 88.382444813887389, 22.500502294346777 ], [ 88.382433251878922, 22.500529912183261 ], [ 88.382386832026171, 22.500623870280226 ], [ 88.382391332404737, 22.500629338782943 ], [ 88.382378532683987, 22.500680362346102 ], [ 88.382369746642269, 22.500690066892549 ], [ 88.382368580520861, 22.500720353139847 ], [ 88.382352675558195, 22.500757639606856 ], [ 88.382357190254538, 22.500764484213775 ], [ 88.38234437619721, 22.500814131671145 ], [ 88.382335604459342, 22.500825212319626 ], [ 88.382340104842939, 22.500830680823416 ], [ 88.382321481117231, 22.500891384987504 ], [ 88.382325981502589, 22.500896853491561 ], [ 88.38230885312106, 22.50095892178792 ], [ 88.38231335350828, 22.500964390292204 ], [ 88.382300682561365, 22.501027798781468 ], [ 88.382300632926999, 22.501165421098687 ], [ 88.382308124041145, 22.501173617869735 ], [ 88.382317554261135, 22.501225837980577 ], [ 88.382313197007875, 22.501234130511445 ], [ 88.382320659497879, 22.501239575074752 ], [ 88.382330118357501, 22.501294547390824 ], [ 88.382325761103104, 22.50130283992204 ], [ 88.382333266541124, 22.501312412794753 ], [ 88.382343283686694, 22.501421053141623 ], [ 88.382401073206196, 22.501423338491072 ] ] ] } }
]
}
